{
"type": "FeatureCollection",
"name": "gusbourne_south_block_end_posts_labelled",
"crs": { "type": "name", "properties": { "name": "urn:ogc:def:crs:EPSG::4979" } },
"features": [
{ "type": "Feature", "properties": { "styleUrl": "#pointStyleMap", "icon": "http://maps.google.com/mapfiles/kml/shapes/placemark_circle.png", "Latitude": 51.0384, "Longitude": 0.796072, "Row": 1 }, "geometry": { "type": "Point", "coordinates": [ 0.796072, 51.038448, 0.0 ] } },
{ "type": "Feature", "properties": { "styleUrl": "#pointStyleMap", "icon": "http://maps.google.com/mapfiles/kml/shapes/placemark_circle.png", "Latitude": 51.038, "Longitude": 0.796262, "Row": 1 }, "geometry": { "type": "Point", "coordinates": [ 0.796262, 51.037951, 0.0 ] } },
{ "type": "Feature", "properties": { "styleUrl": "#pointStyleMap", "icon": "http://maps.google.com/mapfiles/kml/shapes/placemark_circle.png", "Latitude": 51.0385, "Longitude": 0.796107, "Row": 2 }, "geometry": { "type": "Point", "coordinates": [ 0.796107, 51.038451, 0.0 ] } },
{ "type": "Feature", "properties": { "styleUrl": "#pointStyleMap", "icon": "http://maps.google.com/mapfiles/kml/shapes/placemark_circle.png", "Latitude": 51.0377, "Longitude": 0.796384, "Row": 2 }, "geometry": { "type": "Point", "coordinates": [ 0.796384, 51.037723, 0.0 ] } },
{ "type": "Feature", "properties": { "styleUrl": "#pointStyleMap", "icon": "http://maps.google.com/mapfiles/kml/shapes/placemark_circle.png", "Latitude": 51.0385, "Longitude": 0.796143, "Row": 3 }, "geometry": { "type": "Point", "coordinates": [ 0.796143, 51.038453, 0.0 ] } },
{ "type": "Feature", "properties": { "styleUrl": "#pointStyleMap", "icon": "http://maps.google.com/mapfiles/kml/shapes/placemark_circle.png", "Latitude": 51.0375, "Longitude": 0.796519, "Row": 3 }, "geometry": { "type": "Point", "coordinates": [ 0.796519, 51.037469, 0.0 ] } },
{ "type": "Feature", "properties": { "styleUrl": "#pointStyleMap", "icon": "http://maps.google.com/mapfiles/kml/shapes/placemark_circle.png", "Latitude": 51.0385, "Longitude": 0.796177, "Row": 4 }, "geometry": { "type": "Point", "coordinates": [ 0.796177, 51.038457, 0.0 ] } },
{ "type": "Feature", "properties": { "styleUrl": "#pointStyleMap", "icon": "http://maps.google.com/mapfiles/kml/shapes/placemark_circle.png", "Latitude": 51.0375, "Longitude": 0.796555, "Row": 4 }, "geometry": { "type": "Point", "coordinates": [ 0.796555, 51.037474, 0.0 ] } },
{ "type": "Feature", "properties": { "styleUrl": "#pointStyleMap", "icon": "http://maps.google.com/mapfiles/kml/shapes/placemark_circle.png", "Latitude": 51.0385, "Longitude": 0.796215, "Row": 5 }, "geometry": { "type": "Point", "coordinates": [ 0.796215, 51.03846, 0.0 ] } },
{ "type": "Feature", "properties": { "styleUrl": "#pointStyleMap", "icon": "http://maps.google.com/mapfiles/kml/shapes/placemark_circle.png", "Latitude": 51.0375, "Longitude": 0.796589, "Row": 5 }, "geometry": { "type": "Point", "coordinates": [ 0.796589, 51.03748, 0.0 ] } },
{ "type": "Feature", "properties": { "styleUrl": "#pointStyleMap", "icon": "http://maps.google.com/mapfiles/kml/shapes/placemark_circle.png", "Latitude": 51.0385, "Longitude": 0.796249, "Row": 6 }, "geometry": { "type": "Point", "coordinates": [ 0.796249, 51.038463, 0.0 ] } },
{ "type": "Feature", "properties": { "styleUrl": "#pointStyleMap", "icon": "http://maps.google.com/mapfiles/kml/shapes/placemark_circle.png", "Latitude": 51.0375, "Longitude": 0.796624, "Row": 6 }, "geometry": { "type": "Point", "coordinates": [ 0.796624, 51.037485, 0.0 ] } },
{ "type": "Feature", "properties": { "styleUrl": "#pointStyleMap", "icon": "http://maps.google.com/mapfiles/kml/shapes/placemark_circle.png", "Latitude": 51.0385, "Longitude": 0.796285, "Row": 7 }, "geometry": { "type": "Point", "coordinates": [ 0.796285, 51.038467, 0.0 ] } },
{ "type": "Feature", "properties": { "styleUrl": "#pointStyleMap", "icon": "http://maps.google.com/mapfiles/kml/shapes/placemark_circle.png", "Latitude": 51.0375, "Longitude": 0.79666, "Row": 7 }, "geometry": { "type": "Point", "coordinates": [ 0.79666, 51.03749, 0.0 ] } },
{ "type": "Feature", "properties": { "styleUrl": "#pointStyleMap", "icon": "http://maps.google.com/mapfiles/kml/shapes/placemark_circle.png", "Latitude": 51.0385, "Longitude": 0.79632, "Row": 8 }, "geometry": { "type": "Point", "coordinates": [ 0.79632, 51.03847, 0.0 ] } },
{ "type": "Feature", "properties": { "styleUrl": "#pointStyleMap", "icon": "http://maps.google.com/mapfiles/kml/shapes/placemark_circle.png", "Latitude": 51.0375, "Longitude": 0.796692, "Row": 8 }, "geometry": { "type": "Point", "coordinates": [ 0.796692, 51.037495, 0.0 ] } },
{ "type": "Feature", "properties": { "styleUrl": "#pointStyleMap", "icon": "http://maps.google.com/mapfiles/kml/shapes/placemark_circle.png", "Latitude": 51.0385, "Longitude": 0.796355, "Row": 9 }, "geometry": { "type": "Point", "coordinates": [ 0.796355, 51.038474, 0.0 ] } },
{ "type": "Feature", "properties": { "styleUrl": "#pointStyleMap", "icon": "http://maps.google.com/mapfiles/kml/shapes/placemark_circle.png", "Latitude": 51.0375, "Longitude": 0.796731, "Row": 9 }, "geometry": { "type": "Point", "coordinates": [ 0.796731, 51.037491, 0.0 ] } },
{ "type": "Feature", "properties": { "styleUrl": "#pointStyleMap", "icon": "http://maps.google.com/mapfiles/kml/shapes/placemark_circle.png", "Latitude": 51.0385, "Longitude": 0.796391, "Row": 10 }, "geometry": { "type": "Point", "coordinates": [ 0.796391, 51.038478, 0.0 ] } },
{ "type": "Feature", "properties": { "styleUrl": "#pointStyleMap", "icon": "http://maps.google.com/mapfiles/kml/shapes/placemark_circle.png", "Latitude": 51.0375, "Longitude": 0.796762, "Row": 10 }, "geometry": { "type": "Point", "coordinates": [ 0.796762, 51.037511, 0.0 ] } },
{ "type": "Feature", "properties": { "styleUrl": "#pointStyleMap", "icon": "http://maps.google.com/mapfiles/kml/shapes/placemark_circle.png", "Latitude": 51.0385, "Longitude": 0.796426, "Row": 11 }, "geometry": { "type": "Point", "coordinates": [ 0.796426, 51.03848, 0.0 ] } },
{ "type": "Feature", "properties": { "styleUrl": "#pointStyleMap", "icon": "http://maps.google.com/mapfiles/kml/shapes/placemark_circle.png", "Latitude": 51.0375, "Longitude": 0.796812, "Row": 11 }, "geometry": { "type": "Point", "coordinates": [ 0.796812, 51.037473, 0.0 ] } },
{ "type": "Feature", "properties": { "styleUrl": "#pointStyleMap", "icon": "http://maps.google.com/mapfiles/kml/shapes/placemark_circle.png", "Latitude": 51.0385, "Longitude": 0.796462, "Row": 12 }, "geometry": { "type": "Point", "coordinates": [ 0.796462, 51.038484, 0.0 ] } },
{ "type": "Feature", "properties": { "styleUrl": "#pointStyleMap", "icon": "http://maps.google.com/mapfiles/kml/shapes/placemark_circle.png", "Latitude": 51.0375, "Longitude": 0.796854, "Row": 12 }, "geometry": { "type": "Point", "coordinates": [ 0.796854, 51.037465, 0.0 ] } },
{ "type": "Feature", "properties": { "styleUrl": "#pointStyleMap", "icon": "http://maps.google.com/mapfiles/kml/shapes/placemark_circle.png", "Latitude": 51.0385, "Longitude": 0.796497, "Row": 13 }, "geometry": { "type": "Point", "coordinates": [ 0.796497, 51.038487, 0.0 ] } },
{ "type": "Feature", "properties": { "styleUrl": "#pointStyleMap", "icon": "http://maps.google.com/mapfiles/kml/shapes/placemark_circle.png", "Latitude": 51.0375, "Longitude": 0.796891, "Row": 13 }, "geometry": { "type": "Point", "coordinates": [ 0.796891, 51.037458, 0.0 ] } },
{ "type": "Feature", "properties": { "styleUrl": "#pointStyleMap", "icon": "http://maps.google.com/mapfiles/kml/shapes/placemark_circle.png", "Latitude": 51.0385, "Longitude": 0.796533, "Row": 14 }, "geometry": { "type": "Point", "coordinates": [ 0.796533, 51.03849, 0.0 ] } },
{ "type": "Feature", "properties": { "styleUrl": "#pointStyleMap", "icon": "http://maps.google.com/mapfiles/kml/shapes/placemark_circle.png", "Latitude": 51.0374, "Longitude": 0.796931, "Row": 14 }, "geometry": { "type": "Point", "coordinates": [ 0.796931, 51.03745, 0.0 ] } },
{ "type": "Feature", "properties": { "styleUrl": "#pointStyleMap", "icon": "http://maps.google.com/mapfiles/kml/shapes/placemark_circle.png", "Latitude": 51.0385, "Longitude": 0.796568, "Row": 15 }, "geometry": { "type": "Point", "coordinates": [ 0.796568, 51.038492, 0.0 ] } },
{ "type": "Feature", "properties": { "styleUrl": "#pointStyleMap", "icon": "http://maps.google.com/mapfiles/kml/shapes/placemark_circle.png", "Latitude": 51.0374, "Longitude": 0.796997, "Row": 15 }, "geometry": { "type": "Point", "coordinates": [ 0.796997, 51.037375, 0.0 ] } },
{ "type": "Feature", "properties": { "styleUrl": "#pointStyleMap", "icon": "http://maps.google.com/mapfiles/kml/shapes/placemark_circle.png", "Latitude": 51.0385, "Longitude": 0.796604, "Row": 16 }, "geometry": { "type": "Point", "coordinates": [ 0.796604, 51.038496, 0.0 ] } },
{ "type": "Feature", "properties": { "styleUrl": "#pointStyleMap", "icon": "http://maps.google.com/mapfiles/kml/shapes/placemark_circle.png", "Latitude": 51.0372, "Longitude": 0.797098, "Row": 16 }, "geometry": { "type": "Point", "coordinates": [ 0.797098, 51.037208, 0.0 ] } },
{ "type": "Feature", "properties": { "styleUrl": "#pointStyleMap", "icon": "http://maps.google.com/mapfiles/kml/shapes/placemark_circle.png", "Latitude": 51.0385, "Longitude": 0.79664, "Row": 17 }, "geometry": { "type": "Point", "coordinates": [ 0.79664, 51.0385, 0.0 ] } },
{ "type": "Feature", "properties": { "styleUrl": "#pointStyleMap", "icon": "http://maps.google.com/mapfiles/kml/shapes/placemark_circle.png", "Latitude": 51.0371, "Longitude": 0.797173, "Row": 17 }, "geometry": { "type": "Point", "coordinates": [ 0.797173, 51.037109, 0.0 ] } },
{ "type": "Feature", "properties": { "styleUrl": "#pointStyleMap", "icon": "http://maps.google.com/mapfiles/kml/shapes/placemark_circle.png", "Latitude": 51.0385, "Longitude": 0.796674, "Row": 18 }, "geometry": { "type": "Point", "coordinates": [ 0.796674, 51.038502, 0.0 ] } },
{ "type": "Feature", "properties": { "styleUrl": "#pointStyleMap", "icon": "http://maps.google.com/mapfiles/kml/shapes/placemark_circle.png", "Latitude": 51.0371, "Longitude": 0.797207, "Row": 18 }, "geometry": { "type": "Point", "coordinates": [ 0.797207, 51.037114, 0.0 ] } },
{ "type": "Feature", "properties": { "styleUrl": "#pointStyleMap", "icon": "http://maps.google.com/mapfiles/kml/shapes/placemark_circle.png", "Latitude": 51.0385, "Longitude": 0.796711, "Row": 19 }, "geometry": { "type": "Point", "coordinates": [ 0.796711, 51.038506, 0.0 ] } },
{ "type": "Feature", "properties": { "styleUrl": "#pointStyleMap", "icon": "http://maps.google.com/mapfiles/kml/shapes/placemark_circle.png", "Latitude": 51.0371, "Longitude": 0.797241, "Row": 19 }, "geometry": { "type": "Point", "coordinates": [ 0.797241, 51.037119, 0.0 ] } },
{ "type": "Feature", "properties": { "styleUrl": "#pointStyleMap", "icon": "http://maps.google.com/mapfiles/kml/shapes/placemark_circle.png", "Latitude": 51.0385, "Longitude": 0.796746, "Row": 20 }, "geometry": { "type": "Point", "coordinates": [ 0.796746, 51.038507, 0.0 ] } },
{ "type": "Feature", "properties": { "styleUrl": "#pointStyleMap", "icon": "http://maps.google.com/mapfiles/kml/shapes/placemark_circle.png", "Latitude": 51.0371, "Longitude": 0.797275, "Row": 20 }, "geometry": { "type": "Point", "coordinates": [ 0.797275, 51.037125, 0.0 ] } },
{ "type": "Feature", "properties": { "styleUrl": "#pointStyleMap", "icon": "http://maps.google.com/mapfiles/kml/shapes/placemark_circle.png", "Latitude": 51.0385, "Longitude": 0.796782, "Row": 21 }, "geometry": { "type": "Point", "coordinates": [ 0.796782, 51.038508, 0.0 ] } },
{ "type": "Feature", "properties": { "styleUrl": "#pointStyleMap", "icon": "http://maps.google.com/mapfiles/kml/shapes/placemark_circle.png", "Latitude": 51.0371, "Longitude": 0.797311, "Row": 21 }, "geometry": { "type": "Point", "coordinates": [ 0.797311, 51.03713, 0.0 ] } },
{ "type": "Feature", "properties": { "styleUrl": "#pointStyleMap", "icon": "http://maps.google.com/mapfiles/kml/shapes/placemark_circle.png", "Latitude": 51.0385, "Longitude": 0.796818, "Row": 22 }, "geometry": { "type": "Point", "coordinates": [ 0.796818, 51.038509, 0.0 ] } },
{ "type": "Feature", "properties": { "styleUrl": "#pointStyleMap", "icon": "http://maps.google.com/mapfiles/kml/shapes/placemark_circle.png", "Latitude": 51.0371, "Longitude": 0.797345, "Row": 22 }, "geometry": { "type": "Point", "coordinates": [ 0.797345, 51.037136, 0.0 ] } },
{ "type": "Feature", "properties": { "styleUrl": "#pointStyleMap", "icon": "http://maps.google.com/mapfiles/kml/shapes/placemark_circle.png", "Latitude": 51.0385, "Longitude": 0.796857, "Row": 23 }, "geometry": { "type": "Point", "coordinates": [ 0.796857, 51.038506, 0.0 ] } },
{ "type": "Feature", "properties": { "styleUrl": "#pointStyleMap", "icon": "http://maps.google.com/mapfiles/kml/shapes/placemark_circle.png", "Latitude": 51.0371, "Longitude": 0.797381, "Row": 23 }, "geometry": { "type": "Point", "coordinates": [ 0.797381, 51.037141, 0.0 ] } },
{ "type": "Feature", "properties": { "styleUrl": "#pointStyleMap", "icon": "http://maps.google.com/mapfiles/kml/shapes/placemark_circle.png", "Latitude": 51.0385, "Longitude": 0.796894, "Row": 24 }, "geometry": { "type": "Point", "coordinates": [ 0.796894, 51.038507, 0.0 ] } },
{ "type": "Feature", "properties": { "styleUrl": "#pointStyleMap", "icon": "http://maps.google.com/mapfiles/kml/shapes/placemark_circle.png", "Latitude": 51.0371, "Longitude": 0.797414, "Row": 24 }, "geometry": { "type": "Point", "coordinates": [ 0.797414, 51.037148, 0.0 ] } },
{ "type": "Feature", "properties": { "styleUrl": "#pointStyleMap", "icon": "http://maps.google.com/mapfiles/kml/shapes/placemark_circle.png", "Latitude": 51.0385, "Longitude": 0.796931, "Row": 25 }, "geometry": { "type": "Point", "coordinates": [ 0.796931, 51.038507, 0.0 ] } },
{ "type": "Feature", "properties": { "styleUrl": "#pointStyleMap", "icon": "http://maps.google.com/mapfiles/kml/shapes/placemark_circle.png", "Latitude": 51.0372, "Longitude": 0.797449, "Row": 25 }, "geometry": { "type": "Point", "coordinates": [ 0.797449, 51.037156, 0.0 ] } },
{ "type": "Feature", "properties": { "styleUrl": "#pointStyleMap", "icon": "http://maps.google.com/mapfiles/kml/shapes/placemark_circle.png", "Latitude": 51.0385, "Longitude": 0.796967, "Row": 26 }, "geometry": { "type": "Point", "coordinates": [ 0.796967, 51.038507, 0.0 ] } },
{ "type": "Feature", "properties": { "styleUrl": "#pointStyleMap", "icon": "http://maps.google.com/mapfiles/kml/shapes/placemark_circle.png", "Latitude": 51.0372, "Longitude": 0.797482, "Row": 26 }, "geometry": { "type": "Point", "coordinates": [ 0.797482, 51.037164, 0.0 ] } },
{ "type": "Feature", "properties": { "styleUrl": "#pointStyleMap", "icon": "http://maps.google.com/mapfiles/kml/shapes/placemark_circle.png", "Latitude": 51.0385, "Longitude": 0.797003, "Row": 27 }, "geometry": { "type": "Point", "coordinates": [ 0.797003, 51.038509, 0.0 ] } },
{ "type": "Feature", "properties": { "styleUrl": "#pointStyleMap", "icon": "http://maps.google.com/mapfiles/kml/shapes/placemark_circle.png", "Latitude": 51.0372, "Longitude": 0.797516, "Row": 27 }, "geometry": { "type": "Point", "coordinates": [ 0.797516, 51.037171, 0.0 ] } },
{ "type": "Feature", "properties": { "styleUrl": "#pointStyleMap", "icon": "http://maps.google.com/mapfiles/kml/shapes/placemark_circle.png", "Latitude": 51.0385, "Longitude": 0.79704, "Row": 28 }, "geometry": { "type": "Point", "coordinates": [ 0.79704, 51.038509, 0.0 ] } },
{ "type": "Feature", "properties": { "styleUrl": "#pointStyleMap", "icon": "http://maps.google.com/mapfiles/kml/shapes/placemark_circle.png", "Latitude": 51.0372, "Longitude": 0.797548, "Row": 28 }, "geometry": { "type": "Point", "coordinates": [ 0.797548, 51.037178, 0.0 ] } },
{ "type": "Feature", "properties": { "styleUrl": "#pointStyleMap", "icon": "http://maps.google.com/mapfiles/kml/shapes/placemark_circle.png", "Latitude": 51.0385, "Longitude": 0.797077, "Row": 29 }, "geometry": { "type": "Point", "coordinates": [ 0.797077, 51.038508, 0.0 ] } },
{ "type": "Feature", "properties": { "styleUrl": "#pointStyleMap", "icon": "http://maps.google.com/mapfiles/kml/shapes/placemark_circle.png", "Latitude": 51.0372, "Longitude": 0.797581, "Row": 29 }, "geometry": { "type": "Point", "coordinates": [ 0.797581, 51.037186, 0.0 ] } },
{ "type": "Feature", "properties": { "styleUrl": "#pointStyleMap", "icon": "http://maps.google.com/mapfiles/kml/shapes/placemark_circle.png", "Latitude": 51.0385, "Longitude": 0.797112, "Row": 30 }, "geometry": { "type": "Point", "coordinates": [ 0.797112, 51.038509, 0.0 ] } },
{ "type": "Feature", "properties": { "styleUrl": "#pointStyleMap", "icon": "http://maps.google.com/mapfiles/kml/shapes/placemark_circle.png", "Latitude": 51.0372, "Longitude": 0.797617, "Row": 30 }, "geometry": { "type": "Point", "coordinates": [ 0.797617, 51.037193, 0.0 ] } },
{ "type": "Feature", "properties": { "styleUrl": "#pointStyleMap", "icon": "http://maps.google.com/mapfiles/kml/shapes/placemark_circle.png", "Latitude": 51.0385, "Longitude": 0.797151, "Row": 31 }, "geometry": { "type": "Point", "coordinates": [ 0.797151, 51.038507, 0.0 ] } },
{ "type": "Feature", "properties": { "styleUrl": "#pointStyleMap", "icon": "http://maps.google.com/mapfiles/kml/shapes/placemark_circle.png", "Latitude": 51.0372, "Longitude": 0.79765, "Row": 31 }, "geometry": { "type": "Point", "coordinates": [ 0.79765, 51.037201, 0.0 ] } },
{ "type": "Feature", "properties": { "styleUrl": "#pointStyleMap", "icon": "http://maps.google.com/mapfiles/kml/shapes/placemark_circle.png", "Latitude": 51.0385, "Longitude": 0.797186, "Row": 32 }, "geometry": { "type": "Point", "coordinates": [ 0.797186, 51.038505, 0.0 ] } },
{ "type": "Feature", "properties": { "styleUrl": "#pointStyleMap", "icon": "http://maps.google.com/mapfiles/kml/shapes/placemark_circle.png", "Latitude": 51.0372, "Longitude": 0.797684, "Row": 32 }, "geometry": { "type": "Point", "coordinates": [ 0.797684, 51.037208, 0.0 ] } },
{ "type": "Feature", "properties": { "styleUrl": "#pointStyleMap", "icon": "http://maps.google.com/mapfiles/kml/shapes/placemark_circle.png", "Latitude": 51.0385, "Longitude": 0.797229, "Row": 33 }, "geometry": { "type": "Point", "coordinates": [ 0.797229, 51.038502, 0.0 ] } },
{ "type": "Feature", "properties": { "styleUrl": "#pointStyleMap", "icon": "http://maps.google.com/mapfiles/kml/shapes/placemark_circle.png", "Latitude": 51.0372, "Longitude": 0.797719, "Row": 33 }, "geometry": { "type": "Point", "coordinates": [ 0.797719, 51.037216, 0.0 ] } },
{ "type": "Feature", "properties": { "styleUrl": "#pointStyleMap", "icon": "http://maps.google.com/mapfiles/kml/shapes/placemark_circle.png", "Latitude": 51.0385, "Longitude": 0.797266, "Row": 34 }, "geometry": { "type": "Point", "coordinates": [ 0.797266, 51.0385, 0.0 ] } },
{ "type": "Feature", "properties": { "styleUrl": "#pointStyleMap", "icon": "http://maps.google.com/mapfiles/kml/shapes/placemark_circle.png", "Latitude": 51.0372, "Longitude": 0.797751, "Row": 34 }, "geometry": { "type": "Point", "coordinates": [ 0.797751, 51.037223, 0.0 ] } },
{ "type": "Feature", "properties": { "styleUrl": "#pointStyleMap", "icon": "http://maps.google.com/mapfiles/kml/shapes/placemark_circle.png", "Latitude": 51.0385, "Longitude": 0.797301, "Row": 35 }, "geometry": { "type": "Point", "coordinates": [ 0.797301, 51.038499, 0.0 ] } },
{ "type": "Feature", "properties": { "styleUrl": "#pointStyleMap", "icon": "http://maps.google.com/mapfiles/kml/shapes/placemark_circle.png", "Latitude": 51.0372, "Longitude": 0.797786, "Row": 35 }, "geometry": { "type": "Point", "coordinates": [ 0.797786, 51.03723, 0.0 ] } },
{ "type": "Feature", "properties": { "styleUrl": "#pointStyleMap", "icon": "http://maps.google.com/mapfiles/kml/shapes/placemark_circle.png", "Latitude": 51.0385, "Longitude": 0.797339, "Row": 36 }, "geometry": { "type": "Point", "coordinates": [ 0.797339, 51.038495, 0.0 ] } },
{ "type": "Feature", "properties": { "styleUrl": "#pointStyleMap", "icon": "http://maps.google.com/mapfiles/kml/shapes/placemark_circle.png", "Latitude": 51.0372, "Longitude": 0.79782, "Row": 36 }, "geometry": { "type": "Point", "coordinates": [ 0.79782, 51.037238, 0.0 ] } },
{ "type": "Feature", "properties": { "styleUrl": "#pointStyleMap", "icon": "http://maps.google.com/mapfiles/kml/shapes/placemark_circle.png", "Latitude": 51.0385, "Longitude": 0.797376, "Row": 37 }, "geometry": { "type": "Point", "coordinates": [ 0.797376, 51.038494, 0.0 ] } },
{ "type": "Feature", "properties": { "styleUrl": "#pointStyleMap", "icon": "http://maps.google.com/mapfiles/kml/shapes/placemark_circle.png", "Latitude": 51.0372, "Longitude": 0.797853, "Row": 37 }, "geometry": { "type": "Point", "coordinates": [ 0.797853, 51.037245, 0.0 ] } },
{ "type": "Feature", "properties": { "styleUrl": "#pointStyleMap", "icon": "http://maps.google.com/mapfiles/kml/shapes/placemark_circle.png", "Latitude": 51.0385, "Longitude": 0.797414, "Row": 38 }, "geometry": { "type": "Point", "coordinates": [ 0.797414, 51.038493, 0.0 ] } },
{ "type": "Feature", "properties": { "styleUrl": "#pointStyleMap", "icon": "http://maps.google.com/mapfiles/kml/shapes/placemark_circle.png", "Latitude": 51.0373, "Longitude": 0.797888, "Row": 38 }, "geometry": { "type": "Point", "coordinates": [ 0.797888, 51.037254, 0.0 ] } },
{ "type": "Feature", "properties": { "styleUrl": "#pointStyleMap", "icon": "http://maps.google.com/mapfiles/kml/shapes/placemark_circle.png", "Latitude": 51.0385, "Longitude": 0.797452, "Row": 39 }, "geometry": { "type": "Point", "coordinates": [ 0.797452, 51.03849, 0.0 ] } },
{ "type": "Feature", "properties": { "styleUrl": "#pointStyleMap", "icon": "http://maps.google.com/mapfiles/kml/shapes/placemark_circle.png", "Latitude": 51.0373, "Longitude": 0.79792, "Row": 39 }, "geometry": { "type": "Point", "coordinates": [ 0.79792, 51.037261, 0.0 ] } },
{ "type": "Feature", "properties": { "styleUrl": "#pointStyleMap", "icon": "http://maps.google.com/mapfiles/kml/shapes/placemark_circle.png", "Latitude": 51.0385, "Longitude": 0.797484, "Row": 40 }, "geometry": { "type": "Point", "coordinates": [ 0.797484, 51.038498, 0.0 ] } },
{ "type": "Feature", "properties": { "styleUrl": "#pointStyleMap", "icon": "http://maps.google.com/mapfiles/kml/shapes/placemark_circle.png", "Latitude": 51.0373, "Longitude": 0.797955, "Row": 40 }, "geometry": { "type": "Point", "coordinates": [ 0.797955, 51.037268, 0.0 ] } },
{ "type": "Feature", "properties": { "styleUrl": "#pointStyleMap", "icon": "http://maps.google.com/mapfiles/kml/shapes/placemark_circle.png", "Latitude": 51.0385, "Longitude": 0.797519, "Row": 41 }, "geometry": { "type": "Point", "coordinates": [ 0.797519, 51.038504, 0.0 ] } },
{ "type": "Feature", "properties": { "styleUrl": "#pointStyleMap", "icon": "http://maps.google.com/mapfiles/kml/shapes/placemark_circle.png", "Latitude": 51.0373, "Longitude": 0.797989, "Row": 41 }, "geometry": { "type": "Point", "coordinates": [ 0.797989, 51.037276, 0.0 ] } },
{ "type": "Feature", "properties": { "styleUrl": "#pointStyleMap", "icon": "http://maps.google.com/mapfiles/kml/shapes/placemark_circle.png", "Latitude": 51.0373, "Longitude": 0.798023, "Row": 42 }, "geometry": { "type": "Point", "coordinates": [ 0.798023, 51.037284, 0.0 ] } },
{ "type": "Feature", "properties": { "styleUrl": "#pointStyleMap", "icon": "http://maps.google.com/mapfiles/kml/shapes/placemark_circle.png", "Latitude": 51.0385, "Longitude": 0.797551, "Row": 42 }, "geometry": { "type": "Point", "coordinates": [ 0.797551, 51.038513, 0.0 ] } },
{ "type": "Feature", "properties": { "styleUrl": "#pointStyleMap", "icon": "http://maps.google.com/mapfiles/kml/shapes/placemark_circle.png", "Latitude": 51.0385, "Longitude": 0.797585, "Row": 43 }, "geometry": { "type": "Point", "coordinates": [ 0.797585, 51.038521, 0.0 ] } },
{ "type": "Feature", "properties": { "styleUrl": "#pointStyleMap", "icon": "http://maps.google.com/mapfiles/kml/shapes/placemark_circle.png", "Latitude": 51.0373, "Longitude": 0.798056, "Row": 43 }, "geometry": { "type": "Point", "coordinates": [ 0.798056, 51.037291, 0.0 ] } },
{ "type": "Feature", "properties": { "styleUrl": "#pointStyleMap", "icon": "http://maps.google.com/mapfiles/kml/shapes/placemark_circle.png", "Latitude": 51.0385, "Longitude": 0.797619, "Row": 44 }, "geometry": { "type": "Point", "coordinates": [ 0.797619, 51.038527, 0.0 ] } },
{ "type": "Feature", "properties": { "styleUrl": "#pointStyleMap", "icon": "http://maps.google.com/mapfiles/kml/shapes/placemark_circle.png", "Latitude": 51.0373, "Longitude": 0.798089, "Row": 44 }, "geometry": { "type": "Point", "coordinates": [ 0.798089, 51.037299, 0.0 ] } },
{ "type": "Feature", "properties": { "styleUrl": "#pointStyleMap", "icon": "http://maps.google.com/mapfiles/kml/shapes/placemark_circle.png", "Latitude": 51.0385, "Longitude": 0.797653, "Row": 45 }, "geometry": { "type": "Point", "coordinates": [ 0.797653, 51.038537, 0.0 ] } },
{ "type": "Feature", "properties": { "styleUrl": "#pointStyleMap", "icon": "http://maps.google.com/mapfiles/kml/shapes/placemark_circle.png", "Latitude": 51.0373, "Longitude": 0.798124, "Row": 45 }, "geometry": { "type": "Point", "coordinates": [ 0.798124, 51.037308, 0.0 ] } },
{ "type": "Feature", "properties": { "styleUrl": "#pointStyleMap", "icon": "http://maps.google.com/mapfiles/kml/shapes/placemark_circle.png", "Latitude": 51.0385, "Longitude": 0.797687, "Row": 46 }, "geometry": { "type": "Point", "coordinates": [ 0.797687, 51.038542, 0.0 ] } },
{ "type": "Feature", "properties": { "styleUrl": "#pointStyleMap", "icon": "http://maps.google.com/mapfiles/kml/shapes/placemark_circle.png", "Latitude": 51.0373, "Longitude": 0.798156, "Row": 46 }, "geometry": { "type": "Point", "coordinates": [ 0.798156, 51.037317, 0.0 ] } },
{ "type": "Feature", "properties": { "styleUrl": "#pointStyleMap", "icon": "http://maps.google.com/mapfiles/kml/shapes/placemark_circle.png", "Latitude": 51.0385, "Longitude": 0.797721, "Row": 47 }, "geometry": { "type": "Point", "coordinates": [ 0.797721, 51.038549, 0.0 ] } },
{ "type": "Feature", "properties": { "styleUrl": "#pointStyleMap", "icon": "http://maps.google.com/mapfiles/kml/shapes/placemark_circle.png", "Latitude": 51.0373, "Longitude": 0.79819, "Row": 47 }, "geometry": { "type": "Point", "coordinates": [ 0.79819, 51.037328, 0.0 ] } },
{ "type": "Feature", "properties": { "styleUrl": "#pointStyleMap", "icon": "http://maps.google.com/mapfiles/kml/shapes/placemark_circle.png", "Latitude": 51.0386, "Longitude": 0.797756, "Row": 48 }, "geometry": { "type": "Point", "coordinates": [ 0.797756, 51.038555, 0.0 ] } },
{ "type": "Feature", "properties": { "styleUrl": "#pointStyleMap", "icon": "http://maps.google.com/mapfiles/kml/shapes/placemark_circle.png", "Latitude": 51.0373, "Longitude": 0.798222, "Row": 48 }, "geometry": { "type": "Point", "coordinates": [ 0.798222, 51.037336, 0.0 ] } },
{ "type": "Feature", "properties": { "styleUrl": "#pointStyleMap", "icon": "http://maps.google.com/mapfiles/kml/shapes/placemark_circle.png", "Latitude": 51.0386, "Longitude": 0.797791, "Row": 49 }, "geometry": { "type": "Point", "coordinates": [ 0.797791, 51.038559, 0.0 ] } },
{ "type": "Feature", "properties": { "styleUrl": "#pointStyleMap", "icon": "http://maps.google.com/mapfiles/kml/shapes/placemark_circle.png", "Latitude": 51.0373, "Longitude": 0.798256, "Row": 49 }, "geometry": { "type": "Point", "coordinates": [ 0.798256, 51.037346, 0.0 ] } },
{ "type": "Feature", "properties": { "styleUrl": "#pointStyleMap", "icon": "http://maps.google.com/mapfiles/kml/shapes/placemark_circle.png", "Latitude": 51.0386, "Longitude": 0.797826, "Row": 50 }, "geometry": { "type": "Point", "coordinates": [ 0.797826, 51.038566, 0.0 ] } },
{ "type": "Feature", "properties": { "styleUrl": "#pointStyleMap", "icon": "http://maps.google.com/mapfiles/kml/shapes/placemark_circle.png", "Latitude": 51.0374, "Longitude": 0.798289, "Row": 50 }, "geometry": { "type": "Point", "coordinates": [ 0.798289, 51.037356, 0.0 ] } },
{ "type": "Feature", "properties": { "styleUrl": "#pointStyleMap", "icon": "http://maps.google.com/mapfiles/kml/shapes/placemark_circle.png", "Latitude": 51.0386, "Longitude": 0.797859, "Row": 51 }, "geometry": { "type": "Point", "coordinates": [ 0.797859, 51.038571, 0.0 ] } },
{ "type": "Feature", "properties": { "styleUrl": "#pointStyleMap", "icon": "http://maps.google.com/mapfiles/kml/shapes/placemark_circle.png", "Latitude": 51.0374, "Longitude": 0.798321, "Row": 51 }, "geometry": { "type": "Point", "coordinates": [ 0.798321, 51.037366, 0.0 ] } },
{ "type": "Feature", "properties": { "styleUrl": "#pointStyleMap", "icon": "http://maps.google.com/mapfiles/kml/shapes/placemark_circle.png", "Latitude": 51.0386, "Longitude": 0.797895, "Row": 52 }, "geometry": { "type": "Point", "coordinates": [ 0.797895, 51.038577, 0.0 ] } },
{ "type": "Feature", "properties": { "styleUrl": "#pointStyleMap", "icon": "http://maps.google.com/mapfiles/kml/shapes/placemark_circle.png", "Latitude": 51.0374, "Longitude": 0.798355, "Row": 52 }, "geometry": { "type": "Point", "coordinates": [ 0.798355, 51.037376, 0.0 ] } },
{ "type": "Feature", "properties": { "styleUrl": "#pointStyleMap", "icon": "http://maps.google.com/mapfiles/kml/shapes/placemark_circle.png", "Latitude": 51.0386, "Longitude": 0.797929, "Row": 53 }, "geometry": { "type": "Point", "coordinates": [ 0.797929, 51.038581, 0.0 ] } },
{ "type": "Feature", "properties": { "styleUrl": "#pointStyleMap", "icon": "http://maps.google.com/mapfiles/kml/shapes/placemark_circle.png", "Latitude": 51.0374, "Longitude": 0.798387, "Row": 53 }, "geometry": { "type": "Point", "coordinates": [ 0.798387, 51.037385, 0.0 ] } },
{ "type": "Feature", "properties": { "styleUrl": "#pointStyleMap", "icon": "http://maps.google.com/mapfiles/kml/shapes/placemark_circle.png", "Latitude": 51.0386, "Longitude": 0.797964, "Row": 54 }, "geometry": { "type": "Point", "coordinates": [ 0.797964, 51.038588, 0.0 ] } },
{ "type": "Feature", "properties": { "styleUrl": "#pointStyleMap", "icon": "http://maps.google.com/mapfiles/kml/shapes/placemark_circle.png", "Latitude": 51.0374, "Longitude": 0.798421, "Row": 54 }, "geometry": { "type": "Point", "coordinates": [ 0.798421, 51.037397, 0.0 ] } },
{ "type": "Feature", "properties": { "styleUrl": "#pointStyleMap", "icon": "http://maps.google.com/mapfiles/kml/shapes/placemark_circle.png", "Latitude": 51.0386, "Longitude": 0.797998, "Row": 55 }, "geometry": { "type": "Point", "coordinates": [ 0.797998, 51.038592, 0.0 ] } },
{ "type": "Feature", "properties": { "styleUrl": "#pointStyleMap", "icon": "http://maps.google.com/mapfiles/kml/shapes/placemark_circle.png", "Latitude": 51.0374, "Longitude": 0.798456, "Row": 55 }, "geometry": { "type": "Point", "coordinates": [ 0.798456, 51.037406, 0.0 ] } },
{ "type": "Feature", "properties": { "styleUrl": "#pointStyleMap", "icon": "http://maps.google.com/mapfiles/kml/shapes/placemark_circle.png", "Latitude": 51.0386, "Longitude": 0.798033, "Row": 56 }, "geometry": { "type": "Point", "coordinates": [ 0.798033, 51.038597, 0.0 ] } },
{ "type": "Feature", "properties": { "styleUrl": "#pointStyleMap", "icon": "http://maps.google.com/mapfiles/kml/shapes/placemark_circle.png", "Latitude": 51.0374, "Longitude": 0.798487, "Row": 56 }, "geometry": { "type": "Point", "coordinates": [ 0.798487, 51.037415, 0.0 ] } },
{ "type": "Feature", "properties": { "styleUrl": "#pointStyleMap", "icon": "http://maps.google.com/mapfiles/kml/shapes/placemark_circle.png", "Latitude": 51.0386, "Longitude": 0.798066, "Row": 57 }, "geometry": { "type": "Point", "coordinates": [ 0.798066, 51.038605, 0.0 ] } },
{ "type": "Feature", "properties": { "styleUrl": "#pointStyleMap", "icon": "http://maps.google.com/mapfiles/kml/shapes/placemark_circle.png", "Latitude": 51.0374, "Longitude": 0.798518, "Row": 57 }, "geometry": { "type": "Point", "coordinates": [ 0.798518, 51.037426, 0.0 ] } },
{ "type": "Feature", "properties": { "styleUrl": "#pointStyleMap", "icon": "http://maps.google.com/mapfiles/kml/shapes/placemark_circle.png", "Latitude": 51.0386, "Longitude": 0.7981, "Row": 58 }, "geometry": { "type": "Point", "coordinates": [ 0.7981, 51.038613, 0.0 ] } },
{ "type": "Feature", "properties": { "styleUrl": "#pointStyleMap", "icon": "http://maps.google.com/mapfiles/kml/shapes/placemark_circle.png", "Latitude": 51.0374, "Longitude": 0.798551, "Row": 58 }, "geometry": { "type": "Point", "coordinates": [ 0.798551, 51.037437, 0.0 ] } },
{ "type": "Feature", "properties": { "styleUrl": "#pointStyleMap", "icon": "http://maps.google.com/mapfiles/kml/shapes/placemark_circle.png", "Latitude": 51.0386, "Longitude": 0.798134, "Row": 59 }, "geometry": { "type": "Point", "coordinates": [ 0.798134, 51.038623, 0.0 ] } },
{ "type": "Feature", "properties": { "styleUrl": "#pointStyleMap", "icon": "http://maps.google.com/mapfiles/kml/shapes/placemark_circle.png", "Latitude": 51.0375, "Longitude": 0.798584, "Row": 59 }, "geometry": { "type": "Point", "coordinates": [ 0.798584, 51.037451, 0.0 ] } },
{ "type": "Feature", "properties": { "styleUrl": "#pointStyleMap", "icon": "http://maps.google.com/mapfiles/kml/shapes/placemark_circle.png", "Latitude": 51.0386, "Longitude": 0.798168, "Row": 60 }, "geometry": { "type": "Point", "coordinates": [ 0.798168, 51.038629, 0.0 ] } },
{ "type": "Feature", "properties": { "styleUrl": "#pointStyleMap", "icon": "http://maps.google.com/mapfiles/kml/shapes/placemark_circle.png", "Latitude": 51.0375, "Longitude": 0.798615, "Row": 60 }, "geometry": { "type": "Point", "coordinates": [ 0.798615, 51.037458, 0.0 ] } },
{ "type": "Feature", "properties": { "styleUrl": "#pointStyleMap", "icon": "http://maps.google.com/mapfiles/kml/shapes/placemark_circle.png", "Latitude": 51.0386, "Longitude": 0.798202, "Row": 61 }, "geometry": { "type": "Point", "coordinates": [ 0.798202, 51.038637, 0.0 ] } },
{ "type": "Feature", "properties": { "styleUrl": "#pointStyleMap", "icon": "http://maps.google.com/mapfiles/kml/shapes/placemark_circle.png", "Latitude": 51.0375, "Longitude": 0.798647, "Row": 61 }, "geometry": { "type": "Point", "coordinates": [ 0.798647, 51.03747, 0.0 ] } },
{ "type": "Feature", "properties": { "styleUrl": "#pointStyleMap", "icon": "http://maps.google.com/mapfiles/kml/shapes/placemark_circle.png", "Latitude": 51.0386, "Longitude": 0.798234, "Row": 62 }, "geometry": { "type": "Point", "coordinates": [ 0.798234, 51.038646, 0.0 ] } },
{ "type": "Feature", "properties": { "styleUrl": "#pointStyleMap", "icon": "http://maps.google.com/mapfiles/kml/shapes/placemark_circle.png", "Latitude": 51.0375, "Longitude": 0.798682, "Row": 62 }, "geometry": { "type": "Point", "coordinates": [ 0.798682, 51.037481, 0.0 ] } },
{ "type": "Feature", "properties": { "styleUrl": "#pointStyleMap", "icon": "http://maps.google.com/mapfiles/kml/shapes/placemark_circle.png", "Latitude": 51.0387, "Longitude": 0.798269, "Row": 63 }, "geometry": { "type": "Point", "coordinates": [ 0.798269, 51.038654, 0.0 ] } },
{ "type": "Feature", "properties": { "styleUrl": "#pointStyleMap", "icon": "http://maps.google.com/mapfiles/kml/shapes/placemark_circle.png", "Latitude": 51.0375, "Longitude": 0.798714, "Row": 63 }, "geometry": { "type": "Point", "coordinates": [ 0.798714, 51.03749, 0.0 ] } },
{ "type": "Feature", "properties": { "styleUrl": "#pointStyleMap", "icon": "http://maps.google.com/mapfiles/kml/shapes/placemark_circle.png", "Latitude": 51.0387, "Longitude": 0.798302, "Row": 64 }, "geometry": { "type": "Point", "coordinates": [ 0.798302, 51.038662, 0.0 ] } },
{ "type": "Feature", "properties": { "styleUrl": "#pointStyleMap", "icon": "http://maps.google.com/mapfiles/kml/shapes/placemark_circle.png", "Latitude": 51.0375, "Longitude": 0.798747, "Row": 64 }, "geometry": { "type": "Point", "coordinates": [ 0.798747, 51.0375, 0.0 ] } },
{ "type": "Feature", "properties": { "styleUrl": "#pointStyleMap", "icon": "http://maps.google.com/mapfiles/kml/shapes/placemark_circle.png", "Latitude": 51.0387, "Longitude": 0.798328, "Row": 65 }, "geometry": { "type": "Point", "coordinates": [ 0.798328, 51.038689, 0.0 ] } },
{ "type": "Feature", "properties": { "styleUrl": "#pointStyleMap", "icon": "http://maps.google.com/mapfiles/kml/shapes/placemark_circle.png", "Latitude": 51.0375, "Longitude": 0.798779, "Row": 65 }, "geometry": { "type": "Point", "coordinates": [ 0.798779, 51.037512, 0.0 ] } },
{ "type": "Feature", "properties": { "styleUrl": "#pointStyleMap", "icon": "http://maps.google.com/mapfiles/kml/shapes/placemark_circle.png", "Latitude": 51.0387, "Longitude": 0.798353, "Row": 66 }, "geometry": { "type": "Point", "coordinates": [ 0.798353, 51.038717, 0.0 ] } },
{ "type": "Feature", "properties": { "styleUrl": "#pointStyleMap", "icon": "http://maps.google.com/mapfiles/kml/shapes/placemark_circle.png", "Latitude": 51.0375, "Longitude": 0.798811, "Row": 66 }, "geometry": { "type": "Point", "coordinates": [ 0.798811, 51.037522, 0.0 ] } },
{ "type": "Feature", "properties": { "styleUrl": "#pointStyleMap", "icon": "http://maps.google.com/mapfiles/kml/shapes/placemark_circle.png", "Latitude": 51.0387, "Longitude": 0.79838, "Row": 67 }, "geometry": { "type": "Point", "coordinates": [ 0.79838, 51.038741, 0.0 ] } },
{ "type": "Feature", "properties": { "styleUrl": "#pointStyleMap", "icon": "http://maps.google.com/mapfiles/kml/shapes/placemark_circle.png", "Latitude": 51.0375, "Longitude": 0.798845, "Row": 67 }, "geometry": { "type": "Point", "coordinates": [ 0.798845, 51.037533, 0.0 ] } },
{ "type": "Feature", "properties": { "styleUrl": "#pointStyleMap", "icon": "http://maps.google.com/mapfiles/kml/shapes/placemark_circle.png", "Latitude": 51.0388, "Longitude": 0.798405, "Row": 68 }, "geometry": { "type": "Point", "coordinates": [ 0.798405, 51.03877, 0.0 ] } },
{ "type": "Feature", "properties": { "styleUrl": "#pointStyleMap", "icon": "http://maps.google.com/mapfiles/kml/shapes/placemark_circle.png", "Latitude": 51.0375, "Longitude": 0.798877, "Row": 68 }, "geometry": { "type": "Point", "coordinates": [ 0.798877, 51.037544, 0.0 ] } },
{ "type": "Feature", "properties": { "styleUrl": "#pointStyleMap", "icon": "http://maps.google.com/mapfiles/kml/shapes/placemark_circle.png", "Latitude": 51.0388, "Longitude": 0.798433, "Row": 69 }, "geometry": { "type": "Point", "coordinates": [ 0.798433, 51.038801, 0.0 ] } },
{ "type": "Feature", "properties": { "styleUrl": "#pointStyleMap", "icon": "http://maps.google.com/mapfiles/kml/shapes/placemark_circle.png", "Latitude": 51.0376, "Longitude": 0.798909, "Row": 69 }, "geometry": { "type": "Point", "coordinates": [ 0.798909, 51.037555, 0.0 ] } },
{ "type": "Feature", "properties": { "styleUrl": "#pointStyleMap", "icon": "http://maps.google.com/mapfiles/kml/shapes/placemark_circle.png", "Latitude": 51.0388, "Longitude": 0.798465, "Row": 70 }, "geometry": { "type": "Point", "coordinates": [ 0.798465, 51.038807, 0.0 ] } },
{ "type": "Feature", "properties": { "styleUrl": "#pointStyleMap", "icon": "http://maps.google.com/mapfiles/kml/shapes/placemark_circle.png", "Latitude": 51.0376, "Longitude": 0.798942, "Row": 70 }, "geometry": { "type": "Point", "coordinates": [ 0.798942, 51.037565, 0.0 ] } },
{ "type": "Feature", "properties": { "styleUrl": "#pointStyleMap", "icon": "http://maps.google.com/mapfiles/kml/shapes/placemark_circle.png", "Latitude": 51.0388, "Longitude": 0.798498, "Row": 71 }, "geometry": { "type": "Point", "coordinates": [ 0.798498, 51.038822, 0.0 ] } },
{ "type": "Feature", "properties": { "styleUrl": "#pointStyleMap", "icon": "http://maps.google.com/mapfiles/kml/shapes/placemark_circle.png", "Latitude": 51.0376, "Longitude": 0.798975, "Row": 71 }, "geometry": { "type": "Point", "coordinates": [ 0.798975, 51.037576, 0.0 ] } },
{ "type": "Feature", "properties": { "styleUrl": "#pointStyleMap", "icon": "http://maps.google.com/mapfiles/kml/shapes/placemark_circle.png", "Latitude": 51.0388, "Longitude": 0.798529, "Row": 72 }, "geometry": { "type": "Point", "coordinates": [ 0.798529, 51.038833, 0.0 ] } },
{ "type": "Feature", "properties": { "styleUrl": "#pointStyleMap", "icon": "http://maps.google.com/mapfiles/kml/shapes/placemark_circle.png", "Latitude": 51.0376, "Longitude": 0.799007, "Row": 72 }, "geometry": { "type": "Point", "coordinates": [ 0.799007, 51.037589, 0.0 ] } },
{ "type": "Feature", "properties": { "styleUrl": "#pointStyleMap", "icon": "http://maps.google.com/mapfiles/kml/shapes/placemark_circle.png", "Latitude": 51.0388, "Longitude": 0.798563, "Row": 73 }, "geometry": { "type": "Point", "coordinates": [ 0.798563, 51.038845, 0.0 ] } },
{ "type": "Feature", "properties": { "styleUrl": "#pointStyleMap", "icon": "http://maps.google.com/mapfiles/kml/shapes/placemark_circle.png", "Latitude": 51.0376, "Longitude": 0.799041, "Row": 73 }, "geometry": { "type": "Point", "coordinates": [ 0.799041, 51.037598, 0.0 ] } },
{ "type": "Feature", "properties": { "styleUrl": "#pointStyleMap", "icon": "http://maps.google.com/mapfiles/kml/shapes/placemark_circle.png", "Latitude": 51.0389, "Longitude": 0.798594, "Row": 74 }, "geometry": { "type": "Point", "coordinates": [ 0.798594, 51.038855, 0.0 ] } },
{ "type": "Feature", "properties": { "styleUrl": "#pointStyleMap", "icon": "http://maps.google.com/mapfiles/kml/shapes/placemark_circle.png", "Latitude": 51.0376, "Longitude": 0.799071, "Row": 74 }, "geometry": { "type": "Point", "coordinates": [ 0.799071, 51.037608, 0.0 ] } },
{ "type": "Feature", "properties": { "styleUrl": "#pointStyleMap", "icon": "http://maps.google.com/mapfiles/kml/shapes/placemark_circle.png", "Latitude": 51.0389, "Longitude": 0.798626, "Row": 75 }, "geometry": { "type": "Point", "coordinates": [ 0.798626, 51.038868, 0.0 ] } },
{ "type": "Feature", "properties": { "styleUrl": "#pointStyleMap", "icon": "http://maps.google.com/mapfiles/kml/shapes/placemark_circle.png", "Latitude": 51.0376, "Longitude": 0.799102, "Row": 75 }, "geometry": { "type": "Point", "coordinates": [ 0.799102, 51.037619, 0.0 ] } },
{ "type": "Feature", "properties": { "styleUrl": "#pointStyleMap", "icon": "http://maps.google.com/mapfiles/kml/shapes/placemark_circle.png", "Latitude": 51.0389, "Longitude": 0.798658, "Row": 76 }, "geometry": { "type": "Point", "coordinates": [ 0.798658, 51.038881, 0.0 ] } },
{ "type": "Feature", "properties": { "styleUrl": "#pointStyleMap", "icon": "http://maps.google.com/mapfiles/kml/shapes/placemark_circle.png", "Latitude": 51.0376, "Longitude": 0.799138, "Row": 76 }, "geometry": { "type": "Point", "coordinates": [ 0.799138, 51.03763, 0.0 ] } },
{ "type": "Feature", "properties": { "styleUrl": "#pointStyleMap", "icon": "http://maps.google.com/mapfiles/kml/shapes/placemark_circle.png", "Latitude": 51.0389, "Longitude": 0.798691, "Row": 77 }, "geometry": { "type": "Point", "coordinates": [ 0.798691, 51.038892, 0.0 ] } },
{ "type": "Feature", "properties": { "styleUrl": "#pointStyleMap", "icon": "http://maps.google.com/mapfiles/kml/shapes/placemark_circle.png", "Latitude": 51.0376, "Longitude": 0.799169, "Row": 77 }, "geometry": { "type": "Point", "coordinates": [ 0.799169, 51.037643, 0.0 ] } },
{ "type": "Feature", "properties": { "styleUrl": "#pointStyleMap", "icon": "http://maps.google.com/mapfiles/kml/shapes/placemark_circle.png", "Latitude": 51.0389, "Longitude": 0.798723, "Row": 78 }, "geometry": { "type": "Point", "coordinates": [ 0.798723, 51.038904, 0.0 ] } },
{ "type": "Feature", "properties": { "styleUrl": "#pointStyleMap", "icon": "http://maps.google.com/mapfiles/kml/shapes/placemark_circle.png", "Latitude": 51.0377, "Longitude": 0.799204, "Row": 78 }, "geometry": { "type": "Point", "coordinates": [ 0.799204, 51.037653, 0.0 ] } },
{ "type": "Feature", "properties": { "styleUrl": "#pointStyleMap", "icon": "http://maps.google.com/mapfiles/kml/shapes/placemark_circle.png", "Latitude": 51.0389, "Longitude": 0.798756, "Row": 79 }, "geometry": { "type": "Point", "coordinates": [ 0.798756, 51.038915, 0.0 ] } },
{ "type": "Feature", "properties": { "styleUrl": "#pointStyleMap", "icon": "http://maps.google.com/mapfiles/kml/shapes/placemark_circle.png", "Latitude": 51.0377, "Longitude": 0.799235, "Row": 79 }, "geometry": { "type": "Point", "coordinates": [ 0.799235, 51.037662, 0.0 ] } },
{ "type": "Feature", "properties": { "styleUrl": "#pointStyleMap", "icon": "http://maps.google.com/mapfiles/kml/shapes/placemark_circle.png", "Latitude": 51.0389, "Longitude": 0.798787, "Row": 80 }, "geometry": { "type": "Point", "coordinates": [ 0.798787, 51.038927, 0.0 ] } },
{ "type": "Feature", "properties": { "styleUrl": "#pointStyleMap", "icon": "http://maps.google.com/mapfiles/kml/shapes/placemark_circle.png", "Latitude": 51.0377, "Longitude": 0.799267, "Row": 80 }, "geometry": { "type": "Point", "coordinates": [ 0.799267, 51.037673, 0.0 ] } },
{ "type": "Feature", "properties": { "styleUrl": "#pointStyleMap", "icon": "http://maps.google.com/mapfiles/kml/shapes/placemark_circle.png", "Latitude": 51.0389, "Longitude": 0.79882, "Row": 81 }, "geometry": { "type": "Point", "coordinates": [ 0.79882, 51.038937, 0.0 ] } },
{ "type": "Feature", "properties": { "styleUrl": "#pointStyleMap", "icon": "http://maps.google.com/mapfiles/kml/shapes/placemark_circle.png", "Latitude": 51.0377, "Longitude": 0.7993, "Row": 81 }, "geometry": { "type": "Point", "coordinates": [ 0.7993, 51.037684, 0.0 ] } },
{ "type": "Feature", "properties": { "styleUrl": "#pointStyleMap", "icon": "http://maps.google.com/mapfiles/kml/shapes/placemark_circle.png", "Latitude": 51.039, "Longitude": 0.798851, "Row": 82 }, "geometry": { "type": "Point", "coordinates": [ 0.798851, 51.038951, 0.0 ] } },
{ "type": "Feature", "properties": { "styleUrl": "#pointStyleMap", "icon": "http://maps.google.com/mapfiles/kml/shapes/placemark_circle.png", "Latitude": 51.0377, "Longitude": 0.799333, "Row": 82 }, "geometry": { "type": "Point", "coordinates": [ 0.799333, 51.037695, 0.0 ] } },
{ "type": "Feature", "properties": { "styleUrl": "#pointStyleMap", "icon": "http://maps.google.com/mapfiles/kml/shapes/placemark_circle.png", "Latitude": 51.039, "Longitude": 0.798885, "Row": 83 }, "geometry": { "type": "Point", "coordinates": [ 0.798885, 51.038964, 0.0 ] } },
{ "type": "Feature", "properties": { "styleUrl": "#pointStyleMap", "icon": "http://maps.google.com/mapfiles/kml/shapes/placemark_circle.png", "Latitude": 51.0377, "Longitude": 0.799366, "Row": 83 }, "geometry": { "type": "Point", "coordinates": [ 0.799366, 51.037706, 0.0 ] } },
{ "type": "Feature", "properties": { "styleUrl": "#pointStyleMap", "icon": "http://maps.google.com/mapfiles/kml/shapes/placemark_circle.png", "Latitude": 51.039, "Longitude": 0.798915, "Row": 84 }, "geometry": { "type": "Point", "coordinates": [ 0.798915, 51.038976, 0.0 ] } },
{ "type": "Feature", "properties": { "styleUrl": "#pointStyleMap", "icon": "http://maps.google.com/mapfiles/kml/shapes/placemark_circle.png", "Latitude": 51.0377, "Longitude": 0.799398, "Row": 84 }, "geometry": { "type": "Point", "coordinates": [ 0.799398, 51.037717, 0.0 ] } },
{ "type": "Feature", "properties": { "styleUrl": "#pointStyleMap", "icon": "http://maps.google.com/mapfiles/kml/shapes/placemark_circle.png", "Latitude": 51.039, "Longitude": 0.798948, "Row": 85 }, "geometry": { "type": "Point", "coordinates": [ 0.798948, 51.038985, 0.0 ] } },
{ "type": "Feature", "properties": { "styleUrl": "#pointStyleMap", "icon": "http://maps.google.com/mapfiles/kml/shapes/placemark_circle.png", "Latitude": 51.0377, "Longitude": 0.799431, "Row": 85 }, "geometry": { "type": "Point", "coordinates": [ 0.799431, 51.037728, 0.0 ] } },
{ "type": "Feature", "properties": { "styleUrl": "#pointStyleMap", "icon": "http://maps.google.com/mapfiles/kml/shapes/placemark_circle.png", "Latitude": 51.039, "Longitude": 0.798978, "Row": 86 }, "geometry": { "type": "Point", "coordinates": [ 0.798978, 51.039001, 0.0 ] } },
{ "type": "Feature", "properties": { "styleUrl": "#pointStyleMap", "icon": "http://maps.google.com/mapfiles/kml/shapes/placemark_circle.png", "Latitude": 51.0377, "Longitude": 0.799462, "Row": 86 }, "geometry": { "type": "Point", "coordinates": [ 0.799462, 51.037741, 0.0 ] } },
{ "type": "Feature", "properties": { "styleUrl": "#pointStyleMap", "icon": "http://maps.google.com/mapfiles/kml/shapes/placemark_circle.png", "Latitude": 51.0378, "Longitude": 0.799495, "Row": 87 }, "geometry": { "type": "Point", "coordinates": [ 0.799495, 51.037751, 0.0 ] } },
{ "type": "Feature", "properties": { "styleUrl": "#pointStyleMap", "icon": "http://maps.google.com/mapfiles/kml/shapes/placemark_circle.png", "Latitude": 51.039, "Longitude": 0.79901, "Row": 87 }, "geometry": { "type": "Point", "coordinates": [ 0.79901, 51.039015, 0.0 ] } },
{ "type": "Feature", "properties": { "styleUrl": "#pointStyleMap", "icon": "http://maps.google.com/mapfiles/kml/shapes/placemark_circle.png", "Latitude": 51.039, "Longitude": 0.799041, "Row": 88 }, "geometry": { "type": "Point", "coordinates": [ 0.799041, 51.03903, 0.0 ] } },
{ "type": "Feature", "properties": { "styleUrl": "#pointStyleMap", "icon": "http://maps.google.com/mapfiles/kml/shapes/placemark_circle.png", "Latitude": 51.0378, "Longitude": 0.799529, "Row": 88 }, "geometry": { "type": "Point", "coordinates": [ 0.799529, 51.037762, 0.0 ] } },
{ "type": "Feature", "properties": { "styleUrl": "#pointStyleMap", "icon": "http://maps.google.com/mapfiles/kml/shapes/placemark_circle.png", "Latitude": 51.0378, "Longitude": 0.79956, "Row": 89 }, "geometry": { "type": "Point", "coordinates": [ 0.79956, 51.037773, 0.0 ] } },
{ "type": "Feature", "properties": { "styleUrl": "#pointStyleMap", "icon": "http://maps.google.com/mapfiles/kml/shapes/placemark_circle.png", "Latitude": 51.039, "Longitude": 0.799073, "Row": 89 }, "geometry": { "type": "Point", "coordinates": [ 0.799073, 51.039042, 0.0 ] } },
{ "type": "Feature", "properties": { "styleUrl": "#pointStyleMap", "icon": "http://maps.google.com/mapfiles/kml/shapes/placemark_circle.png", "Latitude": 51.0391, "Longitude": 0.799106, "Row": 90 }, "geometry": { "type": "Point", "coordinates": [ 0.799106, 51.039056, 0.0 ] } },
{ "type": "Feature", "properties": { "styleUrl": "#pointStyleMap", "icon": "http://maps.google.com/mapfiles/kml/shapes/placemark_circle.png", "Latitude": 51.0378, "Longitude": 0.799594, "Row": 90 }, "geometry": { "type": "Point", "coordinates": [ 0.799594, 51.037782, 0.0 ] } },
{ "type": "Feature", "properties": { "styleUrl": "#pointStyleMap", "icon": "http://maps.google.com/mapfiles/kml/shapes/placemark_circle.png", "Latitude": 51.0391, "Longitude": 0.799138, "Row": 91 }, "geometry": { "type": "Point", "coordinates": [ 0.799138, 51.039068, 0.0 ] } },
{ "type": "Feature", "properties": { "styleUrl": "#pointStyleMap", "icon": "http://maps.google.com/mapfiles/kml/shapes/placemark_circle.png", "Latitude": 51.0378, "Longitude": 0.799627, "Row": 91 }, "geometry": { "type": "Point", "coordinates": [ 0.799627, 51.037795, 0.0 ] } },
{ "type": "Feature", "properties": { "styleUrl": "#pointStyleMap", "icon": "http://maps.google.com/mapfiles/kml/shapes/placemark_circle.png", "Latitude": 51.0391, "Longitude": 0.799168, "Row": 92 }, "geometry": { "type": "Point", "coordinates": [ 0.799168, 51.03908, 0.0 ] } },
{ "type": "Feature", "properties": { "styleUrl": "#pointStyleMap", "icon": "http://maps.google.com/mapfiles/kml/shapes/placemark_circle.png", "Latitude": 51.0378, "Longitude": 0.799659, "Row": 92 }, "geometry": { "type": "Point", "coordinates": [ 0.799659, 51.037803, 0.0 ] } },
{ "type": "Feature", "properties": { "styleUrl": "#pointStyleMap", "icon": "http://maps.google.com/mapfiles/kml/shapes/placemark_circle.png", "Latitude": 51.0391, "Longitude": 0.7992, "Row": 93 }, "geometry": { "type": "Point", "coordinates": [ 0.7992, 51.039093, 0.0 ] } },
{ "type": "Feature", "properties": { "styleUrl": "#pointStyleMap", "icon": "http://maps.google.com/mapfiles/kml/shapes/placemark_circle.png", "Latitude": 51.0378, "Longitude": 0.799692, "Row": 93 }, "geometry": { "type": "Point", "coordinates": [ 0.799692, 51.037816, 0.0 ] } },
{ "type": "Feature", "properties": { "styleUrl": "#pointStyleMap", "icon": "http://maps.google.com/mapfiles/kml/shapes/placemark_circle.png", "Latitude": 51.0391, "Longitude": 0.799233, "Row": 94 }, "geometry": { "type": "Point", "coordinates": [ 0.799233, 51.039106, 0.0 ] } },
{ "type": "Feature", "properties": { "styleUrl": "#pointStyleMap", "icon": "http://maps.google.com/mapfiles/kml/shapes/placemark_circle.png", "Latitude": 51.0378, "Longitude": 0.799724, "Row": 94 }, "geometry": { "type": "Point", "coordinates": [ 0.799724, 51.037824, 0.0 ] } },
{ "type": "Feature", "properties": { "styleUrl": "#pointStyleMap", "icon": "http://maps.google.com/mapfiles/kml/shapes/placemark_circle.png", "Latitude": 51.0391, "Longitude": 0.799265, "Row": 95 }, "geometry": { "type": "Point", "coordinates": [ 0.799265, 51.039119, 0.0 ] } },
{ "type": "Feature", "properties": { "styleUrl": "#pointStyleMap", "icon": "http://maps.google.com/mapfiles/kml/shapes/placemark_circle.png", "Latitude": 51.0378, "Longitude": 0.799758, "Row": 95 }, "geometry": { "type": "Point", "coordinates": [ 0.799758, 51.037835, 0.0 ] } },
{ "type": "Feature", "properties": { "styleUrl": "#pointStyleMap", "icon": "http://maps.google.com/mapfiles/kml/shapes/placemark_circle.png", "Latitude": 51.0391, "Longitude": 0.799295, "Row": 96 }, "geometry": { "type": "Point", "coordinates": [ 0.799295, 51.039133, 0.0 ] } },
{ "type": "Feature", "properties": { "styleUrl": "#pointStyleMap", "icon": "http://maps.google.com/mapfiles/kml/shapes/placemark_circle.png", "Latitude": 51.0379, "Longitude": 0.799789, "Row": 96 }, "geometry": { "type": "Point", "coordinates": [ 0.799789, 51.037851, 0.0 ] } },
{ "type": "Feature", "properties": { "styleUrl": "#pointStyleMap", "icon": "http://maps.google.com/mapfiles/kml/shapes/placemark_circle.png", "Latitude": 51.0391, "Longitude": 0.799329, "Row": 97 }, "geometry": { "type": "Point", "coordinates": [ 0.799329, 51.039145, 0.0 ] } },
{ "type": "Feature", "properties": { "styleUrl": "#pointStyleMap", "icon": "http://maps.google.com/mapfiles/kml/shapes/placemark_circle.png", "Latitude": 51.0379, "Longitude": 0.799822, "Row": 97 }, "geometry": { "type": "Point", "coordinates": [ 0.799822, 51.037857, 0.0 ] } },
{ "type": "Feature", "properties": { "styleUrl": "#pointStyleMap", "icon": "http://maps.google.com/mapfiles/kml/shapes/placemark_circle.png", "Latitude": 51.0392, "Longitude": 0.799359, "Row": 98 }, "geometry": { "type": "Point", "coordinates": [ 0.799359, 51.039158, 0.0 ] } },
{ "type": "Feature", "properties": { "styleUrl": "#pointStyleMap", "icon": "http://maps.google.com/mapfiles/kml/shapes/placemark_circle.png", "Latitude": 51.0379, "Longitude": 0.799854, "Row": 98 }, "geometry": { "type": "Point", "coordinates": [ 0.799854, 51.037868, 0.0 ] } },
{ "type": "Feature", "properties": { "styleUrl": "#pointStyleMap", "icon": "http://maps.google.com/mapfiles/kml/shapes/placemark_circle.png", "Latitude": 51.0392, "Longitude": 0.799392, "Row": 99 }, "geometry": { "type": "Point", "coordinates": [ 0.799392, 51.03917, 0.0 ] } },
{ "type": "Feature", "properties": { "styleUrl": "#pointStyleMap", "icon": "http://maps.google.com/mapfiles/kml/shapes/placemark_circle.png", "Latitude": 51.0379, "Longitude": 0.799888, "Row": 99 }, "geometry": { "type": "Point", "coordinates": [ 0.799888, 51.037879, 0.0 ] } },
{ "type": "Feature", "properties": { "styleUrl": "#pointStyleMap", "icon": "http://maps.google.com/mapfiles/kml/shapes/placemark_circle.png", "Latitude": 51.0392, "Longitude": 0.799422, "Row": 100 }, "geometry": { "type": "Point", "coordinates": [ 0.799422, 51.039183, 0.0 ] } },
{ "type": "Feature", "properties": { "styleUrl": "#pointStyleMap", "icon": "http://maps.google.com/mapfiles/kml/shapes/placemark_circle.png", "Latitude": 51.0379, "Longitude": 0.79992, "Row": 100 }, "geometry": { "type": "Point", "coordinates": [ 0.79992, 51.037888, 0.0 ] } },
{ "type": "Feature", "properties": { "styleUrl": "#pointStyleMap", "icon": "http://maps.google.com/mapfiles/kml/shapes/placemark_circle.png", "Latitude": 51.0392, "Longitude": 0.799455, "Row": 101 }, "geometry": { "type": "Point", "coordinates": [ 0.799455, 51.039195, 0.0 ] } },
{ "type": "Feature", "properties": { "styleUrl": "#pointStyleMap", "icon": "http://maps.google.com/mapfiles/kml/shapes/placemark_circle.png", "Latitude": 51.0379, "Longitude": 0.799952, "Row": 101 }, "geometry": { "type": "Point", "coordinates": [ 0.799952, 51.037899, 0.0 ] } },
{ "type": "Feature", "properties": { "styleUrl": "#pointStyleMap", "icon": "http://maps.google.com/mapfiles/kml/shapes/placemark_circle.png", "Latitude": 51.0392, "Longitude": 0.799487, "Row": 102 }, "geometry": { "type": "Point", "coordinates": [ 0.799487, 51.039208, 0.0 ] } },
{ "type": "Feature", "properties": { "styleUrl": "#pointStyleMap", "icon": "http://maps.google.com/mapfiles/kml/shapes/placemark_circle.png", "Latitude": 51.0379, "Longitude": 0.799985, "Row": 102 }, "geometry": { "type": "Point", "coordinates": [ 0.799985, 51.03791, 0.0 ] } },
{ "type": "Feature", "properties": { "styleUrl": "#pointStyleMap", "icon": "http://maps.google.com/mapfiles/kml/shapes/placemark_circle.png", "Latitude": 51.0392, "Longitude": 0.79952, "Row": 103 }, "geometry": { "type": "Point", "coordinates": [ 0.79952, 51.039222, 0.0 ] } },
{ "type": "Feature", "properties": { "styleUrl": "#pointStyleMap", "icon": "http://maps.google.com/mapfiles/kml/shapes/placemark_circle.png", "Latitude": 51.0379, "Longitude": 0.800018, "Row": 103 }, "geometry": { "type": "Point", "coordinates": [ 0.800018, 51.037921, 0.0 ] } },
{ "type": "Feature", "properties": { "styleUrl": "#pointStyleMap", "icon": "http://maps.google.com/mapfiles/kml/shapes/placemark_circle.png", "Latitude": 51.0392, "Longitude": 0.799552, "Row": 104 }, "geometry": { "type": "Point", "coordinates": [ 0.799552, 51.039233, 0.0 ] } },
{ "type": "Feature", "properties": { "styleUrl": "#pointStyleMap", "icon": "http://maps.google.com/mapfiles/kml/shapes/placemark_circle.png", "Latitude": 51.0379, "Longitude": 0.80005, "Row": 104 }, "geometry": { "type": "Point", "coordinates": [ 0.80005, 51.037931, 0.0 ] } },
{ "type": "Feature", "properties": { "styleUrl": "#pointStyleMap", "icon": "http://maps.google.com/mapfiles/kml/shapes/placemark_circle.png", "Latitude": 51.0379, "Longitude": 0.800082, "Row": 105 }, "geometry": { "type": "Point", "coordinates": [ 0.800082, 51.037944, 0.0 ] } },
{ "type": "Feature", "properties": { "styleUrl": "#pointStyleMap", "icon": "http://maps.google.com/mapfiles/kml/shapes/placemark_circle.png", "Latitude": 51.0392, "Longitude": 0.799583, "Row": 105 }, "geometry": { "type": "Point", "coordinates": [ 0.799583, 51.039248, 0.0 ] } },
{ "type": "Feature", "properties": { "styleUrl": "#pointStyleMap", "icon": "http://maps.google.com/mapfiles/kml/shapes/placemark_circle.png", "Latitude": 51.038, "Longitude": 0.800115, "Row": 106 }, "geometry": { "type": "Point", "coordinates": [ 0.800115, 51.037953, 0.0 ] } },
{ "type": "Feature", "properties": { "styleUrl": "#pointStyleMap", "icon": "http://maps.google.com/mapfiles/kml/shapes/placemark_circle.png", "Latitude": 51.0393, "Longitude": 0.799615, "Row": 106 }, "geometry": { "type": "Point", "coordinates": [ 0.799615, 51.039259, 0.0 ] } },
{ "type": "Feature", "properties": { "styleUrl": "#pointStyleMap", "icon": "http://maps.google.com/mapfiles/kml/shapes/placemark_circle.png", "Latitude": 51.038, "Longitude": 0.800148, "Row": 107 }, "geometry": { "type": "Point", "coordinates": [ 0.800148, 51.037963, 0.0 ] } },
{ "type": "Feature", "properties": { "styleUrl": "#pointStyleMap", "icon": "http://maps.google.com/mapfiles/kml/shapes/placemark_circle.png", "Latitude": 51.0393, "Longitude": 0.799645, "Row": 107 }, "geometry": { "type": "Point", "coordinates": [ 0.799645, 51.039273, 0.0 ] } },
{ "type": "Feature", "properties": { "styleUrl": "#pointStyleMap", "icon": "http://maps.google.com/mapfiles/kml/shapes/placemark_circle.png", "Latitude": 51.038, "Longitude": 0.80018, "Row": 108 }, "geometry": { "type": "Point", "coordinates": [ 0.80018, 51.037975, 0.0 ] } },
{ "type": "Feature", "properties": { "styleUrl": "#pointStyleMap", "icon": "http://maps.google.com/mapfiles/kml/shapes/placemark_circle.png", "Latitude": 51.0393, "Longitude": 0.799677, "Row": 108 }, "geometry": { "type": "Point", "coordinates": [ 0.799677, 51.039285, 0.0 ] } },
{ "type": "Feature", "properties": { "styleUrl": "#pointStyleMap", "icon": "http://maps.google.com/mapfiles/kml/shapes/placemark_circle.png", "Latitude": 51.038, "Longitude": 0.800212, "Row": 109 }, "geometry": { "type": "Point", "coordinates": [ 0.800212, 51.037984, 0.0 ] } },
{ "type": "Feature", "properties": { "styleUrl": "#pointStyleMap", "icon": "http://maps.google.com/mapfiles/kml/shapes/placemark_circle.png", "Latitude": 51.0393, "Longitude": 0.799709, "Row": 109 }, "geometry": { "type": "Point", "coordinates": [ 0.799709, 51.039297, 0.0 ] } },
{ "type": "Feature", "properties": { "styleUrl": "#pointStyleMap", "icon": "http://maps.google.com/mapfiles/kml/shapes/placemark_circle.png", "Latitude": 51.038, "Longitude": 0.800245, "Row": 110 }, "geometry": { "type": "Point", "coordinates": [ 0.800245, 51.037996, 0.0 ] } },
{ "type": "Feature", "properties": { "styleUrl": "#pointStyleMap", "icon": "http://maps.google.com/mapfiles/kml/shapes/placemark_circle.png", "Latitude": 51.0393, "Longitude": 0.799741, "Row": 110 }, "geometry": { "type": "Point", "coordinates": [ 0.799741, 51.039309, 0.0 ] } },
{ "type": "Feature", "properties": { "styleUrl": "#pointStyleMap", "icon": "http://maps.google.com/mapfiles/kml/shapes/placemark_circle.png", "Latitude": 51.038, "Longitude": 0.800278, "Row": 111 }, "geometry": { "type": "Point", "coordinates": [ 0.800278, 51.038007, 0.0 ] } },
{ "type": "Feature", "properties": { "styleUrl": "#pointStyleMap", "icon": "http://maps.google.com/mapfiles/kml/shapes/placemark_circle.png", "Latitude": 51.0393, "Longitude": 0.799794, "Row": 111 }, "geometry": { "type": "Point", "coordinates": [ 0.799794, 51.039273, 0.0 ] } },
{ "type": "Feature", "properties": { "styleUrl": "#pointStyleMap", "icon": "http://maps.google.com/mapfiles/kml/shapes/placemark_circle.png", "Latitude": 51.0392, "Longitude": 0.799841, "Row": 112 }, "geometry": { "type": "Point", "coordinates": [ 0.799841, 51.039242, 0.0 ] } },
{ "type": "Feature", "properties": { "styleUrl": "#pointStyleMap", "icon": "http://maps.google.com/mapfiles/kml/shapes/placemark_circle.png", "Latitude": 51.038, "Longitude": 0.800311, "Row": 112 }, "geometry": { "type": "Point", "coordinates": [ 0.800311, 51.038017, 0.0 ] } },
{ "type": "Feature", "properties": { "styleUrl": "#pointStyleMap", "icon": "http://maps.google.com/mapfiles/kml/shapes/placemark_circle.png", "Latitude": 51.038, "Longitude": 0.800343, "Row": 113 }, "geometry": { "type": "Point", "coordinates": [ 0.800343, 51.038028, 0.0 ] } },
{ "type": "Feature", "properties": { "styleUrl": "#pointStyleMap", "icon": "http://maps.google.com/mapfiles/kml/shapes/placemark_circle.png", "Latitude": 51.0392, "Longitude": 0.799895, "Row": 113 }, "geometry": { "type": "Point", "coordinates": [ 0.799895, 51.039201, 0.0 ] } },
{ "type": "Feature", "properties": { "styleUrl": "#pointStyleMap", "icon": "http://maps.google.com/mapfiles/kml/shapes/placemark_circle.png", "Latitude": 51.038, "Longitude": 0.800375, "Row": 114 }, "geometry": { "type": "Point", "coordinates": [ 0.800375, 51.038039, 0.0 ] } },
{ "type": "Feature", "properties": { "styleUrl": "#pointStyleMap", "icon": "http://maps.google.com/mapfiles/kml/shapes/placemark_circle.png", "Latitude": 51.0392, "Longitude": 0.799941, "Row": 114 }, "geometry": { "type": "Point", "coordinates": [ 0.799941, 51.039174, 0.0 ] } },
{ "type": "Feature", "properties": { "styleUrl": "#pointStyleMap", "icon": "http://maps.google.com/mapfiles/kml/shapes/placemark_circle.png", "Latitude": 51.0391, "Longitude": 0.799994, "Row": 115 }, "geometry": { "type": "Point", "coordinates": [ 0.799994, 51.039133, 0.0 ] } },
{ "type": "Feature", "properties": { "styleUrl": "#pointStyleMap", "icon": "http://maps.google.com/mapfiles/kml/shapes/placemark_circle.png", "Latitude": 51.038, "Longitude": 0.800407, "Row": 115 }, "geometry": { "type": "Point", "coordinates": [ 0.800407, 51.03805, 0.0 ] } },
{ "type": "Feature", "properties": { "styleUrl": "#pointStyleMap", "icon": "http://maps.google.com/mapfiles/kml/shapes/placemark_circle.png", "Latitude": 51.0381, "Longitude": 0.800441, "Row": 116 }, "geometry": { "type": "Point", "coordinates": [ 0.800441, 51.03806, 0.0 ] } },
{ "type": "Feature", "properties": { "styleUrl": "#pointStyleMap", "icon": "http://maps.google.com/mapfiles/kml/shapes/placemark_circle.png", "Latitude": 51.0391, "Longitude": 0.800044, "Row": 116 }, "geometry": { "type": "Point", "coordinates": [ 0.800044, 51.039097, 0.0 ] } },
{ "type": "Feature", "properties": { "styleUrl": "#pointStyleMap", "icon": "http://maps.google.com/mapfiles/kml/shapes/placemark_circle.png", "Latitude": 51.0381, "Longitude": 0.800474, "Row": 117 }, "geometry": { "type": "Point", "coordinates": [ 0.800474, 51.038072, 0.0 ] } },
{ "type": "Feature", "properties": { "styleUrl": "#pointStyleMap", "icon": "http://maps.google.com/mapfiles/kml/shapes/placemark_circle.png", "Latitude": 51.0391, "Longitude": 0.800096, "Row": 117 }, "geometry": { "type": "Point", "coordinates": [ 0.800096, 51.039058, 0.0 ] } },
{ "type": "Feature", "properties": { "styleUrl": "#pointStyleMap", "icon": "http://maps.google.com/mapfiles/kml/shapes/placemark_circle.png", "Latitude": 51.039, "Longitude": 0.800146, "Row": 118 }, "geometry": { "type": "Point", "coordinates": [ 0.800146, 51.03902, 0.0 ] } },
{ "type": "Feature", "properties": { "styleUrl": "#pointStyleMap", "icon": "http://maps.google.com/mapfiles/kml/shapes/placemark_circle.png", "Latitude": 51.0381, "Longitude": 0.800505, "Row": 118 }, "geometry": { "type": "Point", "coordinates": [ 0.800505, 51.038083, 0.0 ] } },
{ "type": "Feature", "properties": { "styleUrl": "#pointStyleMap", "icon": "http://maps.google.com/mapfiles/kml/shapes/placemark_circle.png", "Latitude": 51.039, "Longitude": 0.800198, "Row": 119 }, "geometry": { "type": "Point", "coordinates": [ 0.800198, 51.038982, 0.0 ] } },
{ "type": "Feature", "properties": { "styleUrl": "#pointStyleMap", "icon": "http://maps.google.com/mapfiles/kml/shapes/placemark_circle.png", "Latitude": 51.0381, "Longitude": 0.800539, "Row": 119 }, "geometry": { "type": "Point", "coordinates": [ 0.800539, 51.038094, 0.0 ] } },
{ "type": "Feature", "properties": { "styleUrl": "#pointStyleMap", "icon": "http://maps.google.com/mapfiles/kml/shapes/placemark_circle.png", "Latitude": 51.0381, "Longitude": 0.800571, "Row": 120 }, "geometry": { "type": "Point", "coordinates": [ 0.800571, 51.038103, 0.0 ] } },
{ "type": "Feature", "properties": { "styleUrl": "#pointStyleMap", "icon": "http://maps.google.com/mapfiles/kml/shapes/placemark_circle.png", "Latitude": 51.0389, "Longitude": 0.800249, "Row": 120 }, "geometry": { "type": "Point", "coordinates": [ 0.800249, 51.038946, 0.0 ] } },
{ "type": "Feature", "properties": { "styleUrl": "#pointStyleMap", "icon": "http://maps.google.com/mapfiles/kml/shapes/placemark_circle.png", "Latitude": 51.0389, "Longitude": 0.800302, "Row": 121 }, "geometry": { "type": "Point", "coordinates": [ 0.800302, 51.038906, 0.0 ] } },
{ "type": "Feature", "properties": { "styleUrl": "#pointStyleMap", "icon": "http://maps.google.com/mapfiles/kml/shapes/placemark_circle.png", "Latitude": 51.0381, "Longitude": 0.800603, "Row": 121 }, "geometry": { "type": "Point", "coordinates": [ 0.800603, 51.038115, 0.0 ] } },
{ "type": "Feature", "properties": { "styleUrl": "#pointStyleMap", "icon": "http://maps.google.com/mapfiles/kml/shapes/placemark_circle.png", "Latitude": 51.0381, "Longitude": 0.800637, "Row": 122 }, "geometry": { "type": "Point", "coordinates": [ 0.800637, 51.038126, 0.0 ] } },
{ "type": "Feature", "properties": { "styleUrl": "#pointStyleMap", "icon": "http://maps.google.com/mapfiles/kml/shapes/placemark_circle.png", "Latitude": 51.0389, "Longitude": 0.800352, "Row": 122 }, "geometry": { "type": "Point", "coordinates": [ 0.800352, 51.038868, 0.0 ] } },
{ "type": "Feature", "properties": { "styleUrl": "#pointStyleMap", "icon": "http://maps.google.com/mapfiles/kml/shapes/placemark_circle.png", "Latitude": 51.0388, "Longitude": 0.800415, "Row": 123 }, "geometry": { "type": "Point", "coordinates": [ 0.800415, 51.038804, 0.0 ] } },
{ "type": "Feature", "properties": { "styleUrl": "#pointStyleMap", "icon": "http://maps.google.com/mapfiles/kml/shapes/placemark_circle.png", "Latitude": 51.0381, "Longitude": 0.80067, "Row": 123 }, "geometry": { "type": "Point", "coordinates": [ 0.80067, 51.038137, 0.0 ] } },
{ "type": "Feature", "properties": { "styleUrl": "#pointStyleMap", "icon": "http://maps.google.com/mapfiles/kml/shapes/placemark_circle.png", "Latitude": 51.0387, "Longitude": 0.800478, "Row": 124 }, "geometry": { "type": "Point", "coordinates": [ 0.800478, 51.038728, 0.0 ] } },
{ "type": "Feature", "properties": { "styleUrl": "#pointStyleMap", "icon": "http://maps.google.com/mapfiles/kml/shapes/placemark_circle.png", "Latitude": 51.0381, "Longitude": 0.800701, "Row": 124 }, "geometry": { "type": "Point", "coordinates": [ 0.800701, 51.038147, 0.0 ] } },
{ "type": "Feature", "properties": { "styleUrl": "#pointStyleMap", "icon": "http://maps.google.com/mapfiles/kml/shapes/placemark_circle.png", "Latitude": 51.0387, "Longitude": 0.800532, "Row": 125 }, "geometry": { "type": "Point", "coordinates": [ 0.800532, 51.038685, 0.0 ] } },
{ "type": "Feature", "properties": { "styleUrl": "#pointStyleMap", "icon": "http://maps.google.com/mapfiles/kml/shapes/placemark_circle.png", "Latitude": 51.0382, "Longitude": 0.800735, "Row": 125 }, "geometry": { "type": "Point", "coordinates": [ 0.800735, 51.038158, 0.0 ] } },
{ "type": "Feature", "properties": { "styleUrl": "#pointStyleMap", "icon": "http://maps.google.com/mapfiles/kml/shapes/placemark_circle.png", "Latitude": 51.0386, "Longitude": 0.8006, "Row": 126 }, "geometry": { "type": "Point", "coordinates": [ 0.8006, 51.038604, 0.0 ] } },
{ "type": "Feature", "properties": { "styleUrl": "#pointStyleMap", "icon": "http://maps.google.com/mapfiles/kml/shapes/placemark_circle.png", "Latitude": 51.0382, "Longitude": 0.800767, "Row": 126 }, "geometry": { "type": "Point", "coordinates": [ 0.800767, 51.038168, 0.0 ] } },
{ "type": "Feature", "properties": { "styleUrl": "#pointStyleMap", "icon": "http://maps.google.com/mapfiles/kml/shapes/placemark_circle.png", "Latitude": 51.0386, "Longitude": 0.800637, "Row": 127 }, "geometry": { "type": "Point", "coordinates": [ 0.800637, 51.038601, 0.0 ] } },
{ "type": "Feature", "properties": { "styleUrl": "#pointStyleMap", "icon": "http://maps.google.com/mapfiles/kml/shapes/placemark_circle.png", "Latitude": 51.0382, "Longitude": 0.8008, "Row": 127 }, "geometry": { "type": "Point", "coordinates": [ 0.8008, 51.03818, 0.0 ] } },
{ "type": "Feature", "properties": { "styleUrl": "#pointStyleMap", "icon": "http://maps.google.com/mapfiles/kml/shapes/placemark_circle.png", "Latitude": 51.0386, "Longitude": 0.800693, "Row": 128 }, "geometry": { "type": "Point", "coordinates": [ 0.800693, 51.038555, 0.0 ] } },
{ "type": "Feature", "properties": { "styleUrl": "#pointStyleMap", "icon": "http://maps.google.com/mapfiles/kml/shapes/placemark_circle.png", "Latitude": 51.0382, "Longitude": 0.800831, "Row": 128 }, "geometry": { "type": "Point", "coordinates": [ 0.800831, 51.03819, 0.0 ] } },
{ "type": "Feature", "properties": { "styleUrl": "#pointStyleMap", "icon": "http://maps.google.com/mapfiles/kml/shapes/placemark_circle.png", "Latitude": 51.0385, "Longitude": 0.800754, "Row": 129 }, "geometry": { "type": "Point", "coordinates": [ 0.800754, 51.03849, 0.0 ] } },
{ "type": "Feature", "properties": { "styleUrl": "#pointStyleMap", "icon": "http://maps.google.com/mapfiles/kml/shapes/placemark_circle.png", "Latitude": 51.0382, "Longitude": 0.800864, "Row": 129 }, "geometry": { "type": "Point", "coordinates": [ 0.800864, 51.038201, 0.0 ] } }
]
}
