{
"type": "FeatureCollection",
"name": "gusbourne_north_block_end_posts_labelled",
"crs": { "type": "name", "properties": { "name": "urn:ogc:def:crs:EPSG::4979" } },
"features": [
{ "type": "Feature", "properties": { "styleUrl": "#pointStyleMap", "icon": "http://maps.google.com/mapfiles/kml/shapes/placemark_circle.png", "Latitude": 51.0397, "Longitude": 0.796149, "Row": 130 }, "geometry": { "type": "Point", "coordinates": [ 0.796149, 51.039669, 0.0 ] } },
{ "type": "Feature", "properties": { "styleUrl": "#pointStyleMap", "icon": "http://maps.google.com/mapfiles/kml/shapes/placemark_circle.png", "Latitude": 51.0388, "Longitude": 0.797134, "Row": 130 }, "geometry": { "type": "Point", "coordinates": [ 0.797134, 51.038837, 0.0 ] } },
{ "type": "Feature", "properties": { "styleUrl": "#pointStyleMap", "icon": "http://maps.google.com/mapfiles/kml/shapes/placemark_circle.png", "Latitude": 51.0397, "Longitude": 0.796178, "Row": 131 }, "geometry": { "type": "Point", "coordinates": [ 0.796178, 51.039684, 0.0 ] } },
{ "type": "Feature", "properties": { "styleUrl": "#pointStyleMap", "icon": "http://maps.google.com/mapfiles/kml/shapes/placemark_circle.png", "Latitude": 51.0388, "Longitude": 0.797188, "Row": 131 }, "geometry": { "type": "Point", "coordinates": [ 0.797188, 51.03883, 0.0 ] } },
{ "type": "Feature", "properties": { "styleUrl": "#pointStyleMap", "icon": "http://maps.google.com/mapfiles/kml/shapes/placemark_circle.png", "Latitude": 51.0397, "Longitude": 0.796206, "Row": 132 }, "geometry": { "type": "Point", "coordinates": [ 0.796206, 51.039697, 0.0 ] } },
{ "type": "Feature", "properties": { "styleUrl": "#pointStyleMap", "icon": "http://maps.google.com/mapfiles/kml/shapes/placemark_circle.png", "Latitude": 51.0388, "Longitude": 0.797244, "Row": 132 }, "geometry": { "type": "Point", "coordinates": [ 0.797244, 51.038818, 0.0 ] } },
{ "type": "Feature", "properties": { "styleUrl": "#pointStyleMap", "icon": "http://maps.google.com/mapfiles/kml/shapes/placemark_circle.png", "Latitude": 51.0397, "Longitude": 0.796234, "Row": 133 }, "geometry": { "type": "Point", "coordinates": [ 0.796234, 51.03971, 0.0 ] } },
{ "type": "Feature", "properties": { "styleUrl": "#pointStyleMap", "icon": "http://maps.google.com/mapfiles/kml/shapes/placemark_circle.png", "Latitude": 51.0388, "Longitude": 0.797302, "Row": 133 }, "geometry": { "type": "Point", "coordinates": [ 0.797302, 51.038807, 0.0 ] } },
{ "type": "Feature", "properties": { "styleUrl": "#pointStyleMap", "icon": "http://maps.google.com/mapfiles/kml/shapes/placemark_circle.png", "Latitude": 51.0397, "Longitude": 0.796263, "Row": 134 }, "geometry": { "type": "Point", "coordinates": [ 0.796263, 51.039723, 0.0 ] } },
{ "type": "Feature", "properties": { "styleUrl": "#pointStyleMap", "icon": "http://maps.google.com/mapfiles/kml/shapes/placemark_circle.png", "Latitude": 51.0388, "Longitude": 0.797361, "Row": 134 }, "geometry": { "type": "Point", "coordinates": [ 0.797361, 51.038796, 0.0 ] } },
{ "type": "Feature", "properties": { "styleUrl": "#pointStyleMap", "icon": "http://maps.google.com/mapfiles/kml/shapes/placemark_circle.png", "Latitude": 51.0406, "Longitude": 0.795268, "Row": 135 }, "geometry": { "type": "Point", "coordinates": [ 0.795268, 51.040602, 0.0 ] } },
{ "type": "Feature", "properties": { "styleUrl": "#pointStyleMap", "icon": "http://maps.google.com/mapfiles/kml/shapes/placemark_circle.png", "Latitude": 51.0388, "Longitude": 0.797419, "Row": 135 }, "geometry": { "type": "Point", "coordinates": [ 0.797419, 51.038785, 0.0 ] } },
{ "type": "Feature", "properties": { "styleUrl": "#pointStyleMap", "icon": "http://maps.google.com/mapfiles/kml/shapes/placemark_circle.png", "Latitude": 51.0407, "Longitude": 0.795207, "Row": 136 }, "geometry": { "type": "Point", "coordinates": [ 0.795207, 51.04069, 0.0 ] } },
{ "type": "Feature", "properties": { "styleUrl": "#pointStyleMap", "icon": "http://maps.google.com/mapfiles/kml/shapes/placemark_circle.png", "Latitude": 51.0388, "Longitude": 0.797456, "Row": 136 }, "geometry": { "type": "Point", "coordinates": [ 0.797456, 51.038789, 0.0 ] } },
{ "type": "Feature", "properties": { "styleUrl": "#pointStyleMap", "icon": "http://maps.google.com/mapfiles/kml/shapes/placemark_circle.png", "Latitude": 51.0408, "Longitude": 0.795139, "Row": 137 }, "geometry": { "type": "Point", "coordinates": [ 0.795139, 51.040788, 0.0 ] } },
{ "type": "Feature", "properties": { "styleUrl": "#pointStyleMap", "icon": "http://maps.google.com/mapfiles/kml/shapes/placemark_circle.png", "Latitude": 51.0388, "Longitude": 0.797496, "Row": 137 }, "geometry": { "type": "Point", "coordinates": [ 0.797496, 51.038794, 0.0 ] } },
{ "type": "Feature", "properties": { "styleUrl": "#pointStyleMap", "icon": "http://maps.google.com/mapfiles/kml/shapes/placemark_circle.png", "Latitude": 51.0409, "Longitude": 0.795072, "Row": 138 }, "geometry": { "type": "Point", "coordinates": [ 0.795072, 51.040881, 0.0 ] } },
{ "type": "Feature", "properties": { "styleUrl": "#pointStyleMap", "icon": "http://maps.google.com/mapfiles/kml/shapes/placemark_circle.png", "Latitude": 51.0388, "Longitude": 0.797536, "Row": 138 }, "geometry": { "type": "Point", "coordinates": [ 0.797536, 51.038798, 0.0 ] } },
{ "type": "Feature", "properties": { "styleUrl": "#pointStyleMap", "icon": "http://maps.google.com/mapfiles/kml/shapes/placemark_circle.png", "Latitude": 51.041, "Longitude": 0.795008, "Row": 139 }, "geometry": { "type": "Point", "coordinates": [ 0.795008, 51.040972, 0.0 ] } },
{ "type": "Feature", "properties": { "styleUrl": "#pointStyleMap", "icon": "http://maps.google.com/mapfiles/kml/shapes/placemark_circle.png", "Latitude": 51.0388, "Longitude": 0.797575, "Row": 139 }, "geometry": { "type": "Point", "coordinates": [ 0.797575, 51.038803, 0.0 ] } },
{ "type": "Feature", "properties": { "styleUrl": "#pointStyleMap", "icon": "http://maps.google.com/mapfiles/kml/shapes/placemark_circle.png", "Latitude": 51.041, "Longitude": 0.794963, "Row": 140 }, "geometry": { "type": "Point", "coordinates": [ 0.794963, 51.041047, 0.0 ] } },
{ "type": "Feature", "properties": { "styleUrl": "#pointStyleMap", "icon": "http://maps.google.com/mapfiles/kml/shapes/placemark_circle.png", "Latitude": 51.0388, "Longitude": 0.797614, "Row": 140 }, "geometry": { "type": "Point", "coordinates": [ 0.797614, 51.038807, 0.0 ] } },
{ "type": "Feature", "properties": { "styleUrl": "#pointStyleMap", "icon": "http://maps.google.com/mapfiles/kml/shapes/placemark_circle.png", "Latitude": 51.0411, "Longitude": 0.794917, "Row": 141 }, "geometry": { "type": "Point", "coordinates": [ 0.794917, 51.041124, 0.0 ] } },
{ "type": "Feature", "properties": { "styleUrl": "#pointStyleMap", "icon": "http://maps.google.com/mapfiles/kml/shapes/placemark_circle.png", "Latitude": 51.0388, "Longitude": 0.797652, "Row": 141 }, "geometry": { "type": "Point", "coordinates": [ 0.797652, 51.038811, 0.0 ] } },
{ "type": "Feature", "properties": { "styleUrl": "#pointStyleMap", "icon": "http://maps.google.com/mapfiles/kml/shapes/placemark_circle.png", "Latitude": 51.0412, "Longitude": 0.794874, "Row": 142 }, "geometry": { "type": "Point", "coordinates": [ 0.794874, 51.041198, 0.0 ] } },
{ "type": "Feature", "properties": { "styleUrl": "#pointStyleMap", "icon": "http://maps.google.com/mapfiles/kml/shapes/placemark_circle.png", "Latitude": 51.0388, "Longitude": 0.79769, "Row": 142 }, "geometry": { "type": "Point", "coordinates": [ 0.79769, 51.038818, 0.0 ] } },
{ "type": "Feature", "properties": { "styleUrl": "#pointStyleMap", "icon": "http://maps.google.com/mapfiles/kml/shapes/placemark_circle.png", "Latitude": 51.0413, "Longitude": 0.794833, "Row": 143 }, "geometry": { "type": "Point", "coordinates": [ 0.794833, 51.041271, 0.0 ] } },
{ "type": "Feature", "properties": { "styleUrl": "#pointStyleMap", "icon": "http://maps.google.com/mapfiles/kml/shapes/placemark_circle.png", "Latitude": 51.0388, "Longitude": 0.797728, "Row": 143 }, "geometry": { "type": "Point", "coordinates": [ 0.797728, 51.038824, 0.0 ] } },
{ "type": "Feature", "properties": { "styleUrl": "#pointStyleMap", "icon": "http://maps.google.com/mapfiles/kml/shapes/placemark_circle.png", "Latitude": 51.0413, "Longitude": 0.794866, "Row": 144 }, "geometry": { "type": "Point", "coordinates": [ 0.794866, 51.04128, 0.0 ] } },
{ "type": "Feature", "properties": { "styleUrl": "#pointStyleMap", "icon": "http://maps.google.com/mapfiles/kml/shapes/placemark_circle.png", "Latitude": 51.0388, "Longitude": 0.797764, "Row": 144 }, "geometry": { "type": "Point", "coordinates": [ 0.797764, 51.038831, 0.0 ] } },
{ "type": "Feature", "properties": { "styleUrl": "#pointStyleMap", "icon": "http://maps.google.com/mapfiles/kml/shapes/placemark_circle.png", "Latitude": 51.0413, "Longitude": 0.794899, "Row": 145 }, "geometry": { "type": "Point", "coordinates": [ 0.794899, 51.041289, 0.0 ] } },
{ "type": "Feature", "properties": { "styleUrl": "#pointStyleMap", "icon": "http://maps.google.com/mapfiles/kml/shapes/placemark_circle.png", "Latitude": 51.0388, "Longitude": 0.797803, "Row": 145 }, "geometry": { "type": "Point", "coordinates": [ 0.797803, 51.038837, 0.0 ] } },
{ "type": "Feature", "properties": { "styleUrl": "#pointStyleMap", "icon": "http://maps.google.com/mapfiles/kml/shapes/placemark_circle.png", "Latitude": 51.0413, "Longitude": 0.794934, "Row": 146 }, "geometry": { "type": "Point", "coordinates": [ 0.794934, 51.041299, 0.0 ] } },
{ "type": "Feature", "properties": { "styleUrl": "#pointStyleMap", "icon": "http://maps.google.com/mapfiles/kml/shapes/placemark_circle.png", "Latitude": 51.0388, "Longitude": 0.79784, "Row": 146 }, "geometry": { "type": "Point", "coordinates": [ 0.79784, 51.038843, 0.0 ] } },
{ "type": "Feature", "properties": { "styleUrl": "#pointStyleMap", "icon": "http://maps.google.com/mapfiles/kml/shapes/placemark_circle.png", "Latitude": 51.0413, "Longitude": 0.794969, "Row": 147 }, "geometry": { "type": "Point", "coordinates": [ 0.794969, 51.041307, 0.0 ] } },
{ "type": "Feature", "properties": { "styleUrl": "#pointStyleMap", "icon": "http://maps.google.com/mapfiles/kml/shapes/placemark_circle.png", "Latitude": 51.0388, "Longitude": 0.797876, "Row": 147 }, "geometry": { "type": "Point", "coordinates": [ 0.797876, 51.038849, 0.0 ] } },
{ "type": "Feature", "properties": { "styleUrl": "#pointStyleMap", "icon": "http://maps.google.com/mapfiles/kml/shapes/placemark_circle.png", "Latitude": 51.0413, "Longitude": 0.795001, "Row": 148 }, "geometry": { "type": "Point", "coordinates": [ 0.795001, 51.041316, 0.0 ] } },
{ "type": "Feature", "properties": { "styleUrl": "#pointStyleMap", "icon": "http://maps.google.com/mapfiles/kml/shapes/placemark_circle.png", "Latitude": 51.0389, "Longitude": 0.797913, "Row": 148 }, "geometry": { "type": "Point", "coordinates": [ 0.797913, 51.038855, 0.0 ] } },
{ "type": "Feature", "properties": { "styleUrl": "#pointStyleMap", "icon": "http://maps.google.com/mapfiles/kml/shapes/placemark_circle.png", "Latitude": 51.0413, "Longitude": 0.795037, "Row": 149 }, "geometry": { "type": "Point", "coordinates": [ 0.795037, 51.041324, 0.0 ] } },
{ "type": "Feature", "properties": { "styleUrl": "#pointStyleMap", "icon": "http://maps.google.com/mapfiles/kml/shapes/placemark_circle.png", "Latitude": 51.0389, "Longitude": 0.797949, "Row": 149 }, "geometry": { "type": "Point", "coordinates": [ 0.797949, 51.038862, 0.0 ] } },
{ "type": "Feature", "properties": { "styleUrl": "#pointStyleMap", "icon": "http://maps.google.com/mapfiles/kml/shapes/placemark_circle.png", "Latitude": 51.0413, "Longitude": 0.795072, "Row": 150 }, "geometry": { "type": "Point", "coordinates": [ 0.795072, 51.041332, 0.0 ] } },
{ "type": "Feature", "properties": { "styleUrl": "#pointStyleMap", "icon": "http://maps.google.com/mapfiles/kml/shapes/placemark_circle.png", "Latitude": 51.0389, "Longitude": 0.797984, "Row": 150 }, "geometry": { "type": "Point", "coordinates": [ 0.797984, 51.038872, 0.0 ] } },
{ "type": "Feature", "properties": { "styleUrl": "#pointStyleMap", "icon": "http://maps.google.com/mapfiles/kml/shapes/placemark_circle.png", "Latitude": 51.0413, "Longitude": 0.795106, "Row": 151 }, "geometry": { "type": "Point", "coordinates": [ 0.795106, 51.041339, 0.0 ] } },
{ "type": "Feature", "properties": { "styleUrl": "#pointStyleMap", "icon": "http://maps.google.com/mapfiles/kml/shapes/placemark_circle.png", "Latitude": 51.0389, "Longitude": 0.798016, "Row": 151 }, "geometry": { "type": "Point", "coordinates": [ 0.798016, 51.038882, 0.0 ] } },
{ "type": "Feature", "properties": { "styleUrl": "#pointStyleMap", "icon": "http://maps.google.com/mapfiles/kml/shapes/placemark_circle.png", "Latitude": 51.0414, "Longitude": 0.795138, "Row": 152 }, "geometry": { "type": "Point", "coordinates": [ 0.795138, 51.04135, 0.0 ] } },
{ "type": "Feature", "properties": { "styleUrl": "#pointStyleMap", "icon": "http://maps.google.com/mapfiles/kml/shapes/placemark_circle.png", "Latitude": 51.0389, "Longitude": 0.798043, "Row": 152 }, "geometry": { "type": "Point", "coordinates": [ 0.798043, 51.038896, 0.0 ] } },
{ "type": "Feature", "properties": { "styleUrl": "#pointStyleMap", "icon": "http://maps.google.com/mapfiles/kml/shapes/placemark_circle.png", "Latitude": 51.0414, "Longitude": 0.795173, "Row": 153 }, "geometry": { "type": "Point", "coordinates": [ 0.795173, 51.041359, 0.0 ] } },
{ "type": "Feature", "properties": { "styleUrl": "#pointStyleMap", "icon": "http://maps.google.com/mapfiles/kml/shapes/placemark_circle.png", "Latitude": 51.0389, "Longitude": 0.79807, "Row": 153 }, "geometry": { "type": "Point", "coordinates": [ 0.79807, 51.038911, 0.0 ] } },
{ "type": "Feature", "properties": { "styleUrl": "#pointStyleMap", "icon": "http://maps.google.com/mapfiles/kml/shapes/placemark_circle.png", "Latitude": 51.0414, "Longitude": 0.795208, "Row": 154 }, "geometry": { "type": "Point", "coordinates": [ 0.795208, 51.041367, 0.0 ] } },
{ "type": "Feature", "properties": { "styleUrl": "#pointStyleMap", "icon": "http://maps.google.com/mapfiles/kml/shapes/placemark_circle.png", "Latitude": 51.0389, "Longitude": 0.798092, "Row": 154 }, "geometry": { "type": "Point", "coordinates": [ 0.798092, 51.038932, 0.0 ] } },
{ "type": "Feature", "properties": { "styleUrl": "#pointStyleMap", "icon": "http://maps.google.com/mapfiles/kml/shapes/placemark_circle.png", "Latitude": 51.0414, "Longitude": 0.795241, "Row": 155 }, "geometry": { "type": "Point", "coordinates": [ 0.795241, 51.041376, 0.0 ] } },
{ "type": "Feature", "properties": { "styleUrl": "#pointStyleMap", "icon": "http://maps.google.com/mapfiles/kml/shapes/placemark_circle.png", "Latitude": 51.039, "Longitude": 0.798111, "Row": 155 }, "geometry": { "type": "Point", "coordinates": [ 0.798111, 51.038951, 0.0 ] } },
{ "type": "Feature", "properties": { "styleUrl": "#pointStyleMap", "icon": "http://maps.google.com/mapfiles/kml/shapes/placemark_circle.png", "Latitude": 51.0414, "Longitude": 0.795276, "Row": 156 }, "geometry": { "type": "Point", "coordinates": [ 0.795276, 51.041385, 0.0 ] } },
{ "type": "Feature", "properties": { "styleUrl": "#pointStyleMap", "icon": "http://maps.google.com/mapfiles/kml/shapes/placemark_circle.png", "Latitude": 51.039, "Longitude": 0.798132, "Row": 156 }, "geometry": { "type": "Point", "coordinates": [ 0.798132, 51.038973, 0.0 ] } },
{ "type": "Feature", "properties": { "styleUrl": "#pointStyleMap", "icon": "http://maps.google.com/mapfiles/kml/shapes/placemark_circle.png", "Latitude": 51.0414, "Longitude": 0.795312, "Row": 157 }, "geometry": { "type": "Point", "coordinates": [ 0.795312, 51.041394, 0.0 ] } },
{ "type": "Feature", "properties": { "styleUrl": "#pointStyleMap", "icon": "http://maps.google.com/mapfiles/kml/shapes/placemark_circle.png", "Latitude": 51.039, "Longitude": 0.79815, "Row": 157 }, "geometry": { "type": "Point", "coordinates": [ 0.79815, 51.039004, 0.0 ] } },
{ "type": "Feature", "properties": { "styleUrl": "#pointStyleMap", "icon": "http://maps.google.com/mapfiles/kml/shapes/placemark_circle.png", "Latitude": 51.0414, "Longitude": 0.795344, "Row": 158 }, "geometry": { "type": "Point", "coordinates": [ 0.795344, 51.041403, 0.0 ] } },
{ "type": "Feature", "properties": { "styleUrl": "#pointStyleMap", "icon": "http://maps.google.com/mapfiles/kml/shapes/placemark_circle.png", "Latitude": 51.039, "Longitude": 0.798171, "Row": 158 }, "geometry": { "type": "Point", "coordinates": [ 0.798171, 51.039013, 0.0 ] } },
{ "type": "Feature", "properties": { "styleUrl": "#pointStyleMap", "icon": "http://maps.google.com/mapfiles/kml/shapes/placemark_circle.png", "Latitude": 51.0414, "Longitude": 0.795381, "Row": 159 }, "geometry": { "type": "Point", "coordinates": [ 0.795381, 51.04141, 0.0 ] } },
{ "type": "Feature", "properties": { "styleUrl": "#pointStyleMap", "icon": "http://maps.google.com/mapfiles/kml/shapes/placemark_circle.png", "Latitude": 51.039, "Longitude": 0.798192, "Row": 159 }, "geometry": { "type": "Point", "coordinates": [ 0.798192, 51.039033, 0.0 ] } },
{ "type": "Feature", "properties": { "styleUrl": "#pointStyleMap", "icon": "http://maps.google.com/mapfiles/kml/shapes/placemark_circle.png", "Latitude": 51.0414, "Longitude": 0.795414, "Row": 160 }, "geometry": { "type": "Point", "coordinates": [ 0.795414, 51.04142, 0.0 ] } },
{ "type": "Feature", "properties": { "styleUrl": "#pointStyleMap", "icon": "http://maps.google.com/mapfiles/kml/shapes/placemark_circle.png", "Latitude": 51.039, "Longitude": 0.798224, "Row": 160 }, "geometry": { "type": "Point", "coordinates": [ 0.798224, 51.039045, 0.0 ] } },
{ "type": "Feature", "properties": { "styleUrl": "#pointStyleMap", "icon": "http://maps.google.com/mapfiles/kml/shapes/placemark_circle.png", "Latitude": 51.0414, "Longitude": 0.795447, "Row": 161 }, "geometry": { "type": "Point", "coordinates": [ 0.795447, 51.041428, 0.0 ] } },
{ "type": "Feature", "properties": { "styleUrl": "#pointStyleMap", "icon": "http://maps.google.com/mapfiles/kml/shapes/placemark_circle.png", "Latitude": 51.0391, "Longitude": 0.798256, "Row": 161 }, "geometry": { "type": "Point", "coordinates": [ 0.798256, 51.039054, 0.0 ] } },
{ "type": "Feature", "properties": { "styleUrl": "#pointStyleMap", "icon": "http://maps.google.com/mapfiles/kml/shapes/placemark_circle.png", "Latitude": 51.0414, "Longitude": 0.795483, "Row": 162 }, "geometry": { "type": "Point", "coordinates": [ 0.795483, 51.041436, 0.0 ] } },
{ "type": "Feature", "properties": { "styleUrl": "#pointStyleMap", "icon": "http://maps.google.com/mapfiles/kml/shapes/placemark_circle.png", "Latitude": 51.0391, "Longitude": 0.798289, "Row": 162 }, "geometry": { "type": "Point", "coordinates": [ 0.798289, 51.039063, 0.0 ] } },
{ "type": "Feature", "properties": { "styleUrl": "#pointStyleMap", "icon": "http://maps.google.com/mapfiles/kml/shapes/placemark_circle.png", "Latitude": 51.0414, "Longitude": 0.795516, "Row": 163 }, "geometry": { "type": "Point", "coordinates": [ 0.795516, 51.041446, 0.0 ] } },
{ "type": "Feature", "properties": { "styleUrl": "#pointStyleMap", "icon": "http://maps.google.com/mapfiles/kml/shapes/placemark_circle.png", "Latitude": 51.0391, "Longitude": 0.798321, "Row": 163 }, "geometry": { "type": "Point", "coordinates": [ 0.798321, 51.039074, 0.0 ] } },
{ "type": "Feature", "properties": { "styleUrl": "#pointStyleMap", "icon": "http://maps.google.com/mapfiles/kml/shapes/placemark_circle.png", "Latitude": 51.0415, "Longitude": 0.79555, "Row": 164 }, "geometry": { "type": "Point", "coordinates": [ 0.79555, 51.041454, 0.0 ] } },
{ "type": "Feature", "properties": { "styleUrl": "#pointStyleMap", "icon": "http://maps.google.com/mapfiles/kml/shapes/placemark_circle.png", "Latitude": 51.0391, "Longitude": 0.798355, "Row": 164 }, "geometry": { "type": "Point", "coordinates": [ 0.798355, 51.039084, 0.0 ] } },
{ "type": "Feature", "properties": { "styleUrl": "#pointStyleMap", "icon": "http://maps.google.com/mapfiles/kml/shapes/placemark_circle.png", "Latitude": 51.0415, "Longitude": 0.795587, "Row": 165 }, "geometry": { "type": "Point", "coordinates": [ 0.795587, 51.041463, 0.0 ] } },
{ "type": "Feature", "properties": { "styleUrl": "#pointStyleMap", "icon": "http://maps.google.com/mapfiles/kml/shapes/placemark_circle.png", "Latitude": 51.0391, "Longitude": 0.798387, "Row": 165 }, "geometry": { "type": "Point", "coordinates": [ 0.798387, 51.039095, 0.0 ] } },
{ "type": "Feature", "properties": { "styleUrl": "#pointStyleMap", "icon": "http://maps.google.com/mapfiles/kml/shapes/placemark_circle.png", "Latitude": 51.0415, "Longitude": 0.795619, "Row": 166 }, "geometry": { "type": "Point", "coordinates": [ 0.795619, 51.041471, 0.0 ] } },
{ "type": "Feature", "properties": { "styleUrl": "#pointStyleMap", "icon": "http://maps.google.com/mapfiles/kml/shapes/placemark_circle.png", "Latitude": 51.0391, "Longitude": 0.798419, "Row": 166 }, "geometry": { "type": "Point", "coordinates": [ 0.798419, 51.039104, 0.0 ] } },
{ "type": "Feature", "properties": { "styleUrl": "#pointStyleMap", "icon": "http://maps.google.com/mapfiles/kml/shapes/placemark_circle.png", "Latitude": 51.0415, "Longitude": 0.795654, "Row": 167 }, "geometry": { "type": "Point", "coordinates": [ 0.795654, 51.04148, 0.0 ] } },
{ "type": "Feature", "properties": { "styleUrl": "#pointStyleMap", "icon": "http://maps.google.com/mapfiles/kml/shapes/placemark_circle.png", "Latitude": 51.0391, "Longitude": 0.798453, "Row": 167 }, "geometry": { "type": "Point", "coordinates": [ 0.798453, 51.039113, 0.0 ] } },
{ "type": "Feature", "properties": { "styleUrl": "#pointStyleMap", "icon": "http://maps.google.com/mapfiles/kml/shapes/placemark_circle.png", "Latitude": 51.0415, "Longitude": 0.79569, "Row": 168 }, "geometry": { "type": "Point", "coordinates": [ 0.79569, 51.041488, 0.0 ] } },
{ "type": "Feature", "properties": { "styleUrl": "#pointStyleMap", "icon": "http://maps.google.com/mapfiles/kml/shapes/placemark_circle.png", "Latitude": 51.0391, "Longitude": 0.798484, "Row": 168 }, "geometry": { "type": "Point", "coordinates": [ 0.798484, 51.039125, 0.0 ] } },
{ "type": "Feature", "properties": { "styleUrl": "#pointStyleMap", "icon": "http://maps.google.com/mapfiles/kml/shapes/placemark_circle.png", "Latitude": 51.0415, "Longitude": 0.795722, "Row": 169 }, "geometry": { "type": "Point", "coordinates": [ 0.795722, 51.041498, 0.0 ] } },
{ "type": "Feature", "properties": { "styleUrl": "#pointStyleMap", "icon": "http://maps.google.com/mapfiles/kml/shapes/placemark_circle.png", "Latitude": 51.0391, "Longitude": 0.798517, "Row": 169 }, "geometry": { "type": "Point", "coordinates": [ 0.798517, 51.039133, 0.0 ] } },
{ "type": "Feature", "properties": { "styleUrl": "#pointStyleMap", "icon": "http://maps.google.com/mapfiles/kml/shapes/placemark_circle.png", "Latitude": 51.0415, "Longitude": 0.795756, "Row": 170 }, "geometry": { "type": "Point", "coordinates": [ 0.795756, 51.041507, 0.0 ] } },
{ "type": "Feature", "properties": { "styleUrl": "#pointStyleMap", "icon": "http://maps.google.com/mapfiles/kml/shapes/placemark_circle.png", "Latitude": 51.0391, "Longitude": 0.798551, "Row": 170 }, "geometry": { "type": "Point", "coordinates": [ 0.798551, 51.039144, 0.0 ] } },
{ "type": "Feature", "properties": { "styleUrl": "#pointStyleMap", "icon": "http://maps.google.com/mapfiles/kml/shapes/placemark_circle.png", "Latitude": 51.0415, "Longitude": 0.795792, "Row": 171 }, "geometry": { "type": "Point", "coordinates": [ 0.795792, 51.041516, 0.0 ] } },
{ "type": "Feature", "properties": { "styleUrl": "#pointStyleMap", "icon": "http://maps.google.com/mapfiles/kml/shapes/placemark_circle.png", "Latitude": 51.0392, "Longitude": 0.798584, "Row": 171 }, "geometry": { "type": "Point", "coordinates": [ 0.798584, 51.039154, 0.0 ] } },
{ "type": "Feature", "properties": { "styleUrl": "#pointStyleMap", "icon": "http://maps.google.com/mapfiles/kml/shapes/placemark_circle.png", "Latitude": 51.0415, "Longitude": 0.795828, "Row": 172 }, "geometry": { "type": "Point", "coordinates": [ 0.795828, 51.041521, 0.0 ] } },
{ "type": "Feature", "properties": { "styleUrl": "#pointStyleMap", "icon": "http://maps.google.com/mapfiles/kml/shapes/placemark_circle.png", "Latitude": 51.0392, "Longitude": 0.798617, "Row": 172 }, "geometry": { "type": "Point", "coordinates": [ 0.798617, 51.039164, 0.0 ] } },
{ "type": "Feature", "properties": { "styleUrl": "#pointStyleMap", "icon": "http://maps.google.com/mapfiles/kml/shapes/placemark_circle.png", "Latitude": 51.0415, "Longitude": 0.795862, "Row": 173 }, "geometry": { "type": "Point", "coordinates": [ 0.795862, 51.041529, 0.0 ] } },
{ "type": "Feature", "properties": { "styleUrl": "#pointStyleMap", "icon": "http://maps.google.com/mapfiles/kml/shapes/placemark_circle.png", "Latitude": 51.0392, "Longitude": 0.798648, "Row": 173 }, "geometry": { "type": "Point", "coordinates": [ 0.798648, 51.039175, 0.0 ] } },
{ "type": "Feature", "properties": { "styleUrl": "#pointStyleMap", "icon": "http://maps.google.com/mapfiles/kml/shapes/placemark_circle.png", "Latitude": 51.0415, "Longitude": 0.795896, "Row": 174 }, "geometry": { "type": "Point", "coordinates": [ 0.795896, 51.04154, 0.0 ] } },
{ "type": "Feature", "properties": { "styleUrl": "#pointStyleMap", "icon": "http://maps.google.com/mapfiles/kml/shapes/placemark_circle.png", "Latitude": 51.0392, "Longitude": 0.798681, "Row": 174 }, "geometry": { "type": "Point", "coordinates": [ 0.798681, 51.039184, 0.0 ] } },
{ "type": "Feature", "properties": { "styleUrl": "#pointStyleMap", "icon": "http://maps.google.com/mapfiles/kml/shapes/placemark_circle.png", "Latitude": 51.0415, "Longitude": 0.79593, "Row": 175 }, "geometry": { "type": "Point", "coordinates": [ 0.79593, 51.041549, 0.0 ] } },
{ "type": "Feature", "properties": { "styleUrl": "#pointStyleMap", "icon": "http://maps.google.com/mapfiles/kml/shapes/placemark_circle.png", "Latitude": 51.0392, "Longitude": 0.798707, "Row": 175 }, "geometry": { "type": "Point", "coordinates": [ 0.798707, 51.0392, 0.0 ] } },
{ "type": "Feature", "properties": { "styleUrl": "#pointStyleMap", "icon": "http://maps.google.com/mapfiles/kml/shapes/placemark_circle.png", "Latitude": 51.0416, "Longitude": 0.795961, "Row": 176 }, "geometry": { "type": "Point", "coordinates": [ 0.795961, 51.041558, 0.0 ] } },
{ "type": "Feature", "properties": { "styleUrl": "#pointStyleMap", "icon": "http://maps.google.com/mapfiles/kml/shapes/placemark_circle.png", "Latitude": 51.0392, "Longitude": 0.798738, "Row": 176 }, "geometry": { "type": "Point", "coordinates": [ 0.798738, 51.039212, 0.0 ] } },
{ "type": "Feature", "properties": { "styleUrl": "#pointStyleMap", "icon": "http://maps.google.com/mapfiles/kml/shapes/placemark_circle.png", "Latitude": 51.0416, "Longitude": 0.795997, "Row": 177 }, "geometry": { "type": "Point", "coordinates": [ 0.795997, 51.041567, 0.0 ] } },
{ "type": "Feature", "properties": { "styleUrl": "#pointStyleMap", "icon": "http://maps.google.com/mapfiles/kml/shapes/placemark_circle.png", "Latitude": 51.0392, "Longitude": 0.798765, "Row": 177 }, "geometry": { "type": "Point", "coordinates": [ 0.798765, 51.039226, 0.0 ] } },
{ "type": "Feature", "properties": { "styleUrl": "#pointStyleMap", "icon": "http://maps.google.com/mapfiles/kml/shapes/placemark_circle.png", "Latitude": 51.0416, "Longitude": 0.796031, "Row": 178 }, "geometry": { "type": "Point", "coordinates": [ 0.796031, 51.041574, 0.0 ] } },
{ "type": "Feature", "properties": { "styleUrl": "#pointStyleMap", "icon": "http://maps.google.com/mapfiles/kml/shapes/placemark_circle.png", "Latitude": 51.0392, "Longitude": 0.798795, "Row": 178 }, "geometry": { "type": "Point", "coordinates": [ 0.798795, 51.039238, 0.0 ] } },
{ "type": "Feature", "properties": { "styleUrl": "#pointStyleMap", "icon": "http://maps.google.com/mapfiles/kml/shapes/placemark_circle.png", "Latitude": 51.0416, "Longitude": 0.796066, "Row": 179 }, "geometry": { "type": "Point", "coordinates": [ 0.796066, 51.041583, 0.0 ] } },
{ "type": "Feature", "properties": { "styleUrl": "#pointStyleMap", "icon": "http://maps.google.com/mapfiles/kml/shapes/placemark_circle.png", "Latitude": 51.0393, "Longitude": 0.798825, "Row": 179 }, "geometry": { "type": "Point", "coordinates": [ 0.798825, 51.039252, 0.0 ] } },
{ "type": "Feature", "properties": { "styleUrl": "#pointStyleMap", "icon": "http://maps.google.com/mapfiles/kml/shapes/placemark_circle.png", "Latitude": 51.0416, "Longitude": 0.796099, "Row": 180 }, "geometry": { "type": "Point", "coordinates": [ 0.796099, 51.041593, 0.0 ] } },
{ "type": "Feature", "properties": { "styleUrl": "#pointStyleMap", "icon": "http://maps.google.com/mapfiles/kml/shapes/placemark_circle.png", "Latitude": 51.0393, "Longitude": 0.798853, "Row": 180 }, "geometry": { "type": "Point", "coordinates": [ 0.798853, 51.039264, 0.0 ] } },
{ "type": "Feature", "properties": { "styleUrl": "#pointStyleMap", "icon": "http://maps.google.com/mapfiles/kml/shapes/placemark_circle.png", "Latitude": 51.0416, "Longitude": 0.796133, "Row": 181 }, "geometry": { "type": "Point", "coordinates": [ 0.796133, 51.041601, 0.0 ] } },
{ "type": "Feature", "properties": { "styleUrl": "#pointStyleMap", "icon": "http://maps.google.com/mapfiles/kml/shapes/placemark_circle.png", "Latitude": 51.0393, "Longitude": 0.798883, "Row": 181 }, "geometry": { "type": "Point", "coordinates": [ 0.798883, 51.039279, 0.0 ] } },
{ "type": "Feature", "properties": { "styleUrl": "#pointStyleMap", "icon": "http://maps.google.com/mapfiles/kml/shapes/placemark_circle.png", "Latitude": 51.0416, "Longitude": 0.796168, "Row": 182 }, "geometry": { "type": "Point", "coordinates": [ 0.796168, 51.04161, 0.0 ] } },
{ "type": "Feature", "properties": { "styleUrl": "#pointStyleMap", "icon": "http://maps.google.com/mapfiles/kml/shapes/placemark_circle.png", "Latitude": 51.0393, "Longitude": 0.79891, "Row": 182 }, "geometry": { "type": "Point", "coordinates": [ 0.79891, 51.039292, 0.0 ] } },
{ "type": "Feature", "properties": { "styleUrl": "#pointStyleMap", "icon": "http://maps.google.com/mapfiles/kml/shapes/placemark_circle.png", "Latitude": 51.0416, "Longitude": 0.796204, "Row": 183 }, "geometry": { "type": "Point", "coordinates": [ 0.796204, 51.041618, 0.0 ] } },
{ "type": "Feature", "properties": { "styleUrl": "#pointStyleMap", "icon": "http://maps.google.com/mapfiles/kml/shapes/placemark_circle.png", "Latitude": 51.0393, "Longitude": 0.798941, "Row": 183 }, "geometry": { "type": "Point", "coordinates": [ 0.798941, 51.039305, 0.0 ] } },
{ "type": "Feature", "properties": { "styleUrl": "#pointStyleMap", "icon": "http://maps.google.com/mapfiles/kml/shapes/placemark_circle.png", "Latitude": 51.0416, "Longitude": 0.796239, "Row": 184 }, "geometry": { "type": "Point", "coordinates": [ 0.796239, 51.041625, 0.0 ] } },
{ "type": "Feature", "properties": { "styleUrl": "#pointStyleMap", "icon": "http://maps.google.com/mapfiles/kml/shapes/placemark_circle.png", "Latitude": 51.0393, "Longitude": 0.798969, "Row": 184 }, "geometry": { "type": "Point", "coordinates": [ 0.798969, 51.039319, 0.0 ] } },
{ "type": "Feature", "properties": { "styleUrl": "#pointStyleMap", "icon": "http://maps.google.com/mapfiles/kml/shapes/placemark_circle.png", "Latitude": 51.0416, "Longitude": 0.79628, "Row": 185 }, "geometry": { "type": "Point", "coordinates": [ 0.79628, 51.041627, 0.0 ] } },
{ "type": "Feature", "properties": { "styleUrl": "#pointStyleMap", "icon": "http://maps.google.com/mapfiles/kml/shapes/placemark_circle.png", "Latitude": 51.0393, "Longitude": 0.798994, "Row": 185 }, "geometry": { "type": "Point", "coordinates": [ 0.798994, 51.039334, 0.0 ] } },
{ "type": "Feature", "properties": { "styleUrl": "#pointStyleMap", "icon": "http://maps.google.com/mapfiles/kml/shapes/placemark_circle.png", "Latitude": 51.0416, "Longitude": 0.796311, "Row": 186 }, "geometry": { "type": "Point", "coordinates": [ 0.796311, 51.041638, 0.0 ] } },
{ "type": "Feature", "properties": { "styleUrl": "#pointStyleMap", "icon": "http://maps.google.com/mapfiles/kml/shapes/placemark_circle.png", "Latitude": 51.0393, "Longitude": 0.799026, "Row": 186 }, "geometry": { "type": "Point", "coordinates": [ 0.799026, 51.039344, 0.0 ] } },
{ "type": "Feature", "properties": { "styleUrl": "#pointStyleMap", "icon": "http://maps.google.com/mapfiles/kml/shapes/placemark_circle.png", "Latitude": 51.0416, "Longitude": 0.796351, "Row": 187 }, "geometry": { "type": "Point", "coordinates": [ 0.796351, 51.041644, 0.0 ] } },
{ "type": "Feature", "properties": { "styleUrl": "#pointStyleMap", "icon": "http://maps.google.com/mapfiles/kml/shapes/placemark_circle.png", "Latitude": 51.0394, "Longitude": 0.799054, "Row": 187 }, "geometry": { "type": "Point", "coordinates": [ 0.799054, 51.039359, 0.0 ] } },
{ "type": "Feature", "properties": { "styleUrl": "#pointStyleMap", "icon": "http://maps.google.com/mapfiles/kml/shapes/placemark_circle.png", "Latitude": 51.0417, "Longitude": 0.796386, "Row": 188 }, "geometry": { "type": "Point", "coordinates": [ 0.796386, 51.041651, 0.0 ] } },
{ "type": "Feature", "properties": { "styleUrl": "#pointStyleMap", "icon": "http://maps.google.com/mapfiles/kml/shapes/placemark_circle.png", "Latitude": 51.0394, "Longitude": 0.799083, "Row": 188 }, "geometry": { "type": "Point", "coordinates": [ 0.799083, 51.039372, 0.0 ] } },
{ "type": "Feature", "properties": { "styleUrl": "#pointStyleMap", "icon": "http://maps.google.com/mapfiles/kml/shapes/placemark_circle.png", "Latitude": 51.0412, "Longitude": 0.796948, "Row": 189 }, "geometry": { "type": "Point", "coordinates": [ 0.796948, 51.041212, 0.0 ] } },
{ "type": "Feature", "properties": { "styleUrl": "#pointStyleMap", "icon": "http://maps.google.com/mapfiles/kml/shapes/placemark_circle.png", "Latitude": 51.0394, "Longitude": 0.799111, "Row": 189 }, "geometry": { "type": "Point", "coordinates": [ 0.799111, 51.039385, 0.0 ] } },
{ "type": "Feature", "properties": { "styleUrl": "#pointStyleMap", "icon": "http://maps.google.com/mapfiles/kml/shapes/placemark_circle.png", "Latitude": 51.0412, "Longitude": 0.796984, "Row": 190 }, "geometry": { "type": "Point", "coordinates": [ 0.796984, 51.041221, 0.0 ] } },
{ "type": "Feature", "properties": { "styleUrl": "#pointStyleMap", "icon": "http://maps.google.com/mapfiles/kml/shapes/placemark_circle.png", "Latitude": 51.0394, "Longitude": 0.799139, "Row": 190 }, "geometry": { "type": "Point", "coordinates": [ 0.799139, 51.039399, 0.0 ] } },
{ "type": "Feature", "properties": { "styleUrl": "#pointStyleMap", "icon": "http://maps.google.com/mapfiles/kml/shapes/placemark_circle.png", "Latitude": 51.0412, "Longitude": 0.797021, "Row": 191 }, "geometry": { "type": "Point", "coordinates": [ 0.797021, 51.041228, 0.0 ] } },
{ "type": "Feature", "properties": { "styleUrl": "#pointStyleMap", "icon": "http://maps.google.com/mapfiles/kml/shapes/placemark_circle.png", "Latitude": 51.0394, "Longitude": 0.799168, "Row": 191 }, "geometry": { "type": "Point", "coordinates": [ 0.799168, 51.039413, 0.0 ] } },
{ "type": "Feature", "properties": { "styleUrl": "#pointStyleMap", "icon": "http://maps.google.com/mapfiles/kml/shapes/placemark_circle.png", "Latitude": 51.0412, "Longitude": 0.797055, "Row": 192 }, "geometry": { "type": "Point", "coordinates": [ 0.797055, 51.041235, 0.0 ] } },
{ "type": "Feature", "properties": { "styleUrl": "#pointStyleMap", "icon": "http://maps.google.com/mapfiles/kml/shapes/placemark_circle.png", "Latitude": 51.0394, "Longitude": 0.799197, "Row": 192 }, "geometry": { "type": "Point", "coordinates": [ 0.799197, 51.039425, 0.0 ] } },
{ "type": "Feature", "properties": { "styleUrl": "#pointStyleMap", "icon": "http://maps.google.com/mapfiles/kml/shapes/placemark_circle.png", "Latitude": 51.0412, "Longitude": 0.797091, "Row": 193 }, "geometry": { "type": "Point", "coordinates": [ 0.797091, 51.041244, 0.0 ] } },
{ "type": "Feature", "properties": { "styleUrl": "#pointStyleMap", "icon": "http://maps.google.com/mapfiles/kml/shapes/placemark_circle.png", "Latitude": 51.0394, "Longitude": 0.799226, "Row": 193 }, "geometry": { "type": "Point", "coordinates": [ 0.799226, 51.039439, 0.0 ] } },
{ "type": "Feature", "properties": { "styleUrl": "#pointStyleMap", "icon": "http://maps.google.com/mapfiles/kml/shapes/placemark_circle.png", "Latitude": 51.0413, "Longitude": 0.797125, "Row": 194 }, "geometry": { "type": "Point", "coordinates": [ 0.797125, 51.041252, 0.0 ] } },
{ "type": "Feature", "properties": { "styleUrl": "#pointStyleMap", "icon": "http://maps.google.com/mapfiles/kml/shapes/placemark_circle.png", "Latitude": 51.0395, "Longitude": 0.799254, "Row": 194 }, "geometry": { "type": "Point", "coordinates": [ 0.799254, 51.039453, 0.0 ] } },
{ "type": "Feature", "properties": { "styleUrl": "#pointStyleMap", "icon": "http://maps.google.com/mapfiles/kml/shapes/placemark_circle.png", "Latitude": 51.0413, "Longitude": 0.797162, "Row": 195 }, "geometry": { "type": "Point", "coordinates": [ 0.797162, 51.041259, 0.0 ] } },
{ "type": "Feature", "properties": { "styleUrl": "#pointStyleMap", "icon": "http://maps.google.com/mapfiles/kml/shapes/placemark_circle.png", "Latitude": 51.0395, "Longitude": 0.799284, "Row": 195 }, "geometry": { "type": "Point", "coordinates": [ 0.799284, 51.039466, 0.0 ] } },
{ "type": "Feature", "properties": { "styleUrl": "#pointStyleMap", "icon": "http://maps.google.com/mapfiles/kml/shapes/placemark_circle.png", "Latitude": 51.0413, "Longitude": 0.797199, "Row": 196 }, "geometry": { "type": "Point", "coordinates": [ 0.797199, 51.041265, 0.0 ] } },
{ "type": "Feature", "properties": { "styleUrl": "#pointStyleMap", "icon": "http://maps.google.com/mapfiles/kml/shapes/placemark_circle.png", "Latitude": 51.0395, "Longitude": 0.799312, "Row": 196 }, "geometry": { "type": "Point", "coordinates": [ 0.799312, 51.039479, 0.0 ] } },
{ "type": "Feature", "properties": { "styleUrl": "#pointStyleMap", "icon": "http://maps.google.com/mapfiles/kml/shapes/placemark_circle.png", "Latitude": 51.0413, "Longitude": 0.797231, "Row": 197 }, "geometry": { "type": "Point", "coordinates": [ 0.797231, 51.041275, 0.0 ] } },
{ "type": "Feature", "properties": { "styleUrl": "#pointStyleMap", "icon": "http://maps.google.com/mapfiles/kml/shapes/placemark_circle.png", "Latitude": 51.0395, "Longitude": 0.79934, "Row": 197 }, "geometry": { "type": "Point", "coordinates": [ 0.79934, 51.039493, 0.0 ] } },
{ "type": "Feature", "properties": { "styleUrl": "#pointStyleMap", "icon": "http://maps.google.com/mapfiles/kml/shapes/placemark_circle.png", "Latitude": 51.0413, "Longitude": 0.797269, "Row": 198 }, "geometry": { "type": "Point", "coordinates": [ 0.797269, 51.041281, 0.0 ] } },
{ "type": "Feature", "properties": { "styleUrl": "#pointStyleMap", "icon": "http://maps.google.com/mapfiles/kml/shapes/placemark_circle.png", "Latitude": 51.0395, "Longitude": 0.79937, "Row": 198 }, "geometry": { "type": "Point", "coordinates": [ 0.79937, 51.039505, 0.0 ] } },
{ "type": "Feature", "properties": { "styleUrl": "#pointStyleMap", "icon": "http://maps.google.com/mapfiles/kml/shapes/placemark_circle.png", "Latitude": 51.0413, "Longitude": 0.797309, "Row": 199 }, "geometry": { "type": "Point", "coordinates": [ 0.797309, 51.041287, 0.0 ] } },
{ "type": "Feature", "properties": { "styleUrl": "#pointStyleMap", "icon": "http://maps.google.com/mapfiles/kml/shapes/placemark_circle.png", "Latitude": 51.0395, "Longitude": 0.799398, "Row": 199 }, "geometry": { "type": "Point", "coordinates": [ 0.799398, 51.03952, 0.0 ] } },
{ "type": "Feature", "properties": { "styleUrl": "#pointStyleMap", "icon": "http://maps.google.com/mapfiles/kml/shapes/placemark_circle.png", "Latitude": 51.0413, "Longitude": 0.797344, "Row": 200 }, "geometry": { "type": "Point", "coordinates": [ 0.797344, 51.041294, 0.0 ] } },
{ "type": "Feature", "properties": { "styleUrl": "#pointStyleMap", "icon": "http://maps.google.com/mapfiles/kml/shapes/placemark_circle.png", "Latitude": 51.0395, "Longitude": 0.799427, "Row": 200 }, "geometry": { "type": "Point", "coordinates": [ 0.799427, 51.039533, 0.0 ] } },
{ "type": "Feature", "properties": { "styleUrl": "#pointStyleMap", "icon": "http://maps.google.com/mapfiles/kml/shapes/placemark_circle.png", "Latitude": 51.0413, "Longitude": 0.79738, "Row": 201 }, "geometry": { "type": "Point", "coordinates": [ 0.79738, 51.041301, 0.0 ] } },
{ "type": "Feature", "properties": { "styleUrl": "#pointStyleMap", "icon": "http://maps.google.com/mapfiles/kml/shapes/placemark_circle.png", "Latitude": 51.0395, "Longitude": 0.799454, "Row": 201 }, "geometry": { "type": "Point", "coordinates": [ 0.799454, 51.039547, 0.0 ] } },
{ "type": "Feature", "properties": { "styleUrl": "#pointStyleMap", "icon": "http://maps.google.com/mapfiles/kml/shapes/placemark_circle.png", "Latitude": 51.0413, "Longitude": 0.797416, "Row": 202 }, "geometry": { "type": "Point", "coordinates": [ 0.797416, 51.041307, 0.0 ] } },
{ "type": "Feature", "properties": { "styleUrl": "#pointStyleMap", "icon": "http://maps.google.com/mapfiles/kml/shapes/placemark_circle.png", "Latitude": 51.0396, "Longitude": 0.799483, "Row": 202 }, "geometry": { "type": "Point", "coordinates": [ 0.799483, 51.039561, 0.0 ] } },
{ "type": "Feature", "properties": { "styleUrl": "#pointStyleMap", "icon": "http://maps.google.com/mapfiles/kml/shapes/placemark_circle.png", "Latitude": 51.0413, "Longitude": 0.797454, "Row": 203 }, "geometry": { "type": "Point", "coordinates": [ 0.797454, 51.041312, 0.0 ] } },
{ "type": "Feature", "properties": { "styleUrl": "#pointStyleMap", "icon": "http://maps.google.com/mapfiles/kml/shapes/placemark_circle.png", "Latitude": 51.0396, "Longitude": 0.799512, "Row": 203 }, "geometry": { "type": "Point", "coordinates": [ 0.799512, 51.039572, 0.0 ] } }
]
}
