{
"type": "FeatureCollection",
"name": "coolhurst_end_posts_south_block_labelled",
"features": [
{ "type": "Feature", "properties": { "Row": 243 }, "geometry": { "type": "Point", "coordinates": [ -0.294616, 51.050914 ] } },
{ "type": "Feature", "properties": { "Row": 244 }, "geometry": { "type": "Point", "coordinates": [ -0.295195, 51.052028 ] } },
{ "type": "Feature", "properties": { "Row": 244 }, "geometry": { "type": "Point", "coordinates": [ -0.294592, 51.050934 ] } },
{ "type": "Feature", "properties": { "Row": 245 }, "geometry": { "type": "Point", "coordinates": [ -0.295166, 51.052036 ] } },
{ "type": "Feature", "properties": { "Row": 245 }, "geometry": { "type": "Point", "coordinates": [ -0.29457, 51.050956 ] } },
{ "type": "Feature", "properties": { "Row": 246 }, "geometry": { "type": "Point", "coordinates": [ -0.295136, 51.052042 ] } },
{ "type": "Feature", "properties": { "Row": 246 }, "geometry": { "type": "Point", "coordinates": [ -0.294549, 51.050976 ] } },
{ "type": "Feature", "properties": { "Row": 247 }, "geometry": { "type": "Point", "coordinates": [ -0.295106, 51.052047 ] } },
{ "type": "Feature", "properties": { "Row": 247 }, "geometry": { "type": "Point", "coordinates": [ -0.294526, 51.050996 ] } },
{ "type": "Feature", "properties": { "Row": 248 }, "geometry": { "type": "Point", "coordinates": [ -0.295078, 51.052055 ] } },
{ "type": "Feature", "properties": { "Row": 248 }, "geometry": { "type": "Point", "coordinates": [ -0.294504, 51.051016 ] } },
{ "type": "Feature", "properties": { "Row": 249 }, "geometry": { "type": "Point", "coordinates": [ -0.295048, 51.052062 ] } },
{ "type": "Feature", "properties": { "Row": 249 }, "geometry": { "type": "Point", "coordinates": [ -0.294483, 51.051037 ] } },
{ "type": "Feature", "properties": { "Row": 250 }, "geometry": { "type": "Point", "coordinates": [ -0.295017, 51.052068 ] } },
{ "type": "Feature", "properties": { "Row": 250 }, "geometry": { "type": "Point", "coordinates": [ -0.294461, 51.051057 ] } },
{ "type": "Feature", "properties": { "Row": 251 }, "geometry": { "type": "Point", "coordinates": [ -0.294988, 51.052072 ] } },
{ "type": "Feature", "properties": { "Row": 251 }, "geometry": { "type": "Point", "coordinates": [ -0.294438, 51.051078 ] } },
{ "type": "Feature", "properties": { "Row": 252 }, "geometry": { "type": "Point", "coordinates": [ -0.294958, 51.052079 ] } },
{ "type": "Feature", "properties": { "Row": 252 }, "geometry": { "type": "Point", "coordinates": [ -0.294416, 51.051098 ] } },
{ "type": "Feature", "properties": { "Row": 253 }, "geometry": { "type": "Point", "coordinates": [ -0.294928, 51.052087 ] } },
{ "type": "Feature", "properties": { "Row": 253 }, "geometry": { "type": "Point", "coordinates": [ -0.294394, 51.051118 ] } },
{ "type": "Feature", "properties": { "Row": 254 }, "geometry": { "type": "Point", "coordinates": [ -0.2949, 51.052093 ] } },
{ "type": "Feature", "properties": { "Row": 254 }, "geometry": { "type": "Point", "coordinates": [ -0.294373, 51.051139 ] } },
{ "type": "Feature", "properties": { "Row": 255 }, "geometry": { "type": "Point", "coordinates": [ -0.294869, 51.052099 ] } },
{ "type": "Feature", "properties": { "Row": 255 }, "geometry": { "type": "Point", "coordinates": [ -0.294353, 51.051161 ] } },
{ "type": "Feature", "properties": { "Row": 256 }, "geometry": { "type": "Point", "coordinates": [ -0.294332, 51.051182 ] } },
{ "type": "Feature", "id": 491, "properties": { "Row": 262 }, "geometry": { "type": "Point", "coordinates": [ -0.294657, 51.050873 ] } },
{ "type": "Feature", "id": 492, "properties": { "Row": 242 }, "geometry": { "type": "Point", "coordinates": [ -0.295255, 51.052016 ] } },
{ "type": "Feature", "id": 493, "properties": { "Row": 242 }, "geometry": { "type": "Point", "coordinates": [ -0.294636, 51.050893 ] } },
{ "type": "Feature", "id": 494, "properties": { "Row": 243 }, "geometry": { "type": "Point", "coordinates": [ -0.295225, 51.052022 ] } },
{ "type": "Feature", "id": 520, "properties": { "Row": 256 }, "geometry": { "type": "Point", "coordinates": [ -0.29484, 51.052107 ] } }
]
}
