{
  "type": "FeatureCollection",
  "features": [
    {
      "type": "Feature",
      "geometry": {
        "type": "Polygon",
        "coordinates": [
          [
            [
              -0.5245108944590509,
              53.26805536894129
            ],
            [
              -0.5245105558385508,
              53.26805567280541
            ],
            [
              -0.5245113104255451,
              53.26805742948118
            ],
            [
              -0.5245118324119469,
              53.26806223873857
            ],
            [
              -0.5245126071269416,
              53.26806324985441
            ],
            [
              -0.5245130806143734,
              53.268062957238584
            ],
            [
              -0.5245119559131798,
              53.26806022319188
            ],
            [
              -0.5245123232941485,
              53.26805874274989
            ],
            [
              -0.5245108944590509,
              53.26805536894129
            ]
          ]
        ]
      },
      "properties": {
        "row_id": 0,
        "num_poles": 1
      }
    },
    {
      "type": "Feature",
      "geometry": {
        "type": "Polygon",
        "coordinates": [
          [
            [
              -0.5245302127526378,
              53.26801134646775
            ],
            [
              -0.5245308800704658,
              53.26801014664564
            ],
            [
              -0.5245306668218802,
              53.26800655890856
            ],
            [
              -0.52453013998104,
              53.268006267694965
            ],
            [
              -0.5245293987866568,
              53.26800694073015
            ],
            [
              -0.5245297943029849,
              53.26800760267757
            ],
            [
              -0.5245295183109449,
              53.26801046813525
            ],
            [
              -0.5245302127526378,
              53.26801134646775
            ]
          ]
        ]
      },
      "properties": {
        "row_id": 1,
        "num_poles": 2
      }
    },
    {
      "type": "Feature",
      "geometry": {
        "type": "Polygon",
        "coordinates": [
          [
            [
              -0.524293981040765,
              53.268099461787884
            ],
            [
              -0.5242943235441831,
              53.26810319008093
            ],
            [
              -0.5242956567678481,
              53.2681064010471
            ],
            [
              -0.5242954493593114,
              53.26810738367493
            ],
            [
              -0.5242958294779918,
              53.2681079320065
            ],
            [
              -0.5242963305849854,
              53.26810790713851
            ],
            [
              -0.5242955675176239,
              53.26810591030567
            ],
            [
              -0.5242959390594336,
              53.268105324672106
            ],
            [
              -0.5242949111148346,
              53.268101972512696
            ],
            [
              -0.5242953171812994,
              53.268102006379806
            ],
            [
              -0.524293981040765,
              53.268099461787884
            ]
          ]
        ]
      },
      "properties": {
        "row_id": 2,
        "num_poles": 2
      }
    },
    {
      "type": "Feature",
      "geometry": {
        "type": "Polygon",
        "coordinates": [
          [
            [
              -0.5245183376188598,
              53.268124390623896
            ],
            [
              -0.5245189992472717,
              53.26812386128279
            ],
            [
              -0.524518486710929,
              53.26812208430526
            ],
            [
              -0.5245179413168705,
              53.2681219226344
            ],
            [
              -0.524518456773206,
              53.26812169818787
            ],
            [
              -0.5245183392672487,
              53.26812093788838
            ],
            [
              -0.5245173582769533,
              53.26811968947718
            ],
            [
              -0.5245174210723923,
              53.26811846028792
            ],
            [
              -0.5245167742637054,
              53.26811812346132
            ],
            [
              -0.524516455200095,
              53.26811846416182
            ],
            [
              -0.5245175198653009,
              53.26812275532052
            ],
            [
              -0.5245183376188598,
              53.268124390623896
            ]
          ]
        ]
      },
      "properties": {
        "row_id": 3,
        "num_poles": 2
      }
    },
    {
      "type": "Feature",
      "geometry": {
        "type": "Polygon",
        "coordinates": [
          [
            [
              -0.5244565891952426,
              53.26802424627279
            ],
            [
              -0.5244573113957457,
              53.268023651397826
            ],
            [
              -0.524455725350214,
              53.26801998101288
            ],
            [
              -0.5244556541926623,
              53.26802301816887
            ],
            [
              -0.5244565891952426,
              53.26802424627279
            ]
          ]
        ]
      },
      "properties": {
        "row_id": 4,
        "num_poles": 2
      }
    },
    {
      "type": "Feature",
      "geometry": {
        "type": "Polygon",
        "coordinates": [
          [
            [
              -0.5243097987730153,
              53.268184311104754
            ],
            [
              -0.5243088285284946,
              53.26817907489801
            ],
            [
              -0.5243076811685049,
              53.26817727481799
            ],
            [
              -0.5243071458297142,
              53.2681775786076
            ],
            [
              -0.5243071407801547,
              53.26817847855235
            ],
            [
              -0.5243083241327645,
              53.26818011501183
            ],
            [
              -0.5243079475607407,
              53.2681806993301
            ],
            [
              -0.5243083592739448,
              53.268182335662566
            ],
            [
              -0.5243097987730153,
              53.268184311104754
            ]
          ]
        ]
      },
      "properties": {
        "row_id": 5,
        "num_poles": 2
      }
    },
    {
      "type": "Feature",
      "geometry": {
        "type": "Polygon",
        "coordinates": [
          [
            [
              -0.5245550175806393,
              53.26808308745745
            ],
            [
              -0.524555365786562,
              53.26808728208977
            ],
            [
              -0.5245569652990801,
              53.26809099155227
            ],
            [
              -0.524556201550431,
              53.26808899002663
            ],
            [
              -0.5245565048760575,
              53.26808753511138
            ],
            [
              -0.5245550175806393,
              53.26808308745745
            ]
          ]
        ]
      },
      "properties": {
        "row_id": 6,
        "num_poles": 2
      }
    },
    {
      "type": "Feature",
      "geometry": {
        "type": "Polygon",
        "coordinates": [
          [
            [
              -0.5245438613690286,
              53.26803577866555
            ],
            [
              -0.5245441431520912,
              53.26803986980899
            ],
            [
              -0.5245451990416471,
              53.268041210574715
            ],
            [
              -0.5245443347175895,
              53.26803590747122
            ],
            [
              -0.5245438613690286,
              53.26803577866555
            ]
          ]
        ]
      },
      "properties": {
        "row_id": 7,
        "num_poles": 0
      }
    }
  ]
}