{
  "type": "FeatureCollection",
  "features": [
    {
      "type": "Feature",
      "geometry": {
        "type": "LineString",
        "coordinates": [
          [
            -0.524566645519956,
            53.26800880523895
          ],
          [
            -0.5242655410424549,
            53.26818660612399
          ]
        ]
      },
      "properties": {
        "row_id": 0,
        "num_poles": 2
      }
    },
    {
      "type": "Feature",
      "geometry": {
        "type": "LineString",
        "coordinates": [
          [
            -0.5245271814965429,
            53.268013458613254
          ],
          [
            -0.5242340015802417,
            53.268034647374286
          ],
          [
            -0.5243920679512772,
            53.268078146292694
          ],
          [
            -0.5244840015508512,
            53.268117281788214
          ],
          [
            -0.524291792763067,
            53.26813305751062
          ]
        ]
      },
      "properties": {
        "row_id": 3,
        "num_poles": 5
      }
    },
    {
      "type": "Feature",
      "geometry": {
        "type": "LineString",
        "coordinates": [
          [
            -0.5242801830241565,
            53.26803779654512
          ],
          [
            -0.5242540692623658,
            53.26805391075813
          ]
        ]
      },
      "properties": {
        "row_id": 11,
        "num_poles": 2
      }
    },
    {
      "type": "Feature",
      "geometry": {
        "type": "LineString",
        "coordinates": [
          [
            -0.5245112486546225,
            53.268070921236784
          ],
          [
            -0.52443747103151,
            53.268077132076364
          ]
        ]
      },
      "properties": {
        "row_id": 13,
        "num_poles": 2
      }
    },
    {
      "type": "Feature",
      "geometry": {
        "type": "LineString",
        "coordinates": [
          [
            -0.5243997134568529,
            53.26813415687491
          ],
          [
            -0.5244159629835512,
            53.26817957091682
          ]
        ]
      },
      "properties": {
        "row_id": 16,
        "num_poles": 2
      }
    },
    {
      "type": "Feature",
      "geometry": {
        "type": "LineString",
        "coordinates": [
          [
            -0.524495749579186,
            53.26801564207399
          ],
          [
            -0.5244622542462506,
            53.268017466604604
          ]
        ]
      },
      "properties": {
        "row_id": 19,
        "num_poles": 2
      }
    },
    {
      "type": "Feature",
      "geometry": {
        "type": "LineString",
        "coordinates": [
          [
            -0.5243563317983531,
            53.26808065815543
          ],
          [
            -0.5244154680479146,
            53.26808532376922
          ],
          [
            -0.5244285387189968,
            53.26813437610873
          ],
          [
            -0.5245592625465616,
            53.26817586745158
          ],
          [
            -0.5244766474572691,
            53.268185556720184
          ],
          [
            -0.5244264842816911,
            53.268193630267305
          ]
        ]
      },
      "properties": {
        "row_id": 21,
        "num_poles": 6
      }
    },
    {
      "type": "Feature",
      "geometry": {
        "type": "LineString",
        "coordinates": [
          [
            -0.5243505937803786,
            53.26814258280621
          ],
          [
            -0.5243769701528054,
            53.268182300633406
          ]
        ]
      },
      "properties": {
        "row_id": 23,
        "num_poles": 2
      }
    },
    {
      "type": "Feature",
      "geometry": {
        "type": "LineString",
        "coordinates": [
          [
            -0.5243460503148275,
            53.26803210393425
          ],
          [
            -0.5243150437317601,
            53.268034352824955
          ],
          [
            -0.5248802992377047,
            53.26811723608053
          ]
        ]
      },
      "properties": {
        "row_id": 24,
        "num_poles": 3
      }
    },
    {
      "type": "Feature",
      "geometry": {
        "type": "LineString",
        "coordinates": [
          [
            -0.524028518438618,
            53.26804629038357
          ],
          [
            -0.5240468377354041,
            53.268062396322115
          ],
          [
            -0.524366147278833,
            53.26812914242507
          ]
        ]
      },
      "properties": {
        "row_id": 25,
        "num_poles": 3
      }
    },
    {
      "type": "Feature",
      "geometry": {
        "type": "LineString",
        "coordinates": [
          [
            -0.524329685545959,
            53.26813255153584
          ],
          [
            -0.5246087329452325,
            53.26815835920069
          ],
          [
            -0.5245876319582224,
            53.26816736599835
          ],
          [
            -0.5242944074864843,
            53.26819573757131
          ]
        ]
      },
      "properties": {
        "row_id": 29,
        "num_poles": 4
      }
    },
    {
      "type": "Feature",
      "geometry": {
        "type": "LineString",
        "coordinates": [
          [
            -0.5242555051029075,
            53.26814248165241
          ],
          [
            -0.524312982633309,
            53.26814686312947
          ],
          [
            -0.5243180229085415,
            53.26827705888277
          ]
        ]
      },
      "properties": {
        "row_id": 32,
        "num_poles": 3
      }
    },
    {
      "type": "Feature",
      "geometry": {
        "type": "LineString",
        "coordinates": [
          [
            -0.5243366515945151,
            53.26809338832258
          ],
          [
            -0.5242638741878426,
            53.268101095303436
          ],
          [
            -0.5244501859420915,
            53.268181447067036
          ],
          [
            -0.5243447755327503,
            53.26818346038641
          ]
        ]
      },
      "properties": {
        "row_id": 34,
        "num_poles": 4
      }
    },
    {
      "type": "Feature",
      "geometry": {
        "type": "LineString",
        "coordinates": [
          [
            -0.5244193441476077,
            53.26802462612838
          ],
          [
            -0.5242890701848567,
            53.26808912749903
          ]
        ]
      },
      "properties": {
        "row_id": 38,
        "num_poles": 2
      }
    },
    {
      "type": "Feature",
      "geometry": {
        "type": "LineString",
        "coordinates": [
          [
            -0.524271850893333,
            53.26806938651989
          ],
          [
            -0.5245944003773996,
            53.26810804220858
          ]
        ]
      },
      "properties": {
        "row_id": 40,
        "num_poles": 2
      }
    },
    {
      "type": "Feature",
      "geometry": {
        "type": "LineString",
        "coordinates": [
          [
            -0.5244430519460322,
            53.26811766341708
          ],
          [
            -0.5243161498016482,
            53.26829288707343
          ]
        ]
      },
      "properties": {
        "row_id": 42,
        "num_poles": 2
      }
    },
    {
      "type": "Feature",
      "geometry": {
        "type": "LineString",
        "coordinates": [
          [
            -0.5243839412775034,
            53.26802744942463
          ],
          [
            -0.524503714886608,
            53.268168470445715
          ]
        ]
      },
      "properties": {
        "row_id": 45,
        "num_poles": 2
      }
    }
  ]
}