{
  "features": [
    {
      "geometry": {
        "coordinates": [
          [
            -0.5244962080087399,
            53.268014743885736
          ],
          [
            -0.5245085568370679,
            53.2680654695642
          ],
          [
            -0.5245228026513287,
            53.2681126292426
          ],
          [
            -0.5245385752402829,
            53.26817040766854
          ]
        ],
        "type": "LineString"
      },
      "properties": {
        "direction_source": "vine_rows",
        "row_id": 0
      },
      "type": "Feature"
    },
    {
      "geometry": {
        "coordinates": [
          [
            -0.5245336910506124,
            53.268011590749545
          ],
          [
            -0.5245441237451042,
            53.26805363724689
          ],
          [
            -0.5245597767341612,
            53.268112706699846
          ],
          [
            -0.5245744008625713,
            53.268166983048
          ]
        ],
        "type": "LineString"
      },
      "properties": {
        "direction_source": "vine_rows",
        "row_id": 1
      },
      "type": "Feature"
    },
    {
      "geometry": {
        "coordinates": [
          [
            -0.5245702254205021,
            53.268009944683925
          ],
          [
            -0.5245879284305587,
            53.26805490116146
          ],
          [
            -0.5245976934845831,
            53.268107363056394
          ],
          [
            -0.524614155152288,
            53.268163839044384
          ]
        ],
        "type": "LineString"
      },
      "properties": {
        "direction_source": "vine_rows",
        "row_id": 2
      },
      "type": "Feature"
    },
    {
      "geometry": {
        "coordinates": [
          [
            -0.524459848131656,
            53.2680188342855
          ],
          [
            -0.5244727171024752,
            53.26806812859269
          ],
          [
            -0.5244861820867744,
            53.268119976201525
          ],
          [
            -0.5245030107481454,
            53.26817400215558
          ]
        ],
        "type": "LineString"
      },
      "properties": {
        "direction_source": "vine_rows",
        "row_id": 3
      },
      "type": "Feature"
    },
    {
      "geometry": {
        "coordinates": [
          [
            -0.5244247333693689,
            53.2680202806516
          ],
          [
            -0.5244363983980515,
            53.268072607751996
          ],
          [
            -0.524449166377391,
            53.2681229905427
          ],
          [
            -0.5244649017703584,
            53.26817510844626
          ]
        ],
        "type": "LineString"
      },
      "properties": {
        "direction_source": "vine_rows",
        "row_id": 4
      },
      "type": "Feature"
    },
    {
      "geometry": {
        "coordinates": [
          [
            -0.5243852131610621,
            53.26802554079218
          ],
          [
            -0.5243984945375317,
            53.26807527961611
          ],
          [
            -0.5244122303888897,
            53.268126658473456
          ],
          [
            -0.5244271490222341,
            53.26817856109416
          ]
        ],
        "type": "LineString"
      },
      "properties": {
        "direction_source": "vine_rows",
        "row_id": 5
      },
      "type": "Feature"
    },
    {
      "geometry": {
        "coordinates": [
          [
            -0.5243497344617075,
            53.268027870282516
          ],
          [
            -0.524361287624535,
            53.26807993161184
          ],
          [
            -0.5243742787812254,
            53.268129976537566
          ],
          [
            -0.5243899366132507,
            53.26818117379944
          ]
        ],
        "type": "LineString"
      },
      "properties": {
        "direction_source": "vine_rows",
        "row_id": 6
      },
      "type": "Feature"
    },
    {
      "geometry": {
        "coordinates": [
          [
            -0.5243123502533694,
            53.26803016374348
          ],
          [
            -0.5243253640222091,
            53.26808171353231
          ],
          [
            -0.5243385506793335,
            53.26813156078701
          ],
          [
            -0.5243524951717455,
            53.2681853643456
          ]
        ],
        "type": "LineString"
      },
      "properties": {
        "direction_source": "vine_rows",
        "row_id": 7
      },
      "type": "Feature"
    },
    {
      "geometry": {
        "coordinates": [
          [
            -0.5242743438191217,
            53.268033939391934
          ],
          [
            -0.5242889397152634,
            53.268085048824986
          ],
          [
            -0.5243017645635037,
            53.26813554575399
          ],
          [
            -0.5243146539937389,
            53.26818758731157
          ]
        ],
        "type": "LineString"
      },
      "properties": {
        "direction_source": "vine_rows",
        "row_id": 8
      },
      "type": "Feature"
    },
    {
      "geometry": {
        "coordinates": [
          [
            -0.5242379859251752,
            53.26803748698835
          ],
          [
            -0.5242529786084692,
            53.26808845853661
          ],
          [
            -0.524263227426364,
            53.26813867453907
          ],
          [
            -0.5242761353920226,
            53.268191732000595
          ]
        ],
        "type": "LineString"
      },
      "properties": {
        "direction_source": "vine_rows",
        "row_id": 9
      },
      "type": "Feature"
    }
  ],
  "type": "FeatureCollection"
}