{"type":"FeatureCollection","features":[{"type":"Feature","geometry":{"type":"Point","coordinates":[-0.299322,51.052163,0]},"properties":{"styleUrl":"#coolhurst_end_posts_labelled_style","Row":1}},{"type":"Feature","geometry":{"type":"Point","coordinates":[-0.299259,51.05204799999999,0]},"properties":{"styleUrl":"#coolhurst_end_posts_labelled_style","Row":1}},{"type":"Feature","geometry":{"type":"Point","coordinates":[-0.299294,51.052172,0]},"properties":{"styleUrl":"#coolhurst_end_posts_labelled_style","Row":2}},{"type":"Feature","geometry":{"type":"Point","coordinates":[-0.299211,51.052021,0]},"properties":{"styleUrl":"#coolhurst_end_posts_labelled_style","Row":2}},{"type":"Feature","geometry":{"type":"Point","coordinates":[-0.299266,51.05218000000001,0]},"properties":{"styleUrl":"#coolhurst_end_posts_labelled_style","Row":3}},{"type":"Feature","geometry":{"type":"Point","coordinates":[-0.299161,51.051993,0]},"properties":{"styleUrl":"#coolhurst_end_posts_labelled_style","Row":3}},{"type":"Feature","geometry":{"type":"Point","coordinates":[-0.299234,51.052186,0]},"properties":{"styleUrl":"#coolhurst_end_posts_labelled_style","Row":4}},{"type":"Feature","geometry":{"type":"Point","coordinates":[-0.299114,51.051965,0]},"properties":{"styleUrl":"#coolhurst_end_posts_labelled_style","Row":4}},{"type":"Feature","geometry":{"type":"Point","coordinates":[-0.299205,51.05219099999999,0]},"properties":{"styleUrl":"#coolhurst_end_posts_labelled_style","Row":5}},{"type":"Feature","geometry":{"type":"Point","coordinates":[-0.299065,51.05193799999999,0]},"properties":{"styleUrl":"#coolhurst_end_posts_labelled_style","Row":5}},{"type":"Feature","geometry":{"type":"Point","coordinates":[-0.299177,51.052197,0]},"properties":{"styleUrl":"#coolhurst_end_posts_labelled_style","Row":6}},{"type":"Feature","geometry":{"type":"Point","coordinates":[-0.299016,51.05191,0]},"properties":{"styleUrl":"#coolhurst_end_posts_labelled_style","Row":6}},{"type":"Feature","geometry":{"type":"Point","coordinates":[-0.299147,51.05220500000001,0]},"properties":{"styleUrl":"#coolhurst_end_posts_labelled_style","Row":7}},{"type":"Feature","geometry":{"type":"Point","coordinates":[-0.298969,51.051883,0]},"properties":{"styleUrl":"#coolhurst_end_posts_labelled_style","Row":7}},{"type":"Feature","geometry":{"type":"Point","coordinates":[-0.299117,51.05221,0]},"properties":{"styleUrl":"#coolhurst_end_posts_labelled_style","Row":8}},{"type":"Feature","geometry":{"type":"Point","coordinates":[-0.298922,51.051857,0]},"properties":{"styleUrl":"#coolhurst_end_posts_labelled_style","Row":8}},{"type":"Feature","geometry":{"type":"Point","coordinates":[-0.299087,51.05221600000001,0]},"properties":{"styleUrl":"#coolhurst_end_posts_labelled_style","Row":9}},{"type":"Feature","geometry":{"type":"Point","coordinates":[-0.298875,51.05183,0]},"properties":{"styleUrl":"#coolhurst_end_posts_labelled_style","Row":9}},{"type":"Feature","geometry":{"type":"Point","coordinates":[-0.299057,51.052223,0]},"properties":{"styleUrl":"#coolhurst_end_posts_labelled_style","Row":10}},{"type":"Feature","geometry":{"type":"Point","coordinates":[-0.298825,51.0518,0]},"properties":{"styleUrl":"#coolhurst_end_posts_labelled_style","Row":10}},{"type":"Feature","geometry":{"type":"Point","coordinates":[-0.299026,51.05222899999999,0]},"properties":{"styleUrl":"#coolhurst_end_posts_labelled_style","Row":11}},{"type":"Feature","geometry":{"type":"Point","coordinates":[-0.29878,51.051775,0]},"properties":{"styleUrl":"#coolhurst_end_posts_labelled_style","Row":11}},{"type":"Feature","geometry":{"type":"Point","coordinates":[-0.298998,51.052236,0]},"properties":{"styleUrl":"#coolhurst_end_posts_labelled_style","Row":12}},{"type":"Feature","geometry":{"type":"Point","coordinates":[-0.298729,51.05174599999999,0]},"properties":{"styleUrl":"#coolhurst_end_posts_labelled_style","Row":12}},{"type":"Feature","geometry":{"type":"Point","coordinates":[-0.298968,51.052242,0]},"properties":{"styleUrl":"#coolhurst_end_posts_labelled_style","Row":13}},{"type":"Feature","geometry":{"type":"Point","coordinates":[-0.29868,51.051718,0]},"properties":{"styleUrl":"#coolhurst_end_posts_labelled_style","Row":13}},{"type":"Feature","geometry":{"type":"Point","coordinates":[-0.298939,51.052248,0]},"properties":{"styleUrl":"#coolhurst_end_posts_labelled_style","Row":14}},{"type":"Feature","geometry":{"type":"Point","coordinates":[-0.298632,51.05169,0]},"properties":{"styleUrl":"#coolhurst_end_posts_labelled_style","Row":14}},{"type":"Feature","geometry":{"type":"Point","coordinates":[-0.298908,51.052255,0]},"properties":{"styleUrl":"#coolhurst_end_posts_labelled_style","Row":15}},{"type":"Feature","geometry":{"type":"Point","coordinates":[-0.298582,51.05166,0]},"properties":{"styleUrl":"#coolhurst_end_posts_labelled_style","Row":15}},{"type":"Feature","geometry":{"type":"Point","coordinates":[-0.298879,51.05226199999999,0]},"properties":{"styleUrl":"#coolhurst_end_posts_labelled_style","Row":16}},{"type":"Feature","geometry":{"type":"Point","coordinates":[-0.2984,51.051392,0]},"properties":{"styleUrl":"#coolhurst_end_posts_labelled_style","Row":16}},{"type":"Feature","geometry":{"type":"Point","coordinates":[-0.29885,51.05226800000001,0]},"properties":{"styleUrl":"#coolhurst_end_posts_labelled_style","Row":17}},{"type":"Feature","geometry":{"type":"Point","coordinates":[-0.298371,51.05139699999999,0]},"properties":{"styleUrl":"#coolhurst_end_posts_labelled_style","Row":17}},{"type":"Feature","geometry":{"type":"Point","coordinates":[-0.298819,51.052275,0]},"properties":{"styleUrl":"#coolhurst_end_posts_labelled_style","Row":18}},{"type":"Feature","geometry":{"type":"Point","coordinates":[-0.298341,51.051404,0]},"properties":{"styleUrl":"#coolhurst_end_posts_labelled_style","Row":18}},{"type":"Feature","geometry":{"type":"Point","coordinates":[-0.298789,51.05228,0]},"properties":{"styleUrl":"#coolhurst_end_posts_labelled_style","Row":19}},{"type":"Feature","geometry":{"type":"Point","coordinates":[-0.298311,51.05141,0]},"properties":{"styleUrl":"#coolhurst_end_posts_labelled_style","Row":19}},{"type":"Feature","geometry":{"type":"Point","coordinates":[-0.29876,51.05228699999999,0]},"properties":{"styleUrl":"#coolhurst_end_posts_labelled_style","Row":20}},{"type":"Feature","geometry":{"type":"Point","coordinates":[-0.298281,51.051417,0]},"properties":{"styleUrl":"#coolhurst_end_posts_labelled_style","Row":20}},{"type":"Feature","geometry":{"type":"Point","coordinates":[-0.298729,51.052292,0]},"properties":{"styleUrl":"#coolhurst_end_posts_labelled_style","Row":21}},{"type":"Feature","geometry":{"type":"Point","coordinates":[-0.298251,51.051423,0]},"properties":{"styleUrl":"#coolhurst_end_posts_labelled_style","Row":21}},{"type":"Feature","geometry":{"type":"Point","coordinates":[-0.298699,51.0523,0]},"properties":{"styleUrl":"#coolhurst_end_posts_labelled_style","Row":22}},{"type":"Feature","geometry":{"type":"Point","coordinates":[-0.298222,51.051429,0]},"properties":{"styleUrl":"#coolhurst_end_posts_labelled_style","Row":22}},{"type":"Feature","geometry":{"type":"Point","coordinates":[-0.298672,51.052307,0]},"properties":{"styleUrl":"#coolhurst_end_posts_labelled_style","Row":23}},{"type":"Feature","geometry":{"type":"Point","coordinates":[-0.298191,51.05143499999999,0]},"properties":{"styleUrl":"#coolhurst_end_posts_labelled_style","Row":23}},{"type":"Feature","geometry":{"type":"Point","coordinates":[-0.298639,51.052313,0]},"properties":{"styleUrl":"#coolhurst_end_posts_labelled_style","Row":24}},{"type":"Feature","geometry":{"type":"Point","coordinates":[-0.298164,51.051442,0]},"properties":{"styleUrl":"#coolhurst_end_posts_labelled_style","Row":24}},{"type":"Feature","geometry":{"type":"Point","coordinates":[-0.298611,51.05231999999999,0]},"properties":{"styleUrl":"#coolhurst_end_posts_labelled_style","Row":25}},{"type":"Feature","geometry":{"type":"Point","coordinates":[-0.298134,51.051448,0]},"properties":{"styleUrl":"#coolhurst_end_posts_labelled_style","Row":25}},{"type":"Feature","geometry":{"type":"Point","coordinates":[-0.298582,51.052327,0]},"properties":{"styleUrl":"#coolhurst_end_posts_labelled_style","Row":26}},{"type":"Feature","geometry":{"type":"Point","coordinates":[-0.298102,51.051454,0]},"properties":{"styleUrl":"#coolhurst_end_posts_labelled_style","Row":26}},{"type":"Feature","geometry":{"type":"Point","coordinates":[-0.298553,51.05233,0]},"properties":{"styleUrl":"#coolhurst_end_posts_labelled_style","Row":27}},{"type":"Feature","geometry":{"type":"Point","coordinates":[-0.298074,51.051462,0]},"properties":{"styleUrl":"#coolhurst_end_posts_labelled_style","Row":27}},{"type":"Feature","geometry":{"type":"Point","coordinates":[-0.298523,51.052338,0]},"properties":{"styleUrl":"#coolhurst_end_posts_labelled_style","Row":28}},{"type":"Feature","geometry":{"type":"Point","coordinates":[-0.298044,51.051467,0]},"properties":{"styleUrl":"#coolhurst_end_posts_labelled_style","Row":28}},{"type":"Feature","geometry":{"type":"Point","coordinates":[-0.298491,51.052345,0]},"properties":{"styleUrl":"#coolhurst_end_posts_labelled_style","Row":29}},{"type":"Feature","geometry":{"type":"Point","coordinates":[-0.298013,51.051475,0]},"properties":{"styleUrl":"#coolhurst_end_posts_labelled_style","Row":29}},{"type":"Feature","geometry":{"type":"Point","coordinates":[-0.298463,51.052351,0]},"properties":{"styleUrl":"#coolhurst_end_posts_labelled_style","Row":30}},{"type":"Feature","geometry":{"type":"Point","coordinates":[-0.297985,51.05148199999999,0]},"properties":{"styleUrl":"#coolhurst_end_posts_labelled_style","Row":30}},{"type":"Feature","geometry":{"type":"Point","coordinates":[-0.298431,51.052356,0]},"properties":{"styleUrl":"#coolhurst_end_posts_labelled_style","Row":31}},{"type":"Feature","geometry":{"type":"Point","coordinates":[-0.297953,51.05148800000001,0]},"properties":{"styleUrl":"#coolhurst_end_posts_labelled_style","Row":31}},{"type":"Feature","geometry":{"type":"Point","coordinates":[-0.298403,51.052364,0]},"properties":{"styleUrl":"#coolhurst_end_posts_labelled_style","Row":32}},{"type":"Feature","geometry":{"type":"Point","coordinates":[-0.297924,51.051495,0]},"properties":{"styleUrl":"#coolhurst_end_posts_labelled_style","Row":32}},{"type":"Feature","geometry":{"type":"Point","coordinates":[-0.298374,51.05237000000001,0]},"properties":{"styleUrl":"#coolhurst_end_posts_labelled_style","Row":33}},{"type":"Feature","geometry":{"type":"Point","coordinates":[-0.297893,51.051501,0]},"properties":{"styleUrl":"#coolhurst_end_posts_labelled_style","Row":33}},{"type":"Feature","geometry":{"type":"Point","coordinates":[-0.298344,51.052377,0]},"properties":{"styleUrl":"#coolhurst_end_posts_labelled_style","Row":34}},{"type":"Feature","geometry":{"type":"Point","coordinates":[-0.297864,51.05150699999999,0]},"properties":{"styleUrl":"#coolhurst_end_posts_labelled_style","Row":34}},{"type":"Feature","geometry":{"type":"Point","coordinates":[-0.298314,51.05238299999999,0]},"properties":{"styleUrl":"#coolhurst_end_posts_labelled_style","Row":35}},{"type":"Feature","geometry":{"type":"Point","coordinates":[-0.297836,51.051514,0]},"properties":{"styleUrl":"#coolhurst_end_posts_labelled_style","Row":35}},{"type":"Feature","geometry":{"type":"Point","coordinates":[-0.298282,51.052389,0]},"properties":{"styleUrl":"#coolhurst_end_posts_labelled_style","Row":36}},{"type":"Feature","geometry":{"type":"Point","coordinates":[-0.297805,51.05151999999999,0]},"properties":{"styleUrl":"#coolhurst_end_posts_labelled_style","Row":36}},{"type":"Feature","geometry":{"type":"Point","coordinates":[-0.298255,51.05239700000001,0]},"properties":{"styleUrl":"#coolhurst_end_posts_labelled_style","Row":37}},{"type":"Feature","geometry":{"type":"Point","coordinates":[-0.297776,51.051527,0]},"properties":{"styleUrl":"#coolhurst_end_posts_labelled_style","Row":37}},{"type":"Feature","geometry":{"type":"Point","coordinates":[-0.298225,51.052404,0]},"properties":{"styleUrl":"#coolhurst_end_posts_labelled_style","Row":38}},{"type":"Feature","geometry":{"type":"Point","coordinates":[-0.297746,51.051533,0]},"properties":{"styleUrl":"#coolhurst_end_posts_labelled_style","Row":38}},{"type":"Feature","geometry":{"type":"Point","coordinates":[-0.298196,51.052409,0]},"properties":{"styleUrl":"#coolhurst_end_posts_labelled_style","Row":39}},{"type":"Feature","geometry":{"type":"Point","coordinates":[-0.297718,51.05154,0]},"properties":{"styleUrl":"#coolhurst_end_posts_labelled_style","Row":39}},{"type":"Feature","geometry":{"type":"Point","coordinates":[-0.298167,51.052415,0]},"properties":{"styleUrl":"#coolhurst_end_posts_labelled_style","Row":40}},{"type":"Feature","geometry":{"type":"Point","coordinates":[-0.297688,51.051546,0]},"properties":{"styleUrl":"#coolhurst_end_posts_labelled_style","Row":40}},{"type":"Feature","geometry":{"type":"Point","coordinates":[-0.298137,51.052423,0]},"properties":{"styleUrl":"#coolhurst_end_posts_labelled_style","Row":41}},{"type":"Feature","geometry":{"type":"Point","coordinates":[-0.297658,51.051553,0]},"properties":{"styleUrl":"#coolhurst_end_posts_labelled_style","Row":41}},{"type":"Feature","geometry":{"type":"Point","coordinates":[-0.298107,51.05242999999999,0]},"properties":{"styleUrl":"#coolhurst_end_posts_labelled_style","Row":42}},{"type":"Feature","geometry":{"type":"Point","coordinates":[-0.297628,51.051559,0]},"properties":{"styleUrl":"#coolhurst_end_posts_labelled_style","Row":42}},{"type":"Feature","geometry":{"type":"Point","coordinates":[-0.298078,51.052435,0]},"properties":{"styleUrl":"#coolhurst_end_posts_labelled_style","Row":43}},{"type":"Feature","geometry":{"type":"Point","coordinates":[-0.297599,51.051565,0]},"properties":{"styleUrl":"#coolhurst_end_posts_labelled_style","Row":43}},{"type":"Feature","geometry":{"type":"Point","coordinates":[-0.298046,51.05244099999999,0]},"properties":{"styleUrl":"#coolhurst_end_posts_labelled_style","Row":44}},{"type":"Feature","geometry":{"type":"Point","coordinates":[-0.297568,51.051572,0]},"properties":{"styleUrl":"#coolhurst_end_posts_labelled_style","Row":44}},{"type":"Feature","geometry":{"type":"Point","coordinates":[-0.298016,51.052448,0]},"properties":{"styleUrl":"#coolhurst_end_posts_labelled_style","Row":45}},{"type":"Feature","geometry":{"type":"Point","coordinates":[-0.297538,51.051579,0]},"properties":{"styleUrl":"#coolhurst_end_posts_labelled_style","Row":45}},{"type":"Feature","geometry":{"type":"Point","coordinates":[-0.297989,51.052456,0]},"properties":{"styleUrl":"#coolhurst_end_posts_labelled_style","Row":46}},{"type":"Feature","geometry":{"type":"Point","coordinates":[-0.297509,51.051585,0]},"properties":{"styleUrl":"#coolhurst_end_posts_labelled_style","Row":46}},{"type":"Feature","geometry":{"type":"Point","coordinates":[-0.297959,51.05246,0]},"properties":{"styleUrl":"#coolhurst_end_posts_labelled_style","Row":47}},{"type":"Feature","geometry":{"type":"Point","coordinates":[-0.297479,51.05159199999999,0]},"properties":{"styleUrl":"#coolhurst_end_posts_labelled_style","Row":47}},{"type":"Feature","geometry":{"type":"Point","coordinates":[-0.297929,51.05246799999999,0]},"properties":{"styleUrl":"#coolhurst_end_posts_labelled_style","Row":48}},{"type":"Feature","geometry":{"type":"Point","coordinates":[-0.29745,51.051598,0]},"properties":{"styleUrl":"#coolhurst_end_posts_labelled_style","Row":48}},{"type":"Feature","geometry":{"type":"Point","coordinates":[-0.2979,51.052475,0]},"properties":{"styleUrl":"#coolhurst_end_posts_labelled_style","Row":49}},{"type":"Feature","geometry":{"type":"Point","coordinates":[-0.297421,51.051605,0]},"properties":{"styleUrl":"#coolhurst_end_posts_labelled_style","Row":49}},{"type":"Feature","geometry":{"type":"Point","coordinates":[-0.297867,51.052481,0]},"properties":{"styleUrl":"#coolhurst_end_posts_labelled_style","Row":50}},{"type":"Feature","geometry":{"type":"Point","coordinates":[-0.297391,51.051611,0]},"properties":{"styleUrl":"#coolhurst_end_posts_labelled_style","Row":50}},{"type":"Feature","geometry":{"type":"Point","coordinates":[-0.29784,51.052487,0]},"properties":{"styleUrl":"#coolhurst_end_posts_labelled_style","Row":51}},{"type":"Feature","geometry":{"type":"Point","coordinates":[-0.297362,51.051618,0]},"properties":{"styleUrl":"#coolhurst_end_posts_labelled_style","Row":51}},{"type":"Feature","geometry":{"type":"Point","coordinates":[-0.297812,51.052494,0]},"properties":{"styleUrl":"#coolhurst_end_posts_labelled_style","Row":52}},{"type":"Feature","geometry":{"type":"Point","coordinates":[-0.297333,51.051623,0]},"properties":{"styleUrl":"#coolhurst_end_posts_labelled_style","Row":52}},{"type":"Feature","geometry":{"type":"Point","coordinates":[-0.297781,51.05250099999999,0]},"properties":{"styleUrl":"#coolhurst_end_posts_labelled_style","Row":53}},{"type":"Feature","geometry":{"type":"Point","coordinates":[-0.297301,51.05163,0]},"properties":{"styleUrl":"#coolhurst_end_posts_labelled_style","Row":53}},{"type":"Feature","geometry":{"type":"Point","coordinates":[-0.297753,51.052508,0]},"properties":{"styleUrl":"#coolhurst_end_posts_labelled_style","Row":54}},{"type":"Feature","geometry":{"type":"Point","coordinates":[-0.297272,51.051637,0]},"properties":{"styleUrl":"#coolhurst_end_posts_labelled_style","Row":54}},{"type":"Feature","geometry":{"type":"Point","coordinates":[-0.297723,51.052514,0]},"properties":{"styleUrl":"#coolhurst_end_posts_labelled_style","Row":55}},{"type":"Feature","geometry":{"type":"Point","coordinates":[-0.297244,51.051643,0]},"properties":{"styleUrl":"#coolhurst_end_posts_labelled_style","Row":55}},{"type":"Feature","geometry":{"type":"Point","coordinates":[-0.297694,51.05252,0]},"properties":{"styleUrl":"#coolhurst_end_posts_labelled_style","Row":56}},{"type":"Feature","geometry":{"type":"Point","coordinates":[-0.297212,51.05165,0]},"properties":{"styleUrl":"#coolhurst_end_posts_labelled_style","Row":56}},{"type":"Feature","geometry":{"type":"Point","coordinates":[-0.297662,51.052527,0]},"properties":{"styleUrl":"#coolhurst_end_posts_labelled_style","Row":57}},{"type":"Feature","geometry":{"type":"Point","coordinates":[-0.297183,51.051657,0]},"properties":{"styleUrl":"#coolhurst_end_posts_labelled_style","Row":57}},{"type":"Feature","geometry":{"type":"Point","coordinates":[-0.29763,51.052533,0]},"properties":{"styleUrl":"#coolhurst_end_posts_labelled_style","Row":58}},{"type":"Feature","geometry":{"type":"Point","coordinates":[-0.297154,51.05166299999999,0]},"properties":{"styleUrl":"#coolhurst_end_posts_labelled_style","Row":58}},{"type":"Feature","geometry":{"type":"Point","coordinates":[-0.297602,51.05254000000001,0]},"properties":{"styleUrl":"#coolhurst_end_posts_labelled_style","Row":59}},{"type":"Feature","geometry":{"type":"Point","coordinates":[-0.297123,51.051669,0]},"properties":{"styleUrl":"#coolhurst_end_posts_labelled_style","Row":59}},{"type":"Feature","geometry":{"type":"Point","coordinates":[-0.297574,51.052546,0]},"properties":{"styleUrl":"#coolhurst_end_posts_labelled_style","Row":60}},{"type":"Feature","geometry":{"type":"Point","coordinates":[-0.297094,51.051676,0]},"properties":{"styleUrl":"#coolhurst_end_posts_labelled_style","Row":60}},{"type":"Feature","geometry":{"type":"Point","coordinates":[-0.297545,51.05255100000001,0]},"properties":{"styleUrl":"#coolhurst_end_posts_labelled_style","Row":61}},{"type":"Feature","geometry":{"type":"Point","coordinates":[-0.297066,51.051683,0]},"properties":{"styleUrl":"#coolhurst_end_posts_labelled_style","Row":61}},{"type":"Feature","geometry":{"type":"Point","coordinates":[-0.297514,51.052558,0]},"properties":{"styleUrl":"#coolhurst_end_posts_labelled_style","Row":62}},{"type":"Feature","geometry":{"type":"Point","coordinates":[-0.297036,51.05168900000001,0]},"properties":{"styleUrl":"#coolhurst_end_posts_labelled_style","Row":62}},{"type":"Feature","geometry":{"type":"Point","coordinates":[-0.297483,51.05256399999999,0]},"properties":{"styleUrl":"#coolhurst_end_posts_labelled_style","Row":63}},{"type":"Feature","geometry":{"type":"Point","coordinates":[-0.297005,51.051695,0]},"properties":{"styleUrl":"#coolhurst_end_posts_labelled_style","Row":63}},{"type":"Feature","geometry":{"type":"Point","coordinates":[-0.297455,51.052571,0]},"properties":{"styleUrl":"#coolhurst_end_posts_labelled_style","Row":64}},{"type":"Feature","geometry":{"type":"Point","coordinates":[-0.296976,51.051703,0]},"properties":{"styleUrl":"#coolhurst_end_posts_labelled_style","Row":64}},{"type":"Feature","geometry":{"type":"Point","coordinates":[-0.297426,51.052577,0]},"properties":{"styleUrl":"#coolhurst_end_posts_labelled_style","Row":65}},{"type":"Feature","geometry":{"type":"Point","coordinates":[-0.296947,51.051708,0]},"properties":{"styleUrl":"#coolhurst_end_posts_labelled_style","Row":65}},{"type":"Feature","geometry":{"type":"Point","coordinates":[-0.297394,51.052584,0]},"properties":{"styleUrl":"#coolhurst_end_posts_labelled_style","Row":66}},{"type":"Feature","geometry":{"type":"Point","coordinates":[-0.296916,51.051716,0]},"properties":{"styleUrl":"#coolhurst_end_posts_labelled_style","Row":66}},{"type":"Feature","geometry":{"type":"Point","coordinates":[-0.297364,51.05259,0]},"properties":{"styleUrl":"#coolhurst_end_posts_labelled_style","Row":67}},{"type":"Feature","geometry":{"type":"Point","coordinates":[-0.296887,51.05172400000001,0]},"properties":{"styleUrl":"#coolhurst_end_posts_labelled_style","Row":67}},{"type":"Feature","geometry":{"type":"Point","coordinates":[-0.297335,51.052596,0]},"properties":{"styleUrl":"#coolhurst_end_posts_labelled_style","Row":68}},{"type":"Feature","geometry":{"type":"Point","coordinates":[-0.296857,51.051729,0]},"properties":{"styleUrl":"#coolhurst_end_posts_labelled_style","Row":68}},{"type":"Feature","geometry":{"type":"Point","coordinates":[-0.297306,51.052603,0]},"properties":{"styleUrl":"#coolhurst_end_posts_labelled_style","Row":69}},{"type":"Feature","geometry":{"type":"Point","coordinates":[-0.296827,51.05173499999999,0]},"properties":{"styleUrl":"#coolhurst_end_posts_labelled_style","Row":69}},{"type":"Feature","geometry":{"type":"Point","coordinates":[-0.297276,51.05261,0]},"properties":{"styleUrl":"#coolhurst_end_posts_labelled_style","Row":70}},{"type":"Feature","geometry":{"type":"Point","coordinates":[-0.296797,51.051741,0]},"properties":{"styleUrl":"#coolhurst_end_posts_labelled_style","Row":70}},{"type":"Feature","geometry":{"type":"Point","coordinates":[-0.297247,51.052616,0]},"properties":{"styleUrl":"#coolhurst_end_posts_labelled_style","Row":71}},{"type":"Feature","geometry":{"type":"Point","coordinates":[-0.296768,51.05175,0]},"properties":{"styleUrl":"#coolhurst_end_posts_labelled_style","Row":71}},{"type":"Feature","geometry":{"type":"Point","coordinates":[-0.297216,51.052623,0]},"properties":{"styleUrl":"#coolhurst_end_posts_labelled_style","Row":72}},{"type":"Feature","geometry":{"type":"Point","coordinates":[-0.296738,51.051755,0]},"properties":{"styleUrl":"#coolhurst_end_posts_labelled_style","Row":72}},{"type":"Feature","geometry":{"type":"Point","coordinates":[-0.297187,51.052628,0]},"properties":{"styleUrl":"#coolhurst_end_posts_labelled_style","Row":73}},{"type":"Feature","geometry":{"type":"Point","coordinates":[-0.29671,51.05176000000001,0]},"properties":{"styleUrl":"#coolhurst_end_posts_labelled_style","Row":73}},{"type":"Feature","geometry":{"type":"Point","coordinates":[-0.297158,51.05263600000001,0]},"properties":{"styleUrl":"#coolhurst_end_posts_labelled_style","Row":74}},{"type":"Feature","geometry":{"type":"Point","coordinates":[-0.29668,51.051767,0]},"properties":{"styleUrl":"#coolhurst_end_posts_labelled_style","Row":74}},{"type":"Feature","geometry":{"type":"Point","coordinates":[-0.297128,51.052642,0]},"properties":{"styleUrl":"#coolhurst_end_posts_labelled_style","Row":75}},{"type":"Feature","geometry":{"type":"Point","coordinates":[-0.296651,51.05177299999999,0]},"properties":{"styleUrl":"#coolhurst_end_posts_labelled_style","Row":75}},{"type":"Feature","geometry":{"type":"Point","coordinates":[-0.297097,51.052646,0]},"properties":{"styleUrl":"#coolhurst_end_posts_labelled_style","Row":76}},{"type":"Feature","geometry":{"type":"Point","coordinates":[-0.296621,51.051781,0]},"properties":{"styleUrl":"#coolhurst_end_posts_labelled_style","Row":76}},{"type":"Feature","geometry":{"type":"Point","coordinates":[-0.297069,51.052655,0]},"properties":{"styleUrl":"#coolhurst_end_posts_labelled_style","Row":77}},{"type":"Feature","geometry":{"type":"Point","coordinates":[-0.29659,51.051786,0]},"properties":{"styleUrl":"#coolhurst_end_posts_labelled_style","Row":77}},{"type":"Feature","geometry":{"type":"Point","coordinates":[-0.297038,51.052662,0]},"properties":{"styleUrl":"#coolhurst_end_posts_labelled_style","Row":78}},{"type":"Feature","geometry":{"type":"Point","coordinates":[-0.296561,51.051793,0]},"properties":{"styleUrl":"#coolhurst_end_posts_labelled_style","Row":78}},{"type":"Feature","geometry":{"type":"Point","coordinates":[-0.297008,51.052667,0]},"properties":{"styleUrl":"#coolhurst_end_posts_labelled_style","Row":79}},{"type":"Feature","geometry":{"type":"Point","coordinates":[-0.29653,51.0518,0]},"properties":{"styleUrl":"#coolhurst_end_posts_labelled_style","Row":79}},{"type":"Feature","geometry":{"type":"Point","coordinates":[-0.296979,51.052674,0]},"properties":{"styleUrl":"#coolhurst_end_posts_labelled_style","Row":80}},{"type":"Feature","geometry":{"type":"Point","coordinates":[-0.296502,51.05180599999999,0]},"properties":{"styleUrl":"#coolhurst_end_posts_labelled_style","Row":80}},{"type":"Feature","geometry":{"type":"Point","coordinates":[-0.296948,51.05268,0]},"properties":{"styleUrl":"#coolhurst_end_posts_labelled_style","Row":81}},{"type":"Feature","geometry":{"type":"Point","coordinates":[-0.296472,51.05181200000001,0]},"properties":{"styleUrl":"#coolhurst_end_posts_labelled_style","Row":81}},{"type":"Feature","geometry":{"type":"Point","coordinates":[-0.29692,51.05268600000001,0]},"properties":{"styleUrl":"#coolhurst_end_posts_labelled_style","Row":82}},{"type":"Feature","geometry":{"type":"Point","coordinates":[-0.296443,51.051819,0]},"properties":{"styleUrl":"#coolhurst_end_posts_labelled_style","Row":82}},{"type":"Feature","geometry":{"type":"Point","coordinates":[-0.296891,51.052692,0]},"properties":{"styleUrl":"#coolhurst_end_posts_labelled_style","Row":83}},{"type":"Feature","geometry":{"type":"Point","coordinates":[-0.296413,51.051826,0]},"properties":{"styleUrl":"#coolhurst_end_posts_labelled_style","Row":83}},{"type":"Feature","geometry":{"type":"Point","coordinates":[-0.296862,51.0527,0]},"properties":{"styleUrl":"#coolhurst_end_posts_labelled_style","Row":84}},{"type":"Feature","geometry":{"type":"Point","coordinates":[-0.296384,51.051832,0]},"properties":{"styleUrl":"#coolhurst_end_posts_labelled_style","Row":84}},{"type":"Feature","geometry":{"type":"Point","coordinates":[-0.296833,51.052706,0]},"properties":{"styleUrl":"#coolhurst_end_posts_labelled_style","Row":85}},{"type":"Feature","geometry":{"type":"Point","coordinates":[-0.296354,51.051839,0]},"properties":{"styleUrl":"#coolhurst_end_posts_labelled_style","Row":85}},{"type":"Feature","geometry":{"type":"Point","coordinates":[-0.296803,51.052713,0]},"properties":{"styleUrl":"#coolhurst_end_posts_labelled_style","Row":86}},{"type":"Feature","geometry":{"type":"Point","coordinates":[-0.296324,51.05184500000001,0]},"properties":{"styleUrl":"#coolhurst_end_posts_labelled_style","Row":86}},{"type":"Feature","geometry":{"type":"Point","coordinates":[-0.296773,51.05271900000001,0]},"properties":{"styleUrl":"#coolhurst_end_posts_labelled_style","Row":87}},{"type":"Feature","geometry":{"type":"Point","coordinates":[-0.296295,51.051851,0]},"properties":{"styleUrl":"#coolhurst_end_posts_labelled_style","Row":87}},{"type":"Feature","geometry":{"type":"Point","coordinates":[-0.296741,51.052725,0]},"properties":{"styleUrl":"#coolhurst_end_posts_labelled_style","Row":88}},{"type":"Feature","geometry":{"type":"Point","coordinates":[-0.296265,51.051858,0]},"properties":{"styleUrl":"#coolhurst_end_posts_labelled_style","Row":88}},{"type":"Feature","geometry":{"type":"Point","coordinates":[-0.296712,51.052731,0]},"properties":{"styleUrl":"#coolhurst_end_posts_labelled_style","Row":89}},{"type":"Feature","geometry":{"type":"Point","coordinates":[-0.296235,51.051865,0]},"properties":{"styleUrl":"#coolhurst_end_posts_labelled_style","Row":89}},{"type":"Feature","geometry":{"type":"Point","coordinates":[-0.296685,51.052738,0]},"properties":{"styleUrl":"#coolhurst_end_posts_labelled_style","Row":90}},{"type":"Feature","geometry":{"type":"Point","coordinates":[-0.296205,51.051872,0]},"properties":{"styleUrl":"#coolhurst_end_posts_labelled_style","Row":90}},{"type":"Feature","geometry":{"type":"Point","coordinates":[-0.296655,51.052745,0]},"properties":{"styleUrl":"#coolhurst_end_posts_labelled_style","Row":91}},{"type":"Feature","geometry":{"type":"Point","coordinates":[-0.296175,51.051877,0]},"properties":{"styleUrl":"#coolhurst_end_posts_labelled_style","Row":91}},{"type":"Feature","geometry":{"type":"Point","coordinates":[-0.296622,51.052752,0]},"properties":{"styleUrl":"#coolhurst_end_posts_labelled_style","Row":92}},{"type":"Feature","geometry":{"type":"Point","coordinates":[-0.296145,51.051884,0]},"properties":{"styleUrl":"#coolhurst_end_posts_labelled_style","Row":92}},{"type":"Feature","geometry":{"type":"Point","coordinates":[-0.296592,51.052758,0]},"properties":{"styleUrl":"#coolhurst_end_posts_labelled_style","Row":93}},{"type":"Feature","geometry":{"type":"Point","coordinates":[-0.296116,51.05189,0]},"properties":{"styleUrl":"#coolhurst_end_posts_labelled_style","Row":93}},{"type":"Feature","geometry":{"type":"Point","coordinates":[-0.296563,51.052766,0]},"properties":{"styleUrl":"#coolhurst_end_posts_labelled_style","Row":94}},{"type":"Feature","geometry":{"type":"Point","coordinates":[-0.296084,51.051895,0]},"properties":{"styleUrl":"#coolhurst_end_posts_labelled_style","Row":94}},{"type":"Feature","geometry":{"type":"Point","coordinates":[-0.296534,51.052773,0]},"properties":{"styleUrl":"#coolhurst_end_posts_labelled_style","Row":95}},{"type":"Feature","geometry":{"type":"Point","coordinates":[-0.296057,51.05190199999999,0]},"properties":{"styleUrl":"#coolhurst_end_posts_labelled_style","Row":95}},{"type":"Feature","geometry":{"type":"Point","coordinates":[-0.296506,51.052781,0]},"properties":{"styleUrl":"#coolhurst_end_posts_labelled_style","Row":96}},{"type":"Feature","geometry":{"type":"Point","coordinates":[-0.296025,51.051909,0]},"properties":{"styleUrl":"#coolhurst_end_posts_labelled_style","Row":96}},{"type":"Feature","geometry":{"type":"Point","coordinates":[-0.296474,51.052785,0]},"properties":{"styleUrl":"#coolhurst_end_posts_labelled_style","Row":97}},{"type":"Feature","geometry":{"type":"Point","coordinates":[-0.295997,51.05191599999999,0]},"properties":{"styleUrl":"#coolhurst_end_posts_labelled_style","Row":97}},{"type":"Feature","geometry":{"type":"Point","coordinates":[-0.296446,51.05279300000001,0]},"properties":{"styleUrl":"#coolhurst_end_posts_labelled_style","Row":98}},{"type":"Feature","geometry":{"type":"Point","coordinates":[-0.295968,51.051922,0]},"properties":{"styleUrl":"#coolhurst_end_posts_labelled_style","Row":98}},{"type":"Feature","geometry":{"type":"Point","coordinates":[-0.296417,51.0528,0]},"properties":{"styleUrl":"#coolhurst_end_posts_labelled_style","Row":99}},{"type":"Feature","geometry":{"type":"Point","coordinates":[-0.295939,51.051929,0]},"properties":{"styleUrl":"#coolhurst_end_posts_labelled_style","Row":99}},{"type":"Feature","geometry":{"type":"Point","coordinates":[-0.296389,51.052806,0]},"properties":{"styleUrl":"#coolhurst_end_posts_labelled_style","Row":100}},{"type":"Feature","geometry":{"type":"Point","coordinates":[-0.295909,51.051935,0]},"properties":{"styleUrl":"#coolhurst_end_posts_labelled_style","Row":100}},{"type":"Feature","geometry":{"type":"Point","coordinates":[-0.296358,51.052813,0]},"properties":{"styleUrl":"#coolhurst_end_posts_labelled_style","Row":101}},{"type":"Feature","geometry":{"type":"Point","coordinates":[-0.295878,51.051943,0]},"properties":{"styleUrl":"#coolhurst_end_posts_labelled_style","Row":101}},{"type":"Feature","geometry":{"type":"Point","coordinates":[-0.29633,51.05282,0]},"properties":{"styleUrl":"#coolhurst_end_posts_labelled_style","Row":102}},{"type":"Feature","geometry":{"type":"Point","coordinates":[-0.295849,51.051948,0]},"properties":{"styleUrl":"#coolhurst_end_posts_labelled_style","Row":102}},{"type":"Feature","geometry":{"type":"Point","coordinates":[-0.296299,51.05282600000001,0]},"properties":{"styleUrl":"#coolhurst_end_posts_labelled_style","Row":103}},{"type":"Feature","geometry":{"type":"Point","coordinates":[-0.29582,51.05195500000001,0]},"properties":{"styleUrl":"#coolhurst_end_posts_labelled_style","Row":103}},{"type":"Feature","geometry":{"type":"Point","coordinates":[-0.296268,51.052832,0]},"properties":{"styleUrl":"#coolhurst_end_posts_labelled_style","Row":104}},{"type":"Feature","geometry":{"type":"Point","coordinates":[-0.295791,51.051961,0]},"properties":{"styleUrl":"#coolhurst_end_posts_labelled_style","Row":104}},{"type":"Feature","geometry":{"type":"Point","coordinates":[-0.296242,51.05284000000001,0]},"properties":{"styleUrl":"#coolhurst_end_posts_labelled_style","Row":105}},{"type":"Feature","geometry":{"type":"Point","coordinates":[-0.295761,51.051968,0]},"properties":{"styleUrl":"#coolhurst_end_posts_labelled_style","Row":105}},{"type":"Feature","geometry":{"type":"Point","coordinates":[-0.296209,51.052844,0]},"properties":{"styleUrl":"#coolhurst_end_posts_labelled_style","Row":106}},{"type":"Feature","geometry":{"type":"Point","coordinates":[-0.29573,51.05197399999999,0]},"properties":{"styleUrl":"#coolhurst_end_posts_labelled_style","Row":106}},{"type":"Feature","geometry":{"type":"Point","coordinates":[-0.296182,51.052852,0]},"properties":{"styleUrl":"#coolhurst_end_posts_labelled_style","Row":107}},{"type":"Feature","geometry":{"type":"Point","coordinates":[-0.295702,51.051981,0]},"properties":{"styleUrl":"#coolhurst_end_posts_labelled_style","Row":107}},{"type":"Feature","geometry":{"type":"Point","coordinates":[-0.296151,51.052858,0]},"properties":{"styleUrl":"#coolhurst_end_posts_labelled_style","Row":108}},{"type":"Feature","geometry":{"type":"Point","coordinates":[-0.295671,51.05198699999999,0]},"properties":{"styleUrl":"#coolhurst_end_posts_labelled_style","Row":108}},{"type":"Feature","geometry":{"type":"Point","coordinates":[-0.296122,51.05286400000001,0]},"properties":{"styleUrl":"#coolhurst_end_posts_labelled_style","Row":109}},{"type":"Feature","geometry":{"type":"Point","coordinates":[-0.295643,51.051994,0]},"properties":{"styleUrl":"#coolhurst_end_posts_labelled_style","Row":109}},{"type":"Feature","geometry":{"type":"Point","coordinates":[-0.296092,51.052871,0]},"properties":{"styleUrl":"#coolhurst_end_posts_labelled_style","Row":110}},{"type":"Feature","geometry":{"type":"Point","coordinates":[-0.295612,51.052,0]},"properties":{"styleUrl":"#coolhurst_end_posts_labelled_style","Row":110}},{"type":"Feature","geometry":{"type":"Point","coordinates":[-0.296064,51.052879,0]},"properties":{"styleUrl":"#coolhurst_end_posts_labelled_style","Row":111}},{"type":"Feature","geometry":{"type":"Point","coordinates":[-0.295584,51.052008,0]},"properties":{"styleUrl":"#coolhurst_end_posts_labelled_style","Row":111}},{"type":"Feature","geometry":{"type":"Point","coordinates":[-0.296032,51.052884,0]},"properties":{"styleUrl":"#coolhurst_end_posts_labelled_style","Row":112}},{"type":"Feature","geometry":{"type":"Point","coordinates":[-0.295552,51.05201300000001,0]},"properties":{"styleUrl":"#coolhurst_end_posts_labelled_style","Row":112}},{"type":"Feature","geometry":{"type":"Point","coordinates":[-0.296003,51.05289,0]},"properties":{"styleUrl":"#coolhurst_end_posts_labelled_style","Row":113}},{"type":"Feature","geometry":{"type":"Point","coordinates":[-0.295523,51.052019,0]},"properties":{"styleUrl":"#coolhurst_end_posts_labelled_style","Row":113}},{"type":"Feature","geometry":{"type":"Point","coordinates":[-0.295971,51.05289699999999,0]},"properties":{"styleUrl":"#coolhurst_end_posts_labelled_style","Row":114}},{"type":"Feature","geometry":{"type":"Point","coordinates":[-0.295492,51.052027,0]},"properties":{"styleUrl":"#coolhurst_end_posts_labelled_style","Row":114}},{"type":"Feature","geometry":{"type":"Point","coordinates":[-0.295941,51.052903,0]},"properties":{"styleUrl":"#coolhurst_end_posts_labelled_style","Row":115}},{"type":"Feature","geometry":{"type":"Point","coordinates":[-0.295463,51.052033,0]},"properties":{"styleUrl":"#coolhurst_end_posts_labelled_style","Row":115}},{"type":"Feature","geometry":{"type":"Point","coordinates":[-0.295912,51.052909,0]},"properties":{"styleUrl":"#coolhurst_end_posts_labelled_style","Row":116}},{"type":"Feature","geometry":{"type":"Point","coordinates":[-0.295434,51.05204000000001,0]},"properties":{"styleUrl":"#coolhurst_end_posts_labelled_style","Row":116}},{"type":"Feature","geometry":{"type":"Point","coordinates":[-0.295882,51.052916,0]},"properties":{"styleUrl":"#coolhurst_end_posts_labelled_style","Row":117}},{"type":"Feature","geometry":{"type":"Point","coordinates":[-0.295404,51.052047,0]},"properties":{"styleUrl":"#coolhurst_end_posts_labelled_style","Row":117}},{"type":"Feature","geometry":{"type":"Point","coordinates":[-0.295852,51.05292200000001,0]},"properties":{"styleUrl":"#coolhurst_end_posts_labelled_style","Row":118}},{"type":"Feature","geometry":{"type":"Point","coordinates":[-0.295375,51.052053,0]},"properties":{"styleUrl":"#coolhurst_end_posts_labelled_style","Row":118}},{"type":"Feature","geometry":{"type":"Point","coordinates":[-0.295823,51.052929,0]},"properties":{"styleUrl":"#coolhurst_end_posts_labelled_style","Row":119}},{"type":"Feature","geometry":{"type":"Point","coordinates":[-0.295346,51.05205899999999,0]},"properties":{"styleUrl":"#coolhurst_end_posts_labelled_style","Row":119}},{"type":"Feature","geometry":{"type":"Point","coordinates":[-0.295793,51.05293600000001,0]},"properties":{"styleUrl":"#coolhurst_end_posts_labelled_style","Row":120}},{"type":"Feature","geometry":{"type":"Point","coordinates":[-0.295316,51.052066,0]},"properties":{"styleUrl":"#coolhurst_end_posts_labelled_style","Row":120}},{"type":"Feature","geometry":{"type":"Point","coordinates":[-0.295764,51.052941,0]},"properties":{"styleUrl":"#coolhurst_end_posts_labelled_style","Row":121}},{"type":"Feature","geometry":{"type":"Point","coordinates":[-0.295286,51.052072,0]},"properties":{"styleUrl":"#coolhurst_end_posts_labelled_style","Row":121}},{"type":"Feature","geometry":{"type":"Point","coordinates":[-0.295733,51.05294700000001,0]},"properties":{"styleUrl":"#coolhurst_end_posts_labelled_style","Row":122}},{"type":"Feature","geometry":{"type":"Point","coordinates":[-0.295255,51.052078,0]},"properties":{"styleUrl":"#coolhurst_end_posts_labelled_style","Row":122}},{"type":"Feature","geometry":{"type":"Point","coordinates":[-0.295703,51.052953,0]},"properties":{"styleUrl":"#coolhurst_end_posts_labelled_style","Row":123}},{"type":"Feature","geometry":{"type":"Point","coordinates":[-0.295228,51.052086,0]},"properties":{"styleUrl":"#coolhurst_end_posts_labelled_style","Row":123}},{"type":"Feature","geometry":{"type":"Point","coordinates":[-0.295673,51.05295999999999,0]},"properties":{"styleUrl":"#coolhurst_end_posts_labelled_style","Row":124}},{"type":"Feature","geometry":{"type":"Point","coordinates":[-0.295196,51.05209199999999,0]},"properties":{"styleUrl":"#coolhurst_end_posts_labelled_style","Row":124}},{"type":"Feature","geometry":{"type":"Point","coordinates":[-0.295645,51.052966,0]},"properties":{"styleUrl":"#coolhurst_end_posts_labelled_style","Row":125}},{"type":"Feature","geometry":{"type":"Point","coordinates":[-0.295168,51.052099,0]},"properties":{"styleUrl":"#coolhurst_end_posts_labelled_style","Row":125}},{"type":"Feature","geometry":{"type":"Point","coordinates":[-0.295613,51.052973,0]},"properties":{"styleUrl":"#coolhurst_end_posts_labelled_style","Row":126}},{"type":"Feature","geometry":{"type":"Point","coordinates":[-0.295139,51.052105,0]},"properties":{"styleUrl":"#coolhurst_end_posts_labelled_style","Row":126}},{"type":"Feature","geometry":{"type":"Point","coordinates":[-0.295585,51.052979,0]},"properties":{"styleUrl":"#coolhurst_end_posts_labelled_style","Row":127}},{"type":"Feature","geometry":{"type":"Point","coordinates":[-0.29511,51.052112,0]},"properties":{"styleUrl":"#coolhurst_end_posts_labelled_style","Row":127}},{"type":"Feature","geometry":{"type":"Point","coordinates":[-0.295556,51.052986,0]},"properties":{"styleUrl":"#coolhurst_end_posts_labelled_style","Row":128}},{"type":"Feature","geometry":{"type":"Point","coordinates":[-0.295079,51.052118,0]},"properties":{"styleUrl":"#coolhurst_end_posts_labelled_style","Row":128}},{"type":"Feature","geometry":{"type":"Point","coordinates":[-0.295526,51.052992,0]},"properties":{"styleUrl":"#coolhurst_end_posts_labelled_style","Row":129}},{"type":"Feature","geometry":{"type":"Point","coordinates":[-0.295049,51.052124,0]},"properties":{"styleUrl":"#coolhurst_end_posts_labelled_style","Row":129}},{"type":"Feature","geometry":{"type":"Point","coordinates":[-0.295496,51.052998,0]},"properties":{"styleUrl":"#coolhurst_end_posts_labelled_style","Row":130}},{"type":"Feature","geometry":{"type":"Point","coordinates":[-0.295019,51.05212999999999,0]},"properties":{"styleUrl":"#coolhurst_end_posts_labelled_style","Row":130}},{"type":"Feature","geometry":{"type":"Point","coordinates":[-0.295467,51.053006,0]},"properties":{"styleUrl":"#coolhurst_end_posts_labelled_style","Row":131}},{"type":"Feature","geometry":{"type":"Point","coordinates":[-0.29499,51.052137,0]},"properties":{"styleUrl":"#coolhurst_end_posts_labelled_style","Row":131}},{"type":"Feature","geometry":{"type":"Point","coordinates":[-0.295438,51.053012,0]},"properties":{"styleUrl":"#coolhurst_end_posts_labelled_style","Row":132}},{"type":"Feature","geometry":{"type":"Point","coordinates":[-0.29496,51.052143,0]},"properties":{"styleUrl":"#coolhurst_end_posts_labelled_style","Row":132}},{"type":"Feature","geometry":{"type":"Point","coordinates":[-0.29541,51.053019,0]},"properties":{"styleUrl":"#coolhurst_end_posts_labelled_style","Row":133}},{"type":"Feature","geometry":{"type":"Point","coordinates":[-0.294931,51.052151,0]},"properties":{"styleUrl":"#coolhurst_end_posts_labelled_style","Row":133}},{"type":"Feature","geometry":{"type":"Point","coordinates":[-0.295378,51.053026,0]},"properties":{"styleUrl":"#coolhurst_end_posts_labelled_style","Row":134}},{"type":"Feature","geometry":{"type":"Point","coordinates":[-0.294901,51.052157,0]},"properties":{"styleUrl":"#coolhurst_end_posts_labelled_style","Row":134}},{"type":"Feature","geometry":{"type":"Point","coordinates":[-0.295349,51.05303200000001,0]},"properties":{"styleUrl":"#coolhurst_end_posts_labelled_style","Row":135}},{"type":"Feature","geometry":{"type":"Point","coordinates":[-0.294872,51.052163,0]},"properties":{"styleUrl":"#coolhurst_end_posts_labelled_style","Row":135}}]}