{
"type": "FeatureCollection",
"name": "coolhurst_end_posts_south_block_labelled",
"features": [
{ "type": "Feature", "properties": { "Row": 136 }, "geometry": { "type": "Point", "coordinates": [ -0.298369, 51.051337 ] } },
{ "type": "Feature", "properties": { "Row": 136 }, "geometry": { "type": "Point", "coordinates": [ -0.298163, 51.050963 ] } },
{ "type": "Feature", "properties": { "Row": 137 }, "geometry": { "type": "Point", "coordinates": [ -0.298338, 51.051343 ] } },
{ "type": "Feature", "properties": { "Row": 137 }, "geometry": { "type": "Point", "coordinates": [ -0.298096, 51.050899 ] } },
{ "type": "Feature", "properties": { "Row": 138 }, "geometry": { "type": "Point", "coordinates": [ -0.298312, 51.05135 ] } },
{ "type": "Feature", "properties": { "Row": 138 }, "geometry": { "type": "Point", "coordinates": [ -0.29806, 51.050894 ] } },
{ "type": "Feature", "properties": { "Row": 139 }, "geometry": { "type": "Point", "coordinates": [ -0.298282, 51.051357 ] } },
{ "type": "Feature", "properties": { "Row": 139 }, "geometry": { "type": "Point", "coordinates": [ -0.298023, 51.050889 ] } },
{ "type": "Feature", "properties": { "Row": 140 }, "geometry": { "type": "Point", "coordinates": [ -0.298252, 51.051364 ] } },
{ "type": "Feature", "properties": { "Row": 140 }, "geometry": { "type": "Point", "coordinates": [ -0.29799, 51.050884 ] } },
{ "type": "Feature", "properties": { "Row": 141 }, "geometry": { "type": "Point", "coordinates": [ -0.298222, 51.05137 ] } },
{ "type": "Feature", "properties": { "Row": 141 }, "geometry": { "type": "Point", "coordinates": [ -0.297952, 51.05088 ] } },
{ "type": "Feature", "properties": { "Row": 142 }, "geometry": { "type": "Point", "coordinates": [ -0.298193, 51.051376 ] } },
{ "type": "Feature", "properties": { "Row": 142 }, "geometry": { "type": "Point", "coordinates": [ -0.297916, 51.050875 ] } },
{ "type": "Feature", "properties": { "Row": 143 }, "geometry": { "type": "Point", "coordinates": [ -0.298163, 51.051383 ] } },
{ "type": "Feature", "properties": { "Row": 143 }, "geometry": { "type": "Point", "coordinates": [ -0.29788, 51.050869 ] } },
{ "type": "Feature", "properties": { "Row": 144 }, "geometry": { "type": "Point", "coordinates": [ -0.298134, 51.051389 ] } },
{ "type": "Feature", "properties": { "Row": 144 }, "geometry": { "type": "Point", "coordinates": [ -0.297845, 51.050866 ] } },
{ "type": "Feature", "properties": { "Row": 145 }, "geometry": { "type": "Point", "coordinates": [ -0.298104, 51.051394 ] } },
{ "type": "Feature", "properties": { "Row": 145 }, "geometry": { "type": "Point", "coordinates": [ -0.297809, 51.050862 ] } },
{ "type": "Feature", "properties": { "Row": 146 }, "geometry": { "type": "Point", "coordinates": [ -0.298074, 51.051401 ] } },
{ "type": "Feature", "properties": { "Row": 146 }, "geometry": { "type": "Point", "coordinates": [ -0.297777, 51.050859 ] } },
{ "type": "Feature", "properties": { "Row": 147 }, "geometry": { "type": "Point", "coordinates": [ -0.298045, 51.051408 ] } },
{ "type": "Feature", "properties": { "Row": 147 }, "geometry": { "type": "Point", "coordinates": [ -0.297741, 51.050857 ] } },
{ "type": "Feature", "properties": { "Row": 148 }, "geometry": { "type": "Point", "coordinates": [ -0.298016, 51.051414 ] } },
{ "type": "Feature", "properties": { "Row": 148 }, "geometry": { "type": "Point", "coordinates": [ -0.297706, 51.050856 ] } },
{ "type": "Feature", "properties": { "Row": 149 }, "geometry": { "type": "Point", "coordinates": [ -0.297985, 51.051422 ] } },
{ "type": "Feature", "properties": { "Row": 149 }, "geometry": { "type": "Point", "coordinates": [ -0.297671, 51.050853 ] } },
{ "type": "Feature", "properties": { "Row": 150 }, "geometry": { "type": "Point", "coordinates": [ -0.297954, 51.051428 ] } },
{ "type": "Feature", "properties": { "Row": 150 }, "geometry": { "type": "Point", "coordinates": [ -0.297637, 51.050852 ] } },
{ "type": "Feature", "properties": { "Row": 151 }, "geometry": { "type": "Point", "coordinates": [ -0.297926, 51.051435 ] } },
{ "type": "Feature", "properties": { "Row": 151 }, "geometry": { "type": "Point", "coordinates": [ -0.297602, 51.050851 ] } },
{ "type": "Feature", "properties": { "Row": 152 }, "geometry": { "type": "Point", "coordinates": [ -0.297895, 51.051441 ] } },
{ "type": "Feature", "properties": { "Row": 152 }, "geometry": { "type": "Point", "coordinates": [ -0.297569, 51.050849 ] } },
{ "type": "Feature", "properties": { "Row": 153 }, "geometry": { "type": "Point", "coordinates": [ -0.297865, 51.051448 ] } },
{ "type": "Feature", "properties": { "Row": 153 }, "geometry": { "type": "Point", "coordinates": [ -0.297537, 51.050848 ] } },
{ "type": "Feature", "properties": { "Row": 154 }, "geometry": { "type": "Point", "coordinates": [ -0.297835, 51.051454 ] } },
{ "type": "Feature", "properties": { "Row": 154 }, "geometry": { "type": "Point", "coordinates": [ -0.297501, 51.050844 ] } },
{ "type": "Feature", "properties": { "Row": 155 }, "geometry": { "type": "Point", "coordinates": [ -0.297807, 51.05146 ] } },
{ "type": "Feature", "properties": { "Row": 155 }, "geometry": { "type": "Point", "coordinates": [ -0.297466, 51.050841 ] } },
{ "type": "Feature", "properties": { "Row": 156 }, "geometry": { "type": "Point", "coordinates": [ -0.297776, 51.051467 ] } },
{ "type": "Feature", "properties": { "Row": 156 }, "geometry": { "type": "Point", "coordinates": [ -0.297435, 51.050846 ] } },
{ "type": "Feature", "properties": { "Row": 157 }, "geometry": { "type": "Point", "coordinates": [ -0.297747, 51.051472 ] } },
{ "type": "Feature", "properties": { "Row": 157 }, "geometry": { "type": "Point", "coordinates": [ -0.2974, 51.050839 ] } },
{ "type": "Feature", "properties": { "Row": 158 }, "geometry": { "type": "Point", "coordinates": [ -0.297717, 51.05148 ] } },
{ "type": "Feature", "properties": { "Row": 158 }, "geometry": { "type": "Point", "coordinates": [ -0.297364, 51.050836 ] } },
{ "type": "Feature", "properties": { "Row": 159 }, "geometry": { "type": "Point", "coordinates": [ -0.297688, 51.051486 ] } },
{ "type": "Feature", "properties": { "Row": 159 }, "geometry": { "type": "Point", "coordinates": [ -0.297332, 51.050835 ] } },
{ "type": "Feature", "properties": { "Row": 160 }, "geometry": { "type": "Point", "coordinates": [ -0.297658, 51.051492 ] } },
{ "type": "Feature", "properties": { "Row": 160 }, "geometry": { "type": "Point", "coordinates": [ -0.297296, 51.050832 ] } },
{ "type": "Feature", "properties": { "Row": 161 }, "geometry": { "type": "Point", "coordinates": [ -0.297628, 51.051499 ] } },
{ "type": "Feature", "properties": { "Row": 161 }, "geometry": { "type": "Point", "coordinates": [ -0.297262, 51.050828 ] } },
{ "type": "Feature", "properties": { "Row": 162 }, "geometry": { "type": "Point", "coordinates": [ -0.297599, 51.051505 ] } },
{ "type": "Feature", "properties": { "Row": 162 }, "geometry": { "type": "Point", "coordinates": [ -0.297229, 51.050828 ] } },
{ "type": "Feature", "properties": { "Row": 163 }, "geometry": { "type": "Point", "coordinates": [ -0.297571, 51.051511 ] } },
{ "type": "Feature", "properties": { "Row": 163 }, "geometry": { "type": "Point", "coordinates": [ -0.297193, 51.050825 ] } },
{ "type": "Feature", "properties": { "Row": 164 }, "geometry": { "type": "Point", "coordinates": [ -0.297538, 51.051518 ] } },
{ "type": "Feature", "properties": { "Row": 164 }, "geometry": { "type": "Point", "coordinates": [ -0.297157, 51.050824 ] } },
{ "type": "Feature", "properties": { "Row": 165 }, "geometry": { "type": "Point", "coordinates": [ -0.297508, 51.051525 ] } },
{ "type": "Feature", "properties": { "Row": 165 }, "geometry": { "type": "Point", "coordinates": [ -0.297121, 51.050822 ] } },
{ "type": "Feature", "properties": { "Row": 166 }, "geometry": { "type": "Point", "coordinates": [ -0.297479, 51.051531 ] } },
{ "type": "Feature", "properties": { "Row": 166 }, "geometry": { "type": "Point", "coordinates": [ -0.297088, 51.05082 ] } },
{ "type": "Feature", "properties": { "Row": 167 }, "geometry": { "type": "Point", "coordinates": [ -0.29745, 51.051538 ] } },
{ "type": "Feature", "properties": { "Row": 167 }, "geometry": { "type": "Point", "coordinates": [ -0.297054, 51.050818 ] } },
{ "type": "Feature", "properties": { "Row": 168 }, "geometry": { "type": "Point", "coordinates": [ -0.297421, 51.051544 ] } },
{ "type": "Feature", "properties": { "Row": 168 }, "geometry": { "type": "Point", "coordinates": [ -0.29702, 51.050816 ] } },
{ "type": "Feature", "properties": { "Row": 169 }, "geometry": { "type": "Point", "coordinates": [ -0.297392, 51.051549 ] } },
{ "type": "Feature", "properties": { "Row": 169 }, "geometry": { "type": "Point", "coordinates": [ -0.296988, 51.050814 ] } },
{ "type": "Feature", "properties": { "Row": 170 }, "geometry": { "type": "Point", "coordinates": [ -0.297361, 51.051556 ] } },
{ "type": "Feature", "properties": { "Row": 170 }, "geometry": { "type": "Point", "coordinates": [ -0.296953, 51.050813 ] } },
{ "type": "Feature", "properties": { "Row": 171 }, "geometry": { "type": "Point", "coordinates": [ -0.297333, 51.051563 ] } },
{ "type": "Feature", "properties": { "Row": 171 }, "geometry": { "type": "Point", "coordinates": [ -0.29692, 51.05081 ] } },
{ "type": "Feature", "properties": { "Row": 172 }, "geometry": { "type": "Point", "coordinates": [ -0.297302, 51.051569 ] } },
{ "type": "Feature", "properties": { "Row": 172 }, "geometry": { "type": "Point", "coordinates": [ -0.296884, 51.050807 ] } },
{ "type": "Feature", "properties": { "Row": 173 }, "geometry": { "type": "Point", "coordinates": [ -0.297273, 51.051576 ] } },
{ "type": "Feature", "properties": { "Row": 173 }, "geometry": { "type": "Point", "coordinates": [ -0.296849, 51.050805 ] } },
{ "type": "Feature", "properties": { "Row": 174 }, "geometry": { "type": "Point", "coordinates": [ -0.297244, 51.051582 ] } },
{ "type": "Feature", "properties": { "Row": 174 }, "geometry": { "type": "Point", "coordinates": [ -0.296817, 51.050806 ] } },
{ "type": "Feature", "properties": { "Row": 175 }, "geometry": { "type": "Point", "coordinates": [ -0.297214, 51.051588 ] } },
{ "type": "Feature", "properties": { "Row": 175 }, "geometry": { "type": "Point", "coordinates": [ -0.296782, 51.050802 ] } },
{ "type": "Feature", "properties": { "Row": 176 }, "geometry": { "type": "Point", "coordinates": [ -0.297183, 51.051595 ] } },
{ "type": "Feature", "properties": { "Row": 176 }, "geometry": { "type": "Point", "coordinates": [ -0.296746, 51.050801 ] } },
{ "type": "Feature", "properties": { "Row": 177 }, "geometry": { "type": "Point", "coordinates": [ -0.297154, 51.051601 ] } },
{ "type": "Feature", "properties": { "Row": 177 }, "geometry": { "type": "Point", "coordinates": [ -0.296712, 51.050797 ] } },
{ "type": "Feature", "properties": { "Row": 178 }, "geometry": { "type": "Point", "coordinates": [ -0.297122, 51.051607 ] } },
{ "type": "Feature", "properties": { "Row": 178 }, "geometry": { "type": "Point", "coordinates": [ -0.296676, 51.050795 ] } },
{ "type": "Feature", "properties": { "Row": 179 }, "geometry": { "type": "Point", "coordinates": [ -0.297093, 51.051614 ] } },
{ "type": "Feature", "properties": { "Row": 179 }, "geometry": { "type": "Point", "coordinates": [ -0.296643, 51.050793 ] } },
{ "type": "Feature", "properties": { "Row": 180 }, "geometry": { "type": "Point", "coordinates": [ -0.297065, 51.051621 ] } },
{ "type": "Feature", "properties": { "Row": 180 }, "geometry": { "type": "Point", "coordinates": [ -0.296603, 51.050782 ] } },
{ "type": "Feature", "properties": { "Row": 181 }, "geometry": { "type": "Point", "coordinates": [ -0.297034, 51.051624 ] } },
{ "type": "Feature", "properties": { "Row": 181 }, "geometry": { "type": "Point", "coordinates": [ -0.296562, 51.050771 ] } },
{ "type": "Feature", "properties": { "Row": 182 }, "geometry": { "type": "Point", "coordinates": [ -0.297006, 51.051634 ] } },
{ "type": "Feature", "properties": { "Row": 182 }, "geometry": { "type": "Point", "coordinates": [ -0.296526, 51.050762 ] } },
{ "type": "Feature", "properties": { "Row": 183 }, "geometry": { "type": "Point", "coordinates": [ -0.296976, 51.051641 ] } },
{ "type": "Feature", "properties": { "Row": 183 }, "geometry": { "type": "Point", "coordinates": [ -0.296486, 51.050752 ] } },
{ "type": "Feature", "properties": { "Row": 184 }, "geometry": { "type": "Point", "coordinates": [ -0.296944, 51.051645 ] } },
{ "type": "Feature", "properties": { "Row": 184 }, "geometry": { "type": "Point", "coordinates": [ -0.296449, 51.050739 ] } },
{ "type": "Feature", "properties": { "Row": 185 }, "geometry": { "type": "Point", "coordinates": [ -0.296916, 51.051653 ] } },
{ "type": "Feature", "properties": { "Row": 185 }, "geometry": { "type": "Point", "coordinates": [ -0.296411, 51.05073 ] } },
{ "type": "Feature", "properties": { "Row": 186 }, "geometry": { "type": "Point", "coordinates": [ -0.296883, 51.051656 ] } },
{ "type": "Feature", "properties": { "Row": 186 }, "geometry": { "type": "Point", "coordinates": [ -0.29637, 51.050717 ] } },
{ "type": "Feature", "properties": { "Row": 187 }, "geometry": { "type": "Point", "coordinates": [ -0.296854, 51.051662 ] } },
{ "type": "Feature", "properties": { "Row": 187 }, "geometry": { "type": "Point", "coordinates": [ -0.296329, 51.050708 ] } },
{ "type": "Feature", "properties": { "Row": 188 }, "geometry": { "type": "Point", "coordinates": [ -0.296825, 51.051671 ] } },
{ "type": "Feature", "properties": { "Row": 188 }, "geometry": { "type": "Point", "coordinates": [ -0.296291, 51.050699 ] } },
{ "type": "Feature", "properties": { "Row": 189 }, "geometry": { "type": "Point", "coordinates": [ -0.296794, 51.051675 ] } },
{ "type": "Feature", "properties": { "Row": 189 }, "geometry": { "type": "Point", "coordinates": [ -0.296249, 51.050685 ] } },
{ "type": "Feature", "properties": { "Row": 190 }, "geometry": { "type": "Point", "coordinates": [ -0.296765, 51.051682 ] } },
{ "type": "Feature", "properties": { "Row": 190 }, "geometry": { "type": "Point", "coordinates": [ -0.296212, 51.050677 ] } },
{ "type": "Feature", "properties": { "Row": 191 }, "geometry": { "type": "Point", "coordinates": [ -0.296736, 51.051688 ] } },
{ "type": "Feature", "properties": { "Row": 191 }, "geometry": { "type": "Point", "coordinates": [ -0.296173, 51.050668 ] } },
{ "type": "Feature", "properties": { "Row": 192 }, "geometry": { "type": "Point", "coordinates": [ -0.296706, 51.051695 ] } },
{ "type": "Feature", "properties": { "Row": 192 }, "geometry": { "type": "Point", "coordinates": [ -0.296137, 51.050657 ] } },
{ "type": "Feature", "properties": { "Row": 193 }, "geometry": { "type": "Point", "coordinates": [ -0.296677, 51.051701 ] } },
{ "type": "Feature", "properties": { "Row": 193 }, "geometry": { "type": "Point", "coordinates": [ -0.296094, 51.050644 ] } },
{ "type": "Feature", "properties": { "Row": 194 }, "geometry": { "type": "Point", "coordinates": [ -0.296648, 51.051709 ] } },
{ "type": "Feature", "properties": { "Row": 194 }, "geometry": { "type": "Point", "coordinates": [ -0.296057, 51.050636 ] } },
{ "type": "Feature", "properties": { "Row": 195 }, "geometry": { "type": "Point", "coordinates": [ -0.296619, 51.051716 ] } },
{ "type": "Feature", "properties": { "Row": 195 }, "geometry": { "type": "Point", "coordinates": [ -0.296019, 51.050625 ] } },
{ "type": "Feature", "properties": { "Row": 196 }, "geometry": { "type": "Point", "coordinates": [ -0.296589, 51.051721 ] } },
{ "type": "Feature", "properties": { "Row": 196 }, "geometry": { "type": "Point", "coordinates": [ -0.295978, 51.050615 ] } },
{ "type": "Feature", "properties": { "Row": 197 }, "geometry": { "type": "Point", "coordinates": [ -0.296559, 51.051728 ] } },
{ "type": "Feature", "properties": { "Row": 197 }, "geometry": { "type": "Point", "coordinates": [ -0.29594, 51.050605 ] } },
{ "type": "Feature", "properties": { "Row": 198 }, "geometry": { "type": "Point", "coordinates": [ -0.296529, 51.051735 ] } },
{ "type": "Feature", "properties": { "Row": 198 }, "geometry": { "type": "Point", "coordinates": [ -0.295902, 51.050595 ] } },
{ "type": "Feature", "properties": { "Row": 199 }, "geometry": { "type": "Point", "coordinates": [ -0.296498, 51.051741 ] } },
{ "type": "Feature", "properties": { "Row": 199 }, "geometry": { "type": "Point", "coordinates": [ -0.295863, 51.050587 ] } },
{ "type": "Feature", "properties": { "Row": 200 }, "geometry": { "type": "Point", "coordinates": [ -0.29647, 51.051747 ] } },
{ "type": "Feature", "properties": { "Row": 200 }, "geometry": { "type": "Point", "coordinates": [ -0.295825, 51.050579 ] } },
{ "type": "Feature", "properties": { "Row": 201 }, "geometry": { "type": "Point", "coordinates": [ -0.29644, 51.051755 ] } },
{ "type": "Feature", "properties": { "Row": 201 }, "geometry": { "type": "Point", "coordinates": [ -0.295791, 51.050576 ] } },
{ "type": "Feature", "properties": { "Row": 202 }, "geometry": { "type": "Point", "coordinates": [ -0.29641, 51.05176 ] } },
{ "type": "Feature", "properties": { "Row": 202 }, "geometry": { "type": "Point", "coordinates": [ -0.295755, 51.050568 ] } },
{ "type": "Feature", "properties": { "Row": 203 }, "geometry": { "type": "Point", "coordinates": [ -0.296383, 51.05177 ] } },
{ "type": "Feature", "properties": { "Row": 203 }, "geometry": { "type": "Point", "coordinates": [ -0.295719, 51.050564 ] } },
{ "type": "Feature", "properties": { "Row": 204 }, "geometry": { "type": "Point", "coordinates": [ -0.296352, 51.051774 ] } },
{ "type": "Feature", "properties": { "Row": 204 }, "geometry": { "type": "Point", "coordinates": [ -0.295682, 51.050558 ] } },
{ "type": "Feature", "properties": { "Row": 205 }, "geometry": { "type": "Point", "coordinates": [ -0.296324, 51.051782 ] } },
{ "type": "Feature", "properties": { "Row": 205 }, "geometry": { "type": "Point", "coordinates": [ -0.295646, 51.050553 ] } },
{ "type": "Feature", "properties": { "Row": 206 }, "geometry": { "type": "Point", "coordinates": [ -0.296294, 51.051788 ] } },
{ "type": "Feature", "properties": { "Row": 206 }, "geometry": { "type": "Point", "coordinates": [ -0.29561, 51.050546 ] } },
{ "type": "Feature", "properties": { "Row": 207 }, "geometry": { "type": "Point", "coordinates": [ -0.296265, 51.051795 ] } },
{ "type": "Feature", "properties": { "Row": 207 }, "geometry": { "type": "Point", "coordinates": [ -0.295576, 51.050544 ] } },
{ "type": "Feature", "properties": { "Row": 208 }, "geometry": { "type": "Point", "coordinates": [ -0.296233, 51.051799 ] } },
{ "type": "Feature", "properties": { "Row": 208 }, "geometry": { "type": "Point", "coordinates": [ -0.295538, 51.050538 ] } },
{ "type": "Feature", "properties": { "Row": 209 }, "geometry": { "type": "Point", "coordinates": [ -0.296205, 51.051808 ] } },
{ "type": "Feature", "properties": { "Row": 209 }, "geometry": { "type": "Point", "coordinates": [ -0.295502, 51.050532 ] } },
{ "type": "Feature", "properties": { "Row": 210 }, "geometry": { "type": "Point", "coordinates": [ -0.296176, 51.051815 ] } },
{ "type": "Feature", "properties": { "Row": 210 }, "geometry": { "type": "Point", "coordinates": [ -0.295469, 51.050529 ] } },
{ "type": "Feature", "properties": { "Row": 211 }, "geometry": { "type": "Point", "coordinates": [ -0.296145, 51.051823 ] } },
{ "type": "Feature", "properties": { "Row": 211 }, "geometry": { "type": "Point", "coordinates": [ -0.295437, 51.050534 ] } },
{ "type": "Feature", "properties": { "Row": 212 }, "geometry": { "type": "Point", "coordinates": [ -0.296116, 51.051829 ] } },
{ "type": "Feature", "properties": { "Row": 212 }, "geometry": { "type": "Point", "coordinates": [ -0.295406, 51.050541 ] } },
{ "type": "Feature", "properties": { "Row": 213 }, "geometry": { "type": "Point", "coordinates": [ -0.296086, 51.051836 ] } },
{ "type": "Feature", "properties": { "Row": 213 }, "geometry": { "type": "Point", "coordinates": [ -0.295375, 51.050546 ] } },
{ "type": "Feature", "properties": { "Row": 214 }, "geometry": { "type": "Point", "coordinates": [ -0.296057, 51.051842 ] } },
{ "type": "Feature", "properties": { "Row": 214 }, "geometry": { "type": "Point", "coordinates": [ -0.295347, 51.050554 ] } },
{ "type": "Feature", "properties": { "Row": 215 }, "geometry": { "type": "Point", "coordinates": [ -0.296027, 51.051848 ] } },
{ "type": "Feature", "properties": { "Row": 215 }, "geometry": { "type": "Point", "coordinates": [ -0.295316, 51.05056 ] } },
{ "type": "Feature", "properties": { "Row": 216 }, "geometry": { "type": "Point", "coordinates": [ -0.295998, 51.051854 ] } },
{ "type": "Feature", "properties": { "Row": 216 }, "geometry": { "type": "Point", "coordinates": [ -0.295286, 51.050567 ] } },
{ "type": "Feature", "properties": { "Row": 217 }, "geometry": { "type": "Point", "coordinates": [ -0.295968, 51.051861 ] } },
{ "type": "Feature", "properties": { "Row": 217 }, "geometry": { "type": "Point", "coordinates": [ -0.295256, 51.050573 ] } },
{ "type": "Feature", "properties": { "Row": 218 }, "geometry": { "type": "Point", "coordinates": [ -0.295938, 51.051868 ] } },
{ "type": "Feature", "properties": { "Row": 218 }, "geometry": { "type": "Point", "coordinates": [ -0.295228, 51.050579 ] } },
{ "type": "Feature", "properties": { "Row": 219 }, "geometry": { "type": "Point", "coordinates": [ -0.295907, 51.051872 ] } },
{ "type": "Feature", "properties": { "Row": 219 }, "geometry": { "type": "Point", "coordinates": [ -0.295196, 51.050585 ] } },
{ "type": "Feature", "properties": { "Row": 220 }, "geometry": { "type": "Point", "coordinates": [ -0.295878, 51.05188 ] } },
{ "type": "Feature", "properties": { "Row": 220 }, "geometry": { "type": "Point", "coordinates": [ -0.295168, 51.050592 ] } },
{ "type": "Feature", "properties": { "Row": 221 }, "geometry": { "type": "Point", "coordinates": [ -0.295848, 51.051887 ] } },
{ "type": "Feature", "properties": { "Row": 221 }, "geometry": { "type": "Point", "coordinates": [ -0.295139, 51.050598 ] } },
{ "type": "Feature", "properties": { "Row": 222 }, "geometry": { "type": "Point", "coordinates": [ -0.295817, 51.051893 ] } },
{ "type": "Feature", "properties": { "Row": 222 }, "geometry": { "type": "Point", "coordinates": [ -0.295112, 51.050608 ] } },
{ "type": "Feature", "properties": { "Row": 223 }, "geometry": { "type": "Point", "coordinates": [ -0.29579, 51.051899 ] } },
{ "type": "Feature", "properties": { "Row": 223 }, "geometry": { "type": "Point", "coordinates": [ -0.295083, 51.050615 ] } },
{ "type": "Feature", "properties": { "Row": 224 }, "geometry": { "type": "Point", "coordinates": [ -0.29576, 51.051906 ] } },
{ "type": "Feature", "properties": { "Row": 224 }, "geometry": { "type": "Point", "coordinates": [ -0.295054, 51.050625 ] } },
{ "type": "Feature", "properties": { "Row": 225 }, "geometry": { "type": "Point", "coordinates": [ -0.295729, 51.051912 ] } },
{ "type": "Feature", "properties": { "Row": 225 }, "geometry": { "type": "Point", "coordinates": [ -0.295026, 51.050634 ] } },
{ "type": "Feature", "properties": { "Row": 226 }, "geometry": { "type": "Point", "coordinates": [ -0.295697, 51.051918 ] } },
{ "type": "Feature", "properties": { "Row": 226 }, "geometry": { "type": "Point", "coordinates": [ -0.294997, 51.050642 ] } },
{ "type": "Feature", "properties": { "Row": 227 }, "geometry": { "type": "Point", "coordinates": [ -0.295671, 51.051925 ] } },
{ "type": "Feature", "properties": { "Row": 227 }, "geometry": { "type": "Point", "coordinates": [ -0.29497, 51.05065 ] } },
{ "type": "Feature", "properties": { "Row": 228 }, "geometry": { "type": "Point", "coordinates": [ -0.29564, 51.051932 ] } },
{ "type": "Feature", "properties": { "Row": 228 }, "geometry": { "type": "Point", "coordinates": [ -0.294941, 51.05066 ] } },
{ "type": "Feature", "properties": { "Row": 229 }, "geometry": { "type": "Point", "coordinates": [ -0.295613, 51.051939 ] } },
{ "type": "Feature", "properties": { "Row": 229 }, "geometry": { "type": "Point", "coordinates": [ -0.294914, 51.050675 ] } },
{ "type": "Feature", "properties": { "Row": 230 }, "geometry": { "type": "Point", "coordinates": [ -0.295581, 51.051944 ] } },
{ "type": "Feature", "properties": { "Row": 230 }, "geometry": { "type": "Point", "coordinates": [ -0.29489, 51.050689 ] } },
{ "type": "Feature", "properties": { "Row": 231 }, "geometry": { "type": "Point", "coordinates": [ -0.295552, 51.051951 ] } },
{ "type": "Feature", "properties": { "Row": 231 }, "geometry": { "type": "Point", "coordinates": [ -0.294865, 51.050705 ] } },
{ "type": "Feature", "properties": { "Row": 232 }, "geometry": { "type": "Point", "coordinates": [ -0.295521, 51.051958 ] } },
{ "type": "Feature", "properties": { "Row": 232 }, "geometry": { "type": "Point", "coordinates": [ -0.29484, 51.05072 ] } },
{ "type": "Feature", "properties": { "Row": 233 }, "geometry": { "type": "Point", "coordinates": [ -0.295492, 51.051964 ] } },
{ "type": "Feature", "id": 465, "properties": { "Row": 233 }, "geometry": { "type": "Point", "coordinates": [ -0.294816, 51.050735 ] } },
{ "type": "Feature", "properties": { "Row": 234 }, "geometry": { "type": "Point", "coordinates": [ -0.295462, 51.051971 ] } },
{ "type": "Feature", "id": 467, "properties": { "Row": 234 }, "geometry": { "type": "Point", "coordinates": [ -0.294789, 51.050751 ] } },
{ "type": "Feature", "id": 468, "properties": { "Row": 235 }, "geometry": { "type": "Point", "coordinates": [ -0.295432, 51.051977 ] } },
{ "type": "Feature", "id": 469, "properties": { "Row": 235 }, "geometry": { "type": "Point", "coordinates": [ -0.29525, 51.051643 ] } },
{ "type": "Feature", "id": 470, "properties": { "Row": 236 }, "geometry": { "type": "Point", "coordinates": [ -0.295403, 51.051984 ] } },
{ "type": "Feature", "id": 471, "properties": { "Row": 236 }, "geometry": { "type": "Point", "coordinates": [ -0.295219, 51.051649 ] } },
{ "type": "Feature", "id": 472, "properties": { "Row": 237 }, "geometry": { "type": "Point", "coordinates": [ -0.295372, 51.051988 ] } },
{ "type": "Feature", "id": 473, "properties": { "Row": 237 }, "geometry": { "type": "Point", "coordinates": [ -0.295189, 51.051655 ] } },
{ "type": "Feature", "id": 474, "properties": { "Row": 238 }, "geometry": { "type": "Point", "coordinates": [ -0.295344, 51.051996 ] } },
{ "type": "Feature", "id": 475, "properties": { "Row": 238 }, "geometry": { "type": "Point", "coordinates": [ -0.295158, 51.051661 ] } },
{ "type": "Feature", "id": 476, "properties": { "Row": 239 }, "geometry": { "type": "Point", "coordinates": [ -0.295314, 51.052002 ] } },
{ "type": "Feature", "id": 477, "properties": { "Row": 239 }, "geometry": { "type": "Point", "coordinates": [ -0.295129, 51.051668 ] } },
{ "type": "Feature", "id": 478, "properties": { "Row": 240 }, "geometry": { "type": "Point", "coordinates": [ -0.295285, 51.052008 ] } },
{ "type": "Feature", "id": 479, "properties": { "Row": 240 }, "geometry": { "type": "Point", "coordinates": [ -0.295099, 51.051674 ] } },
{ "type": "Feature", "id": 480, "properties": { "Row": 257 }, "geometry": { "type": "Point", "coordinates": [ -0.295142, 51.051449 ] } },
{ "type": "Feature", "id": 481, "properties": { "Row": 257 }, "geometry": { "type": "Point", "coordinates": [ -0.294768, 51.050771 ] } },
{ "type": "Feature", "id": 482, "properties": { "Row": 258 }, "geometry": { "type": "Point", "coordinates": [ -0.295113, 51.051457 ] } },
{ "type": "Feature", "id": 483, "properties": { "Row": 258 }, "geometry": { "type": "Point", "coordinates": [ -0.294746, 51.050792 ] } },
{ "type": "Feature", "id": 484, "properties": { "Row": 259 }, "geometry": { "type": "Point", "coordinates": [ -0.295084, 51.051463 ] } },
{ "type": "Feature", "id": 485, "properties": { "Row": 259 }, "geometry": { "type": "Point", "coordinates": [ -0.294724, 51.050812 ] } },
{ "type": "Feature", "id": 486, "properties": { "Row": 260 }, "geometry": { "type": "Point", "coordinates": [ -0.295053, 51.051469 ] } },
{ "type": "Feature", "id": 487, "properties": { "Row": 260 }, "geometry": { "type": "Point", "coordinates": [ -0.294702, 51.050832 ] } },
{ "type": "Feature", "id": 488, "properties": { "Row": 261 }, "geometry": { "type": "Point", "coordinates": [ -0.295024, 51.051476 ] } },
{ "type": "Feature", "id": 489, "properties": { "Row": 261 }, "geometry": { "type": "Point", "coordinates": [ -0.29468, 51.050852 ] } },
{ "type": "Feature", "id": 490, "properties": { "Row": 262 }, "geometry": { "type": "Point", "coordinates": [ -0.294996, 51.051484 ] } },
{ "type": "Feature", "id": 491, "properties": { "Row": 262 }, "geometry": { "type": "Point", "coordinates": [ -0.294657, 51.050873 ] } },
{ "type": "Feature", "id": 492, "properties": { "Row": 242 }, "geometry": { "type": "Point", "coordinates": [ -0.295255, 51.052016 ] } },
{ "type": "Feature", "id": 493, "properties": { "Row": 242 }, "geometry": { "type": "Point", "coordinates": [ -0.294636, 51.050893 ] } },
{ "type": "Feature", "id": 494, "properties": { "Row": 243 }, "geometry": { "type": "Point", "coordinates": [ -0.295225, 51.052022 ] } },
{ "type": "Feature", "properties": { "Row": 243 }, "geometry": { "type": "Point", "coordinates": [ -0.294616, 51.050914 ] } },
{ "type": "Feature", "properties": { "Row": 244 }, "geometry": { "type": "Point", "coordinates": [ -0.295195, 51.052028 ] } },
{ "type": "Feature", "properties": { "Row": 244 }, "geometry": { "type": "Point", "coordinates": [ -0.294592, 51.050934 ] } },
{ "type": "Feature", "properties": { "Row": 245 }, "geometry": { "type": "Point", "coordinates": [ -0.295166, 51.052036 ] } },
{ "type": "Feature", "properties": { "Row": 245 }, "geometry": { "type": "Point", "coordinates": [ -0.29457, 51.050956 ] } },
{ "type": "Feature", "properties": { "Row": 246 }, "geometry": { "type": "Point", "coordinates": [ -0.295136, 51.052042 ] } },
{ "type": "Feature", "properties": { "Row": 246 }, "geometry": { "type": "Point", "coordinates": [ -0.294549, 51.050976 ] } },
{ "type": "Feature", "properties": { "Row": 247 }, "geometry": { "type": "Point", "coordinates": [ -0.295106, 51.052047 ] } },
{ "type": "Feature", "properties": { "Row": 247 }, "geometry": { "type": "Point", "coordinates": [ -0.294526, 51.050996 ] } },
{ "type": "Feature", "properties": { "Row": 248 }, "geometry": { "type": "Point", "coordinates": [ -0.295078, 51.052055 ] } },
{ "type": "Feature", "properties": { "Row": 248 }, "geometry": { "type": "Point", "coordinates": [ -0.294504, 51.051016 ] } },
{ "type": "Feature", "properties": { "Row": 249 }, "geometry": { "type": "Point", "coordinates": [ -0.295048, 51.052062 ] } },
{ "type": "Feature", "properties": { "Row": 249 }, "geometry": { "type": "Point", "coordinates": [ -0.294483, 51.051037 ] } },
{ "type": "Feature", "properties": { "Row": 250 }, "geometry": { "type": "Point", "coordinates": [ -0.295017, 51.052068 ] } },
{ "type": "Feature", "properties": { "Row": 250 }, "geometry": { "type": "Point", "coordinates": [ -0.294461, 51.051057 ] } },
{ "type": "Feature", "properties": { "Row": 251 }, "geometry": { "type": "Point", "coordinates": [ -0.294988, 51.052072 ] } },
{ "type": "Feature", "properties": { "Row": 251 }, "geometry": { "type": "Point", "coordinates": [ -0.294438, 51.051078 ] } },
{ "type": "Feature", "properties": { "Row": 252 }, "geometry": { "type": "Point", "coordinates": [ -0.294958, 51.052079 ] } },
{ "type": "Feature", "properties": { "Row": 252 }, "geometry": { "type": "Point", "coordinates": [ -0.294416, 51.051098 ] } },
{ "type": "Feature", "properties": { "Row": 253 }, "geometry": { "type": "Point", "coordinates": [ -0.294928, 51.052087 ] } },
{ "type": "Feature", "properties": { "Row": 253 }, "geometry": { "type": "Point", "coordinates": [ -0.294394, 51.051118 ] } },
{ "type": "Feature", "properties": { "Row": 254 }, "geometry": { "type": "Point", "coordinates": [ -0.2949, 51.052093 ] } },
{ "type": "Feature", "properties": { "Row": 254 }, "geometry": { "type": "Point", "coordinates": [ -0.294373, 51.051139 ] } },
{ "type": "Feature", "properties": { "Row": 255 }, "geometry": { "type": "Point", "coordinates": [ -0.294869, 51.052099 ] } },
{ "type": "Feature", "properties": { "Row": 255 }, "geometry": { "type": "Point", "coordinates": [ -0.294353, 51.051161 ] } },
{ "type": "Feature", "id": 520, "properties": { "Row": 256 }, "geometry": { "type": "Point", "coordinates": [ -0.29484, 51.052107 ] } },
{ "type": "Feature", "properties": { "Row": 256 }, "geometry": { "type": "Point", "coordinates": [ -0.294332, 51.051182 ] } }
]
}
