{
  "type": "FeatureCollection",
  "features": [
    {
      "type": "Feature",
      "geometry": {
        "type": "Point",
        "coordinates": [
          -0.5243133137330244,
          53.26812855182554
        ]
      },
      "properties": {
        "confidence": 0.9999133348464966,
        "row_id": 61,
        "image": "DJI_20240802143002_0043_W.JPG"
      }
    },
    {
      "type": "Feature",
      "geometry": {
        "type": "Point",
        "coordinates": [
          -0.5245190832948101,
          53.26810953194886
        ]
      },
      "properties": {
        "confidence": 0.9998993873596191,
        "row_id": 43,
        "image": "DJI_20240802143031_0057_W.JPG"
      }
    },
    {
      "type": "Feature",
      "geometry": {
        "type": "Point",
        "coordinates": [
          -0.5245061301103445,
          53.26806724588947
        ]
      },
      "properties": {
        "confidence": 0.9998770952224731,
        "row_id": 43,
        "image": "DJI_20240802143246_0120_W.JPG"
      }
    },
    {
      "type": "Feature",
      "geometry": {
        "type": "Point",
        "coordinates": [
          -0.5243950846822419,
          53.268077502617395
        ]
      },
      "properties": {
        "confidence": 0.9998599290847778,
        "row_id": 61,
        "image": "DJI_20240802143255_0124_W.JPG"
      }
    },
    {
      "type": "Feature",
      "geometry": {
        "type": "Point",
        "coordinates": [
          -0.5243509867447107,
          53.268129073299846
        ]
      },
      "properties": {
        "confidence": 0.9997344613075256,
        "row_id": 25,
        "image": "DJI_20240802143104_0072_W.JPG"
      }
    },
    {
      "type": "Feature",
      "geometry": {
        "type": "Point",
        "coordinates": [
          -0.524329089944919,
          53.26807993692283
        ]
      },
      "properties": {
        "confidence": 0.9997115731239319,
        "row_id": 20,
        "image": "DJI_20240802143205_0101_W.JPG"
      }
    },
    {
      "type": "Feature",
      "geometry": {
        "type": "Point",
        "coordinates": [
          -0.5245667120601966,
          53.268164922941416
        ]
      },
      "properties": {
        "confidence": 0.9997065663337708,
        "row_id": 14,
        "image": "DJI_20240802142931_0029_W.JPG"
      }
    },
    {
      "type": "Feature",
      "geometry": {
        "type": "Point",
        "coordinates": [
          -0.5243475651536772,
          53.268186158975105
        ]
      },
      "properties": {
        "confidence": 0.9996460676193237,
        "row_id": 106,
        "image": "DJI_20240802142955_0040_W.JPG"
      }
    },
    {
      "type": "Feature",
      "geometry": {
        "type": "Point",
        "coordinates": [
          -0.5244919322547079,
          53.26811665825413
        ]
      },
      "properties": {
        "confidence": 0.9996230602264404,
        "row_id": 100,
        "image": "DJI_20240802143115_0077_W.JPG"
      }
    },
    {
      "type": "Feature",
      "geometry": {
        "type": "Point",
        "coordinates": [
          -0.5244215813262539,
          53.26817943914214
        ]
      },
      "properties": {
        "confidence": 0.9995943903923035,
        "row_id": 104,
        "image": "DJI_20240802142951_0038_W.JPG"
      }
    },
    {
      "type": "Feature",
      "geometry": {
        "type": "Point",
        "coordinates": [
          -0.5243910377128052,
          53.268177558970564
        ]
      },
      "properties": {
        "confidence": 0.9995837807655334,
        "row_id": 39,
        "image": "DJI_20240802143006_0045_W.JPG"
      }
    },
    {
      "type": "Feature",
      "geometry": {
        "type": "Point",
        "coordinates": [
          -0.5243811380237807,
          53.26812651072111
        ]
      },
      "properties": {
        "confidence": 0.9995651841163635,
        "row_id": 73,
        "image": "DJI_20240802143207_0102_W.JPG"
      }
    },
    {
      "type": "Feature",
      "geometry": {
        "type": "Point",
        "coordinates": [
          -0.5242839288826622,
          53.26809325063628
        ]
      },
      "properties": {
        "confidence": 0.9995378255844116,
        "row_id": 62,
        "image": "DJI_20240802142946_0036_W.JPG"
      }
    },
    {
      "type": "Feature",
      "geometry": {
        "type": "Point",
        "coordinates": [
          -0.5244483076437179,
          53.26812453548161
        ]
      },
      "properties": {
        "confidence": 0.999494194984436,
        "row_id": 83,
        "image": "DJI_20240802143051_0066_W.JPG"
      }
    },
    {
      "type": "Feature",
      "geometry": {
        "type": "Point",
        "coordinates": [
          -0.524441798357551,
          53.268069614377126
        ]
      },
      "properties": {
        "confidence": 0.9994848966598511,
        "row_id": 121,
        "image": "DJI_20240802143310_0131_W.JPG"
      }
    },
    {
      "type": "Feature",
      "geometry": {
        "type": "Point",
        "coordinates": [
          -0.5244337586918213,
          53.26801773026822
        ]
      },
      "properties": {
        "confidence": 0.999468982219696,
        "row_id": 38,
        "image": "DJI_20240802143126_0082_W.JPG"
      }
    },
    {
      "type": "Feature",
      "geometry": {
        "type": "Point",
        "coordinates": [
          -0.5244698915878792,
          53.268015045482045
        ]
      },
      "properties": {
        "confidence": 0.9994667172431946,
        "row_id": 112,
        "image": "DJI_20240802143128_0083_W.JPG"
      }
    },
    {
      "type": "Feature",
      "geometry": {
        "type": "Point",
        "coordinates": [
          -0.524366077890628,
          53.26807436025102
        ]
      },
      "properties": {
        "confidence": 0.9992857575416565,
        "row_id": 61,
        "image": "DJI_20240802143119_0079_W.JPG"
      }
    },
    {
      "type": "Feature",
      "geometry": {
        "type": "Point",
        "coordinates": [
          -0.5243575473064677,
          53.268023933423
        ]
      },
      "properties": {
        "confidence": 0.9992471933364868,
        "row_id": 121,
        "image": "DJI_20240802143218_0107_W.JPG"
      }
    },
    {
      "type": "Feature",
      "geometry": {
        "type": "Point",
        "coordinates": [
          -0.5242592876680463,
          53.26808497282935
        ]
      },
      "properties": {
        "confidence": 0.999091386795044,
        "row_id": 80,
        "image": "DJI_20240802143306_0129_W.JPG"
      }
    },
    {
      "type": "Feature",
      "geometry": {
        "type": "Point",
        "coordinates": [
          -0.5242637682040578,
          53.268133403651696
        ]
      },
      "properties": {
        "confidence": 0.9990231990814209,
        "row_id": 109,
        "image": "DJI_20240802143008_0046_W.JPG"
      }
    },
    {
      "type": "Feature",
      "geometry": {
        "type": "Point",
        "coordinates": [
          -0.5245094413000216,
          53.26801179441555
        ]
      },
      "properties": {
        "confidence": 0.998782217502594,
        "row_id": 121,
        "image": "DJI_20240802143130_0084_W.JPG"
      }
    },
    {
      "type": "Feature",
      "geometry": {
        "type": "Point",
        "coordinates": [
          -0.5244089329683812,
          53.268129077021065
        ]
      },
      "properties": {
        "confidence": 0.998749852180481,
        "row_id": 111,
        "image": "DJI_20240802143053_0067_W.JPG"
      }
    },
    {
      "type": "Feature",
      "geometry": {
        "type": "Point",
        "coordinates": [
          -0.5246000265057478,
          53.268106749488645
        ]
      },
      "properties": {
        "confidence": 0.9980971217155457,
        "row_id": 5,
        "image": "DJI_20240802143021_0052_W.JPG"
      }
    },
    {
      "type": "Feature",
      "geometry": {
        "type": "Point",
        "coordinates": [
          -0.5244771516101825,
          53.26806584611653
        ]
      },
      "properties": {
        "confidence": 0.9979975819587708,
        "row_id": 94,
        "image": "DJI_20240802143225_0110_W.JPG"
      }
    },
    {
      "type": "Feature",
      "geometry": {
        "type": "Point",
        "coordinates": [
          -0.5242751653148351,
          53.26815506781027
        ]
      },
      "properties": {
        "confidence": 0.997920572757721,
        "row_id": 22,
        "image": "DJI_20240802143108_0074_W.JPG"
      }
    },
    {
      "type": "Feature",
      "geometry": {
        "type": "Point",
        "coordinates": [
          -0.5245020596369309,
          53.26816593095533
        ]
      },
      "properties": {
        "confidence": 0.9976730942726135,
        "row_id": 47,
        "image": "DJI_20240802143012_0048_W.JPG"
      }
    },
    {
      "type": "Feature",
      "geometry": {
        "type": "Point",
        "coordinates": [
          -0.5245330612882793,
          53.26817016286607
        ]
      },
      "properties": {
        "confidence": 0.9974710941314697,
        "row_id": 104,
        "image": "DJI_20240802142935_0031_W.JPG"
      }
    },
    {
      "type": "Feature",
      "geometry": {
        "type": "Point",
        "coordinates": [
          -0.5242770304347729,
          53.26818554915395
        ]
      },
      "properties": {
        "confidence": 0.9971283078193665,
        "row_id": 89,
        "image": "DJI_20240802143008_0046_W.JPG"
      }
    },
    {
      "type": "Feature",
      "geometry": {
        "type": "Point",
        "coordinates": [
          -0.5242814984589059,
          53.268030423547316
        ]
      },
      "properties": {
        "confidence": 0.9971057772636414,
        "row_id": 115,
        "image": "DJI_20240802143214_0105_W.JPG"
      }
    },
    {
      "type": "Feature",
      "geometry": {
        "type": "Point",
        "coordinates": [
          -0.5246198330769902,
          53.26815942431664
        ]
      },
      "properties": {
        "confidence": 0.9967767596244812,
        "row_id": 5,
        "image": "DJI_20240802142921_0024_W.JPG"
      }
    },
    {
      "type": "Feature",
      "geometry": {
        "type": "Point",
        "coordinates": [
          -0.524560021150017,
          53.26810861064634
        ]
      },
      "properties": {
        "confidence": 0.9967560172080994,
        "row_id": 81,
        "image": "DJI_20240802142929_0028_W.JPG"
      }
    },
    {
      "type": "Feature",
      "geometry": {
        "type": "Point",
        "coordinates": [
          -0.5243904812288585,
          53.26802112694989
        ]
      },
      "properties": {
        "confidence": 0.9962314963340759,
        "row_id": 121,
        "image": "DJI_20240802143220_0108_W.JPG"
      }
    },
    {
      "type": "Feature",
      "geometry": {
        "type": "Point",
        "coordinates": [
          -0.5243182121832171,
          53.268183224051725
        ]
      },
      "properties": {
        "confidence": 0.9930592775344849,
        "row_id": 89,
        "image": "DJI_20240802142910_0019_W.JPG"
      }
    },
    {
      "type": "Feature",
      "geometry": {
        "type": "Point",
        "coordinates": [
          -0.5244581164371364,
          53.268176123400096
        ]
      },
      "properties": {
        "confidence": 0.9920874238014221,
        "row_id": 126,
        "image": "DJI_20240802143042_0062_W.JPG"
      }
    },
    {
      "type": "Feature",
      "geometry": {
        "type": "Point",
        "coordinates": [
          -0.5245663651717278,
          53.26801278677931
        ]
      },
      "properties": {
        "confidence": 0.990260660648346,
        "row_id": 123,
        "image": "DJI_20240802143240_0117_W.JPG"
      }
    },
    {
      "type": "Feature",
      "geometry": {
        "type": "Point",
        "coordinates": [
          -0.5247223787878509,
          53.268113431903004
        ]
      },
      "properties": {
        "confidence": 0.9901564121246338,
        "row_id": 127,
        "image": "DJI_20240802142931_0029_W.JPG"
      }
    },
    {
      "type": "Feature",
      "geometry": {
        "type": "Point",
        "coordinates": [
          -0.5242410428603369,
          53.26803365168302
        ]
      },
      "properties": {
        "confidence": 0.9862130880355835,
        "row_id": 34,
        "image": "DJI_20240802143212_0104_W.JPG"
      }
    },
    {
      "type": "Feature",
      "geometry": {
        "type": "Point",
        "coordinates": [
          -0.5245351316187982,
          53.268010649156096
        ]
      },
      "properties": {
        "confidence": 0.9833604097366333,
        "row_id": 51,
        "image": "DJI_20240802143031_0057_W.JPG"
      }
    },
    {
      "type": "Feature",
      "geometry": {
        "type": "Point",
        "coordinates": [
          -0.5243087043130383,
          53.268035563792544
        ]
      },
      "properties": {
        "confidence": 0.9752521514892578,
        "row_id": 95,
        "image": "DJI_20240802143249_0121_W.JPG"
      }
    },
    {
      "type": "Feature",
      "geometry": {
        "type": "Point",
        "coordinates": [
          -0.5244015757000253,
          53.26810383113936
        ]
      },
      "properties": {
        "confidence": 0.9592885375022888,
        "row_id": 101,
        "image": "DJI_20240802143244_0119_W.JPG"
      }
    },
    {
      "type": "Feature",
      "geometry": {
        "type": "Point",
        "coordinates": [
          -0.5242964200377812,
          53.26811238370883
        ]
      },
      "properties": {
        "confidence": 0.9565045237541199,
        "row_id": 111,
        "image": "DJI_20240802143012_0048_W.JPG"
      }
    },
    {
      "type": "Feature",
      "geometry": {
        "type": "Point",
        "coordinates": [
          -0.5245489853380234,
          53.26804734889131
        ]
      },
      "properties": {
        "confidence": 0.9438485503196716,
        "row_id": 81,
        "image": "DJI_20240802143028_0055_W.JPG"
      }
    },
    {
      "type": "Feature",
      "geometry": {
        "type": "Point",
        "coordinates": [
          -0.5244277405889946,
          53.26810631348696
        ]
      },
      "properties": {
        "confidence": 0.9438163042068481,
        "row_id": 61,
        "image": "DJI_20240802142937_0032_W.JPG"
      }
    },
    {
      "type": "Feature",
      "geometry": {
        "type": "Point",
        "coordinates": [
          -0.5244293018829769,
          53.268140501343645
        ]
      },
      "properties": {
        "confidence": 0.9407911896705627,
        "row_id": 111,
        "image": "DJI_20240802143010_0047_W.JPG"
      }
    },
    {
      "type": "Feature",
      "geometry": {
        "type": "Point",
        "coordinates": [
          -0.5245572022918067,
          53.268129209723085
        ]
      },
      "properties": {
        "confidence": 0.9364568591117859,
        "row_id": 14,
        "image": "DJI_20240802143035_0059_W.JPG"
      }
    },
    {
      "type": "Feature",
      "geometry": {
        "type": "Point",
        "coordinates": [
          -0.5242944221547986,
          53.26813929245908
        ]
      },
      "properties": {
        "confidence": 0.926580011844635,
        "row_id": 80,
        "image": "DJI_20240802143057_0069_W.JPG"
      }
    },
    {
      "type": "Feature",
      "geometry": {
        "type": "Point",
        "coordinates": [
          -0.5245775651264986,
          53.26806061103846
        ]
      },
      "properties": {
        "confidence": 0.9240074157714844,
        "row_id": 92,
        "image": "DJI_20240802143242_0118_W.JPG"
      }
    },
    {
      "type": "Feature",
      "geometry": {
        "type": "Point",
        "coordinates": [
          -0.5241836458850525,
          53.2682215670244
        ]
      },
      "properties": {
        "confidence": 0.9093344211578369,
        "row_id": null,
        "image": "DJI_20240802142957_0041_W.JPG"
      }
    },
    {
      "type": "Feature",
      "geometry": {
        "type": "Point",
        "coordinates": [
          -0.5244719466488934,
          53.268045369606234
        ]
      },
      "properties": {
        "confidence": 0.8984418511390686,
        "row_id": 97,
        "image": "DJI_20240802143249_0121_W.JPG"
      }
    },
    {
      "type": "Feature",
      "geometry": {
        "type": "Point",
        "coordinates": [
          -0.5243419176046396,
          53.26804040708022
        ]
      },
      "properties": {
        "confidence": 0.8966084122657776,
        "row_id": 74,
        "image": "DJI_20240802143053_0067_W.JPG"
      }
    },
    {
      "type": "Feature",
      "geometry": {
        "type": "Point",
        "coordinates": [
          -0.5244936998305674,
          53.26814993332418
        ]
      },
      "properties": {
        "confidence": 0.8951420783996582,
        "row_id": 79,
        "image": "DJI_20240802143023_0053_W.JPG"
      }
    },
    {
      "type": "Feature",
      "geometry": {
        "type": "Point",
        "coordinates": [
          -0.5245886900251955,
          53.26807493204432
        ]
      },
      "properties": {
        "confidence": 0.886583149433136,
        "row_id": 55,
        "image": "DJI_20240802142937_0032_W.JPG"
      }
    },
    {
      "type": "Feature",
      "geometry": {
        "type": "Point",
        "coordinates": [
          -0.5243073446508306,
          53.26819860626315
        ]
      },
      "properties": {
        "confidence": 0.8856633305549622,
        "row_id": 109,
        "image": "DJI_20240802143053_0067_W.JPG"
      }
    },
    {
      "type": "Feature",
      "geometry": {
        "type": "Point",
        "coordinates": [
          -0.5244464180125866,
          53.268152901445234
        ]
      },
      "properties": {
        "confidence": 0.8668810725212097,
        "row_id": 8,
        "image": "DJI_20240802142937_0032_W.JPG"
      }
    },
    {
      "type": "Feature",
      "geometry": {
        "type": "Point",
        "coordinates": [
          -0.5244235854527632,
          53.268047862011166
        ]
      },
      "properties": {
        "confidence": 0.8282243013381958,
        "row_id": 40,
        "image": "DJI_20240802143040_0061_W.JPG"
      }
    },
    {
      "type": "Feature",
      "geometry": {
        "type": "Point",
        "coordinates": [
          -0.5243373606564062,
          53.268107594936865
        ]
      },
      "properties": {
        "confidence": 0.8177307844161987,
        "row_id": 73,
        "image": "DJI_20240802143200_0098_W.JPG"
      }
    },
    {
      "type": "Feature",
      "geometry": {
        "type": "Point",
        "coordinates": [
          -0.5247237179775381,
          53.26808689537324
        ]
      },
      "properties": {
        "confidence": 0.7255593538284302,
        "row_id": 127,
        "image": "DJI_20240802143030_0056_W.JPG"
      }
    },
    {
      "type": "Feature",
      "geometry": {
        "type": "Point",
        "coordinates": [
          -0.5242827540386593,
          53.26805471070134
        ]
      },
      "properties": {
        "confidence": 0.6975167393684387,
        "row_id": 22,
        "image": "DJI_20240802143214_0105_W.JPG"
      }
    },
    {
      "type": "Feature",
      "geometry": {
        "type": "Point",
        "coordinates": [
          -0.5243914015366044,
          53.26805894952809
        ]
      },
      "properties": {
        "confidence": 0.6696773171424866,
        "row_id": 108,
        "image": "DJI_20240802143244_0119_W.JPG"
      }
    },
    {
      "type": "Feature",
      "geometry": {
        "type": "Point",
        "coordinates": [
          -0.5243872810394563,
          53.26815226711006
        ]
      },
      "properties": {
        "confidence": 0.6643179655075073,
        "row_id": 85,
        "image": "DJI_20240802143055_0068_W.JPG"
      }
    },
    {
      "type": "Feature",
      "geometry": {
        "type": "Point",
        "coordinates": [
          -0.5243147475002771,
          53.26816454011805
        ]
      },
      "properties": {
        "confidence": 0.6298692226409912,
        "row_id": 82,
        "image": "DJI_20240802143110_0075_W.JPG"
      }
    },
    {
      "type": "Feature",
      "geometry": {
        "type": "Point",
        "coordinates": [
          -0.5243655141858893,
          53.26809853950984
        ]
      },
      "properties": {
        "confidence": 0.5630967020988464,
        "row_id": 19,
        "image": "DJI_20240802143216_0106_W.JPG"
      }
    },
    {
      "type": "Feature",
      "geometry": {
        "type": "Point",
        "coordinates": [
          -0.5242674576584572,
          53.26820017090789
        ]
      },
      "properties": {
        "confidence": 0.553474485874176,
        "row_id": 20,
        "image": "DJI_20240802143055_0068_W.JPG"
      }
    },
    {
      "type": "Feature",
      "geometry": {
        "type": "Point",
        "coordinates": [
          -0.5245879493727211,
          53.268024030365
        ]
      },
      "properties": {
        "confidence": 0.462234765291214,
        "row_id": 97,
        "image": "DJI_20240802143025_0054_W.JPG"
      }
    },
    {
      "type": "Feature",
      "geometry": {
        "type": "Point",
        "coordinates": [
          -0.5244942834879461,
          53.26813383261864
        ]
      },
      "properties": {
        "confidence": 0.3837480843067169,
        "row_id": 100,
        "image": "DJI_20240802142842_0006_W.JPG"
      }
    },
    {
      "type": "Feature",
      "geometry": {
        "type": "Point",
        "coordinates": [
          -0.5243366623756386,
          53.268154670141065
        ]
      },
      "properties": {
        "confidence": 0.36804527044296265,
        "row_id": 106,
        "image": "DJI_20240802143049_0065_W.JPG"
      }
    },
    {
      "type": "Feature",
      "geometry": {
        "type": "Point",
        "coordinates": [
          -0.5244486791211967,
          53.26809218747623
        ]
      },
      "properties": {
        "confidence": 0.32244354486465454,
        "row_id": 48,
        "image": "DJI_20240802143218_0107_W.JPG"
      }
    },
    {
      "type": "Feature",
      "geometry": {
        "type": "Point",
        "coordinates": [
          -0.524295955198885,
          53.26806928790601
        ]
      },
      "properties": {
        "confidence": 0.3197542428970337,
        "row_id": 98,
        "image": "DJI_20240802143304_0128_W.JPG"
      }
    },
    {
      "type": "Feature",
      "geometry": {
        "type": "Point",
        "coordinates": [
          -0.5246080287659587,
          53.268122824562745
        ]
      },
      "properties": {
        "confidence": 0.3153607249259949,
        "row_id": 81,
        "image": "DJI_20240802143126_0082_W.JPG"
      }
    }
  ]
}