{
  "type": "FeatureCollection",
  "features": [
    {
      "type": "Feature",
      "geometry": {
        "type": "LineString",
        "coordinates": [
          [
            -0.5245942044796797,
            53.26810699720366
          ],
          [
            -0.5244033932316016,
            53.26811698220918
          ]
        ]
      },
      "properties": {
        "row_id": 1,
        "num_poles": 2
      }
    },
    {
      "type": "Feature",
      "geometry": {
        "type": "LineString",
        "coordinates": [
          [
            -0.5243814418978794,
            53.26802761521155
          ],
          [
            -0.524300385411266,
            53.26809562741022
          ],
          [
            -0.5242550068416946,
            53.268133758340284
          ]
        ]
      },
      "properties": {
        "row_id": 5,
        "num_poles": 3
      }
    },
    {
      "type": "Feature",
      "geometry": {
        "type": "LineString",
        "coordinates": [
          [
            -0.5246059344029889,
            53.26807946320299
          ],
          [
            -0.5246876785461312,
            53.26807951424067
          ]
        ]
      },
      "properties": {
        "row_id": 13,
        "num_poles": 2
      }
    },
    {
      "type": "Feature",
      "geometry": {
        "type": "LineString",
        "coordinates": [
          [
            -0.5245380895947847,
            53.268166462513705
          ],
          [
            -0.5244123176257791,
            53.268168330746875
          ]
        ]
      },
      "properties": {
        "row_id": 23,
        "num_poles": 2
      }
    },
    {
      "type": "Feature",
      "geometry": {
        "type": "LineString",
        "coordinates": [
          [
            -0.5244054523278382,
            53.26807787713718
          ],
          [
            -0.5243660477233762,
            53.26808129675553
          ]
        ]
      },
      "properties": {
        "row_id": 31,
        "num_poles": 2
      }
    },
    {
      "type": "Feature",
      "geometry": {
        "type": "LineString",
        "coordinates": [
          [
            -0.5244583916495945,
            53.26815504185922
          ],
          [
            -0.5244901877005075,
            53.26816845631932
          ]
        ]
      },
      "properties": {
        "row_id": 34,
        "num_poles": 2
      }
    },
    {
      "type": "Feature",
      "geometry": {
        "type": "LineString",
        "coordinates": [
          [
            -0.5243603448963903,
            53.26812342054139
          ],
          [
            -0.524343416191953,
            53.26813584987761
          ],
          [
            -0.5243917187290394,
            53.26818353752006
          ]
        ]
      },
      "properties": {
        "row_id": 47,
        "num_poles": 3
      }
    },
    {
      "type": "Feature",
      "geometry": {
        "type": "LineString",
        "coordinates": [
          [
            -0.5245702889849447,
            53.2680108410415
          ],
          [
            -0.5244941936605686,
            53.26801764903491
          ]
        ]
      },
      "properties": {
        "row_id": 52,
        "num_poles": 2
      }
    },
    {
      "type": "Feature",
      "geometry": {
        "type": "LineString",
        "coordinates": [
          [
            -0.5242904105844916,
            53.268045523364734
          ],
          [
            -0.5242431102140324,
            53.26808466580897
          ]
        ]
      },
      "properties": {
        "row_id": 64,
        "num_poles": 2
      }
    },
    {
      "type": "Feature",
      "geometry": {
        "type": "LineString",
        "coordinates": [
          [
            -0.524336884165337,
            53.26828455720471
          ],
          [
            -0.5243137468652233,
            53.26829909860201
          ]
        ]
      },
      "properties": {
        "row_id": 70,
        "num_poles": 2
      }
    },
    {
      "type": "Feature",
      "geometry": {
        "type": "LineString",
        "coordinates": [
          [
            -0.524424754251499,
            53.26802705266566
          ],
          [
            -0.5243111589333675,
            53.26803099379163
          ],
          [
            -0.5242745036825253,
            53.26803261008677
          ]
        ]
      },
      "properties": {
        "row_id": 71,
        "num_poles": 3
      }
    },
    {
      "type": "Feature",
      "geometry": {
        "type": "LineString",
        "coordinates": [
          [
            -0.5245460313808811,
            53.268067432237395
          ],
          [
            -0.5245014362233679,
            53.268069346304934
          ],
          [
            -0.5248143716498042,
            53.26818663240503
          ]
        ]
      },
      "properties": {
        "row_id": 85,
        "num_poles": 3
      }
    },
    {
      "type": "Feature",
      "geometry": {
        "type": "LineString",
        "coordinates": [
          [
            -0.5243298553800186,
            53.268122071398246
          ],
          [
            -0.5243796886115775,
            53.26813349716353
          ],
          [
            -0.5243763030173638,
            53.26816999335779
          ]
        ]
      },
      "properties": {
        "row_id": 90,
        "num_poles": 3
      }
    },
    {
      "type": "Feature",
      "geometry": {
        "type": "LineString",
        "coordinates": [
          [
            -0.5246198105805051,
            53.26816204819769
          ],
          [
            -0.5243403756666859,
            53.26817626016817
          ],
          [
            -0.5245092408590399,
            53.26818160625747
          ],
          [
            -0.5244290804737094,
            53.268182141227065
          ],
          [
            -0.5244691810344274,
            53.2681849194653
          ]
        ]
      },
      "properties": {
        "row_id": 92,
        "num_poles": 5
      }
    }
  ]
}