{
"type": "FeatureCollection",
"name": "posts",
"crs": { "type": "name", "properties": { "name": "urn:ogc:def:crs:OGC:1.3:CRS84" } },
"features": [
{ "type": "Feature", "id": 359, "properties": { "LAYER": "Overhead Structure", "CLASS": 19, "INTENSITY": 2, "RETURN_CNT": 2, "RETURN_NUM": 2, "GPS_TIME": 1743504057.6413684, "EXTRA_S321": 14, "EXTRA_F641": 84.635513, "Row": 188 }, "geometry": { "type": "Point", "coordinates": [ -0.433838904145111, 51.061275648726081 ] } },
{ "type": "Feature", "id": 360, "properties": { "LAYER": "Overhead Structure", "CLASS": 19, "INTENSITY": 2, "RETURN_CNT": 2, "RETURN_NUM": 2, "GPS_TIME": 1743504057.6413684, "EXTRA_S321": 14, "EXTRA_F641": 84.635513, "Row": 187 }, "geometry": { "type": "Point", "coordinates": [ -0.433868108930758, 51.061285448712376 ] } },
{ "type": "Feature", "id": 361, "properties": { "LAYER": "Overhead Structure", "CLASS": 19, "INTENSITY": 2, "RETURN_CNT": 2, "RETURN_NUM": 2, "GPS_TIME": 1743504057.6413684, "EXTRA_S321": 14, "EXTRA_F641": 84.635513, "Row": 186 }, "geometry": { "type": "Point", "coordinates": [ -0.43389779372843, 51.061292677439205 ] } },
{ "type": "Feature", "id": 369, "properties": { "LAYER": "Overhead Structure", "CLASS": 19, "INTENSITY": 2, "RETURN_CNT": 2, "RETURN_NUM": 2, "GPS_TIME": 1743504057.6413684, "EXTRA_S321": 14, "EXTRA_F641": 84.635513, "Row": 191 }, "geometry": { "type": "Point", "coordinates": [ -0.433748461556466, 51.06125186987574 ] } },
{ "type": "Feature", "id": 370, "properties": { "LAYER": "Overhead Structure", "CLASS": 19, "INTENSITY": 2, "RETURN_CNT": 2, "RETURN_NUM": 2, "GPS_TIME": 1743504057.6413684, "EXTRA_S321": 14, "EXTRA_F641": 84.635513, "Row": 190 }, "geometry": { "type": "Point", "coordinates": [ -0.433779548154351, 51.061260192867245 ] } },
{ "type": "Feature", "id": 371, "properties": { "LAYER": "Overhead Structure", "CLASS": 19, "INTENSITY": 2, "RETURN_CNT": 2, "RETURN_NUM": 2, "GPS_TIME": 1743504057.6413684, "EXTRA_S321": 14, "EXTRA_F641": 84.635513, "Row": 189 }, "geometry": { "type": "Point", "coordinates": [ -0.433808205487752, 51.061268121418678 ] } },
{ "type": "Feature", "id": 372, "properties": { "LAYER": "Overhead Structure", "CLASS": 19, "INTENSITY": 2, "RETURN_CNT": 2, "RETURN_NUM": 2, "GPS_TIME": 1743504057.6413684, "EXTRA_S321": 14, "EXTRA_F641": 84.635513, "Row": 185 }, "geometry": { "type": "Point", "coordinates": [ -0.433727341653582, 51.062119459648791 ] } },
{ "type": "Feature", "id": 373, "properties": { "LAYER": "Overhead Structure", "CLASS": 19, "INTENSITY": 2, "RETURN_CNT": 2, "RETURN_NUM": 2, "GPS_TIME": 1743504057.6413684, "EXTRA_S321": 14, "EXTRA_F641": 84.635513, "Row": 192 }, "geometry": { "type": "Point", "coordinates": [ -0.433719018771764, 51.061241527769148 ] } },
{ "type": "Feature", "id": 374, "properties": { "LAYER": "Overhead Structure", "CLASS": 19, "INTENSITY": 2, "RETURN_CNT": 2, "RETURN_NUM": 2, "GPS_TIME": 1743504057.6413684, "EXTRA_S321": 14, "EXTRA_F641": 84.635513, "Row": 194 }, "geometry": { "type": "Point", "coordinates": [ -0.433660424544724, 51.061227042022907 ] } },
{ "type": "Feature", "id": 375, "properties": { "LAYER": "Overhead Structure", "CLASS": 19, "INTENSITY": 2, "RETURN_CNT": 2, "RETURN_NUM": 2, "GPS_TIME": 1743504057.6413684, "EXTRA_S321": 14, "EXTRA_F641": 84.635513, "Row": 193 }, "geometry": { "type": "Point", "coordinates": [ -0.433690217904895, 51.061235540079764 ] } },
{ "type": "Feature", "id": 376, "properties": { "LAYER": "Overhead Structure", "CLASS": 19, "INTENSITY": 2, "RETURN_CNT": 2, "RETURN_NUM": 2, "GPS_TIME": 1743504057.6413684, "EXTRA_S321": 14, "EXTRA_F641": 84.635513, "Row": 195 }, "geometry": { "type": "Point", "coordinates": [ -0.433630888834259, 51.061219062011261 ] } },
{ "type": "Feature", "id": 377, "properties": { "LAYER": "Overhead Structure", "CLASS": 19, "INTENSITY": 2, "RETURN_CNT": 2, "RETURN_NUM": 2, "GPS_TIME": 1743504057.6413684, "EXTRA_S321": 14, "EXTRA_F641": 84.635513, "Row": 196 }, "geometry": { "type": "Point", "coordinates": [ -0.433601486309288, 51.061210822427817 ] } },
{ "type": "Feature", "id": 378, "properties": { "LAYER": "Overhead Structure", "CLASS": 19, "INTENSITY": 2, "RETURN_CNT": 2, "RETURN_NUM": 2, "GPS_TIME": 1743504057.6413684, "EXTRA_S321": 14, "EXTRA_F641": 84.635513, "Row": 186 }, "geometry": { "type": "Point", "coordinates": [ -0.433478696442014, 51.063000520010377 ] } },
{ "type": "Feature", "id": 379, "properties": { "LAYER": "Overhead Structure", "CLASS": 19, "INTENSITY": 2, "RETURN_CNT": 2, "RETURN_NUM": 2, "GPS_TIME": 1743504057.6413684, "EXTRA_S321": 14, "EXTRA_F641": 84.635513, "Row": 185 }, "geometry": { "type": "Point", "coordinates": [ -0.433508962900401, 51.063009761204576 ] } },
{ "type": "Feature", "id": 380, "properties": { "LAYER": "Overhead Structure", "CLASS": 19, "INTENSITY": 2, "RETURN_CNT": 2, "RETURN_NUM": 2, "GPS_TIME": 1743504057.6413684, "EXTRA_S321": 14, "EXTRA_F641": 84.635513, "Row": 198 }, "geometry": { "type": "Point", "coordinates": [ -0.433540355274744, 51.061200078102999 ] } },
{ "type": "Feature", "id": 381, "properties": { "LAYER": "Overhead Structure", "CLASS": 19, "INTENSITY": 2, "RETURN_CNT": 2, "RETURN_NUM": 2, "GPS_TIME": 1743504057.6413684, "EXTRA_S321": 14, "EXTRA_F641": 84.635513, "Row": 197 }, "geometry": { "type": "Point", "coordinates": [ -0.433571598229318, 51.061204486816138 ] } },
{ "type": "Feature", "id": 382, "properties": { "LAYER": "Overhead Structure", "CLASS": 19, "INTENSITY": 2, "RETURN_CNT": 2, "RETURN_NUM": 2, "GPS_TIME": 1743504057.6413684, "EXTRA_S321": 14, "EXTRA_F641": 84.635513, "Row": 187 }, "geometry": { "type": "Point", "coordinates": [ -0.433448706429963, 51.062991200982331 ] } },
{ "type": "Feature", "id": 383, "properties": { "LAYER": "Overhead Structure", "CLASS": 19, "INTENSITY": 2, "RETURN_CNT": 2, "RETURN_NUM": 2, "GPS_TIME": 1743504057.6413684, "EXTRA_S321": 14, "EXTRA_F641": 84.635513, "Row": 199 }, "geometry": { "type": "Point", "coordinates": [ -0.433510667130824, 51.061192003005949 ] } },
{ "type": "Feature", "id": 384, "properties": { "LAYER": "Overhead Structure", "CLASS": 19, "INTENSITY": 2, "RETURN_CNT": 2, "RETURN_NUM": 2, "GPS_TIME": 1743504057.6413684, "EXTRA_S321": 14, "EXTRA_F641": 84.635513, "Row": 188 }, "geometry": { "type": "Point", "coordinates": [ -0.433417651628004, 51.062982024315858 ] } },
{ "type": "Feature", "id": 385, "properties": { "LAYER": "Overhead Structure", "CLASS": 19, "INTENSITY": 2, "RETURN_CNT": 2, "RETURN_NUM": 2, "GPS_TIME": 1743504057.6413684, "EXTRA_S321": 14, "EXTRA_F641": 84.635513, "Row": 200 }, "geometry": { "type": "Point", "coordinates": [ -0.433481128451916, 51.061186515137365 ] } },
{ "type": "Feature", "id": 386, "properties": { "LAYER": "Overhead Structure", "CLASS": 19, "INTENSITY": 2, "RETURN_CNT": 2, "RETURN_NUM": 2, "GPS_TIME": 1743504057.6413684, "EXTRA_S321": 14, "EXTRA_F641": 84.635513, "Row": 190 }, "geometry": { "type": "Point", "coordinates": [ -0.433360029875165, 51.062962969114729 ] } },
{ "type": "Feature", "id": 387, "properties": { "LAYER": "Overhead Structure", "CLASS": 19, "INTENSITY": 2, "RETURN_CNT": 2, "RETURN_NUM": 2, "GPS_TIME": 1743504057.6413684, "EXTRA_S321": 14, "EXTRA_F641": 84.635513, "Row": 189 }, "geometry": { "type": "Point", "coordinates": [ -0.433389113183641, 51.06297262547001 ] } },
{ "type": "Feature", "id": 388, "properties": { "LAYER": "Overhead Structure", "CLASS": 19, "INTENSITY": 2, "RETURN_CNT": 2, "RETURN_NUM": 2, "GPS_TIME": 1743504057.6413684, "EXTRA_S321": 14, "EXTRA_F641": 84.635513, "Row": 201 }, "geometry": { "type": "Point", "coordinates": [ -0.433451923534814, 51.061182407385559 ] } },
{ "type": "Feature", "id": 389, "properties": { "LAYER": "Overhead Structure", "CLASS": 19, "INTENSITY": 2, "RETURN_CNT": 2, "RETURN_NUM": 2, "GPS_TIME": 1743504057.6413684, "EXTRA_S321": 14, "EXTRA_F641": 84.635513, "Row": 191 }, "geometry": { "type": "Point", "coordinates": [ -0.433331208957429, 51.062953168318451 ] } },
{ "type": "Feature", "id": 390, "properties": { "LAYER": "Overhead Structure", "CLASS": 19, "INTENSITY": 2, "RETURN_CNT": 2, "RETURN_NUM": 2, "GPS_TIME": 1743504057.6413684, "EXTRA_S321": 14, "EXTRA_F641": 84.635513, "Row": 203 }, "geometry": { "type": "Point", "coordinates": [ -0.433390151226619, 51.061167365035132 ] } },
{ "type": "Feature", "id": 391, "properties": { "LAYER": "Overhead Structure", "CLASS": 19, "INTENSITY": 2, "RETURN_CNT": 2, "RETURN_NUM": 2, "GPS_TIME": 1743504057.6413684, "EXTRA_S321": 14, "EXTRA_F641": 84.635513, "Row": 202 }, "geometry": { "type": "Point", "coordinates": [ -0.433419910335706, 51.061173617611367 ] } },
{ "type": "Feature", "id": 392, "properties": { "LAYER": "Overhead Structure", "CLASS": 19, "INTENSITY": 2, "RETURN_CNT": 2, "RETURN_NUM": 2, "GPS_TIME": 1743504057.6413684, "EXTRA_S321": 14, "EXTRA_F641": 84.635513, "Row": 192 }, "geometry": { "type": "Point", "coordinates": [ -0.433302078625534, 51.062942571841717 ] } },
{ "type": "Feature", "id": 393, "properties": { "LAYER": "Overhead Structure", "CLASS": 19, "INTENSITY": 2, "RETURN_CNT": 2, "RETURN_NUM": 2, "GPS_TIME": 1743504057.6413684, "EXTRA_S321": 14, "EXTRA_F641": 84.635513, "Row": 204 }, "geometry": { "type": "Point", "coordinates": [ -0.433359189488607, 51.061161639073063 ] } },
{ "type": "Feature", "id": 394, "properties": { "LAYER": "Overhead Structure", "CLASS": 19, "INTENSITY": 2, "RETURN_CNT": 2, "RETURN_NUM": 2, "GPS_TIME": 1743504057.6413684, "EXTRA_S321": 14, "EXTRA_F641": 84.635513, "Row": 193 }, "geometry": { "type": "Point", "coordinates": [ -0.433271601717876, 51.062932192429308 ] } },
{ "type": "Feature", "id": 395, "properties": { "LAYER": "Overhead Structure", "CLASS": 19, "INTENSITY": 2, "RETURN_CNT": 2, "RETURN_NUM": 2, "GPS_TIME": 1743504057.6413684, "EXTRA_S321": 14, "EXTRA_F641": 84.635513, "Row": 205 }, "geometry": { "type": "Point", "coordinates": [ -0.433329299043273, 51.061155811299329 ] } },
{ "type": "Feature", "id": 396, "properties": { "LAYER": "Overhead Structure", "CLASS": 19, "INTENSITY": 2, "RETURN_CNT": 2, "RETURN_NUM": 2, "GPS_TIME": 1743504057.6413684, "EXTRA_S321": 14, "EXTRA_F641": 84.635513, "Row": 194 }, "geometry": { "type": "Point", "coordinates": [ -0.433241995137681, 51.062922706493211 ] } },
{ "type": "Feature", "id": 397, "properties": { "LAYER": "Overhead Structure", "CLASS": 19, "INTENSITY": 2, "RETURN_CNT": 2, "RETURN_NUM": 2, "GPS_TIME": 1743504057.6413684, "EXTRA_S321": 14, "EXTRA_F641": 84.635513, "Row": 206 }, "geometry": { "type": "Point", "coordinates": [ -0.433298844967817, 51.061149121678511 ] } },
{ "type": "Feature", "id": 398, "properties": { "LAYER": "Overhead Structure", "CLASS": 19, "INTENSITY": 2, "RETURN_CNT": 2, "RETURN_NUM": 2, "GPS_TIME": 1743504057.6413684, "EXTRA_S321": 14, "EXTRA_F641": 84.635513, "Row": 196 }, "geometry": { "type": "Point", "coordinates": [ -0.433183567898485, 51.062902824279305 ] } },
{ "type": "Feature", "id": 399, "properties": { "LAYER": "Overhead Structure", "CLASS": 19, "INTENSITY": 2, "RETURN_CNT": 2, "RETURN_NUM": 2, "GPS_TIME": 1743504057.6413684, "EXTRA_S321": 14, "EXTRA_F641": 84.635513, "Row": 195 }, "geometry": { "type": "Point", "coordinates": [ -0.433213603496849, 51.062912774098876 ] } },
{ "type": "Feature", "id": 400, "properties": { "LAYER": "Overhead Structure", "CLASS": 19, "INTENSITY": 2, "RETURN_CNT": 2, "RETURN_NUM": 2, "GPS_TIME": 1743504057.6413684, "EXTRA_S321": 14, "EXTRA_F641": 84.635513, "Row": 208 }, "geometry": { "type": "Point", "coordinates": [ -0.433236944474629, 51.061136687698593 ] } },
{ "type": "Feature", "id": 401, "properties": { "LAYER": "Overhead Structure", "CLASS": 19, "INTENSITY": 2, "RETURN_CNT": 2, "RETURN_NUM": 2, "GPS_TIME": 1743504057.6413684, "EXTRA_S321": 14, "EXTRA_F641": 84.635513, "Row": 207 }, "geometry": { "type": "Point", "coordinates": [ -0.433268869866918, 51.061142271274313 ] } },
{ "type": "Feature", "id": 402, "properties": { "LAYER": "Overhead Structure", "CLASS": 19, "INTENSITY": 2, "RETURN_CNT": 2, "RETURN_NUM": 2, "GPS_TIME": 1743504057.6413684, "EXTRA_S321": 14, "EXTRA_F641": 84.635513, "Row": 197 }, "geometry": { "type": "Point", "coordinates": [ -0.433155504508544, 51.062892396078112 ] } },
{ "type": "Feature", "id": 403, "properties": { "LAYER": "Overhead Structure", "CLASS": 19, "INTENSITY": 2, "RETURN_CNT": 2, "RETURN_NUM": 2, "GPS_TIME": 1743504057.6413684, "EXTRA_S321": 14, "EXTRA_F641": 84.635513, "Row": 209 }, "geometry": { "type": "Point", "coordinates": [ -0.433207612554631, 51.061131395538879 ] } },
{ "type": "Feature", "id": 404, "properties": { "LAYER": "Overhead Structure", "CLASS": 19, "INTENSITY": 2, "RETURN_CNT": 2, "RETURN_NUM": 2, "GPS_TIME": 1743504057.6413684, "EXTRA_S321": 14, "EXTRA_F641": 84.635513, "Row": 198 }, "geometry": { "type": "Point", "coordinates": [ -0.433126322571547, 51.062883434433594 ] } },
{ "type": "Feature", "id": 405, "properties": { "LAYER": "Overhead Structure", "CLASS": 19, "INTENSITY": 2, "RETURN_CNT": 2, "RETURN_NUM": 2, "GPS_TIME": 1743504057.6413684, "EXTRA_S321": 14, "EXTRA_F641": 84.635513, "Row": 210 }, "geometry": { "type": "Point", "coordinates": [ -0.433178326287906, 51.061124431140257 ] } },
{ "type": "Feature", "id": 406, "properties": { "LAYER": "Overhead Structure", "CLASS": 19, "INTENSITY": 2, "RETURN_CNT": 2, "RETURN_NUM": 2, "GPS_TIME": 1743504057.6413684, "EXTRA_S321": 14, "EXTRA_F641": 84.635513, "Row": 199 }, "geometry": { "type": "Point", "coordinates": [ -0.433097005485433, 51.062873621537051 ] } },
{ "type": "Feature", "id": 407, "properties": { "LAYER": "Overhead Structure", "CLASS": 19, "INTENSITY": 2, "RETURN_CNT": 2, "RETURN_NUM": 2, "GPS_TIME": 1743504057.6413684, "EXTRA_S321": 14, "EXTRA_F641": 84.635513, "Row": 211 }, "geometry": { "type": "Point", "coordinates": [ -0.433148018493891, 51.061117947763641 ] } },
{ "type": "Feature", "id": 408, "properties": { "LAYER": "Overhead Structure", "CLASS": 19, "INTENSITY": 2, "RETURN_CNT": 2, "RETURN_NUM": 2, "GPS_TIME": 1743504057.6413684, "EXTRA_S321": 14, "EXTRA_F641": 84.635513, "Row": 201 }, "geometry": { "type": "Point", "coordinates": [ -0.433037423338627, 51.062854406029835 ] } },
{ "type": "Feature", "id": 409, "properties": { "LAYER": "Overhead Structure", "CLASS": 19, "INTENSITY": 2, "RETURN_CNT": 2, "RETURN_NUM": 2, "GPS_TIME": 1743504057.6413684, "EXTRA_S321": 14, "EXTRA_F641": 84.635513, "Row": 200 }, "geometry": { "type": "Point", "coordinates": [ -0.433067401147024, 51.062863543029323 ] } },
{ "type": "Feature", "id": 410, "properties": { "LAYER": "Overhead Structure", "CLASS": 19, "INTENSITY": 2, "RETURN_CNT": 2, "RETURN_NUM": 2, "GPS_TIME": 1743504057.6413684, "EXTRA_S321": 14, "EXTRA_F641": 84.635513, "Row": 212 }, "geometry": { "type": "Point", "coordinates": [ -0.433116832244619, 51.061112038125501 ] } },
{ "type": "Feature", "id": 411, "properties": { "LAYER": "Overhead Structure", "CLASS": 19, "INTENSITY": 2, "RETURN_CNT": 2, "RETURN_NUM": 2, "GPS_TIME": 1743504057.6413684, "EXTRA_S321": 14, "EXTRA_F641": 84.635513, "Row": 202 }, "geometry": { "type": "Point", "coordinates": [ -0.433008191297861, 51.062844216010937 ] } },
{ "type": "Feature", "id": 412, "properties": { "LAYER": "Overhead Structure", "CLASS": 19, "INTENSITY": 2, "RETURN_CNT": 2, "RETURN_NUM": 2, "GPS_TIME": 1743504057.6413684, "EXTRA_S321": 14, "EXTRA_F641": 84.635513, "Row": 213 }, "geometry": { "type": "Point", "coordinates": [ -0.433087319068694, 51.061105449746194 ] } },
{ "type": "Feature", "id": 413, "properties": { "LAYER": "Overhead Structure", "CLASS": 19, "INTENSITY": 2, "RETURN_CNT": 2, "RETURN_NUM": 2, "GPS_TIME": 1743504057.6413684, "EXTRA_S321": 14, "EXTRA_F641": 84.635513, "Row": 203 }, "geometry": { "type": "Point", "coordinates": [ -0.432978892282159, 51.062834072428252 ] } },
{ "type": "Feature", "id": 414, "properties": { "LAYER": "Overhead Structure", "CLASS": 19, "INTENSITY": 2, "RETURN_CNT": 2, "RETURN_NUM": 2, "GPS_TIME": 1743504057.6413684, "EXTRA_S321": 14, "EXTRA_F641": 84.635513, "Row": 215 }, "geometry": { "type": "Point", "coordinates": [ -0.433026894309361, 51.061093344037353 ] } },
{ "type": "Feature", "id": 415, "properties": { "LAYER": "Overhead Structure", "CLASS": 19, "INTENSITY": 2, "RETURN_CNT": 2, "RETURN_NUM": 2, "GPS_TIME": 1743504057.6413684, "EXTRA_S321": 14, "EXTRA_F641": 84.635513, "Row": 214 }, "geometry": { "type": "Point", "coordinates": [ -0.433057459372381, 51.061099176630904 ] } },
{ "type": "Feature", "id": 416, "properties": { "LAYER": "Overhead Structure", "CLASS": 19, "INTENSITY": 2, "RETURN_CNT": 2, "RETURN_NUM": 2, "GPS_TIME": 1743504057.6413684, "EXTRA_S321": 14, "EXTRA_F641": 84.635513, "Row": 204 }, "geometry": { "type": "Point", "coordinates": [ -0.432949235974938, 51.062824007216193 ] } },
{ "type": "Feature", "id": 417, "properties": { "LAYER": "Overhead Structure", "CLASS": 19, "INTENSITY": 2, "RETURN_CNT": 2, "RETURN_NUM": 2, "GPS_TIME": 1743504057.6413684, "EXTRA_S321": 14, "EXTRA_F641": 84.635513, "Row": 216 }, "geometry": { "type": "Point", "coordinates": [ -0.432995510843553, 51.061086996708994 ] } },
{ "type": "Feature", "id": 418, "properties": { "LAYER": "Overhead Structure", "CLASS": 19, "INTENSITY": 2, "RETURN_CNT": 2, "RETURN_NUM": 2, "GPS_TIME": 1743504057.6413684, "EXTRA_S321": 14, "EXTRA_F641": 84.635513, "Row": 206 }, "geometry": { "type": "Point", "coordinates": [ -0.432890582608831, 51.062804358614869 ] } },
{ "type": "Feature", "id": 419, "properties": { "LAYER": "Overhead Structure", "CLASS": 19, "INTENSITY": 2, "RETURN_CNT": 2, "RETURN_NUM": 2, "GPS_TIME": 1743504057.6413684, "EXTRA_S321": 14, "EXTRA_F641": 84.635513, "Row": 205 }, "geometry": { "type": "Point", "coordinates": [ -0.432920002728563, 51.062814269922356 ] } },
{ "type": "Feature", "id": 420, "properties": { "LAYER": "Overhead Structure", "CLASS": 19, "INTENSITY": 2, "RETURN_CNT": 2, "RETURN_NUM": 2, "GPS_TIME": 1743504057.6413684, "EXTRA_S321": 14, "EXTRA_F641": 84.635513, "Row": 217 }, "geometry": { "type": "Point", "coordinates": [ -0.432966321071119, 51.061082063305449 ] } },
{ "type": "Feature", "id": 421, "properties": { "LAYER": "Overhead Structure", "CLASS": 19, "INTENSITY": 2, "RETURN_CNT": 2, "RETURN_NUM": 2, "GPS_TIME": 1743504057.6413684, "EXTRA_S321": 14, "EXTRA_F641": 84.635513, "Row": 207 }, "geometry": { "type": "Point", "coordinates": [ -0.432861787939208, 51.062794693258034 ] } },
{ "type": "Feature", "id": 422, "properties": { "LAYER": "Overhead Structure", "CLASS": 19, "INTENSITY": 2, "RETURN_CNT": 2, "RETURN_NUM": 2, "GPS_TIME": 1743504057.6413684, "EXTRA_S321": 14, "EXTRA_F641": 84.635513, "Row": 219 }, "geometry": { "type": "Point", "coordinates": [ -0.432905839098668, 51.061068287345385 ] } },
{ "type": "Feature", "id": 423, "properties": { "LAYER": "Overhead Structure", "CLASS": 19, "INTENSITY": 2, "RETURN_CNT": 2, "RETURN_NUM": 2, "GPS_TIME": 1743504057.6413684, "EXTRA_S321": 14, "EXTRA_F641": 84.635513, "Row": 218 }, "geometry": { "type": "Point", "coordinates": [ -0.432936528908372, 51.061074258833663 ] } },
{ "type": "Feature", "id": 424, "properties": { "LAYER": "Overhead Structure", "CLASS": 19, "INTENSITY": 2, "RETURN_CNT": 2, "RETURN_NUM": 2, "GPS_TIME": 1743504057.6413684, "EXTRA_S321": 14, "EXTRA_F641": 84.635513, "Row": 209 }, "geometry": { "type": "Point", "coordinates": [ -0.432802866100179, 51.062775708646029 ] } },
{ "type": "Feature", "id": 425, "properties": { "LAYER": "Overhead Structure", "CLASS": 19, "INTENSITY": 2, "RETURN_CNT": 2, "RETURN_NUM": 2, "GPS_TIME": 1743504057.6413684, "EXTRA_S321": 14, "EXTRA_F641": 84.635513, "Row": 208 }, "geometry": { "type": "Point", "coordinates": [ -0.432831310110411, 51.062785316291624 ] } },
{ "type": "Feature", "id": 426, "properties": { "LAYER": "Overhead Structure", "CLASS": 19, "INTENSITY": 2, "RETURN_CNT": 2, "RETURN_NUM": 2, "GPS_TIME": 1743504057.6413684, "EXTRA_S321": 14, "EXTRA_F641": 84.635513, "Row": 220 }, "geometry": { "type": "Point", "coordinates": [ -0.43287738403696, 51.06106320401932 ] } },
{ "type": "Feature", "id": 427, "properties": { "LAYER": "Overhead Structure", "CLASS": 19, "INTENSITY": 2, "RETURN_CNT": 2, "RETURN_NUM": 2, "GPS_TIME": 1743504057.6413684, "EXTRA_S321": 14, "EXTRA_F641": 84.635513, "Row": 211 }, "geometry": { "type": "Point", "coordinates": [ -0.432744443193086, 51.06275501469058 ] } },
{ "type": "Feature", "id": 428, "properties": { "LAYER": "Overhead Structure", "CLASS": 19, "INTENSITY": 2, "RETURN_CNT": 2, "RETURN_NUM": 2, "GPS_TIME": 1743504057.6413684, "EXTRA_S321": 14, "EXTRA_F641": 84.635513, "Row": 210 }, "geometry": { "type": "Point", "coordinates": [ -0.432773072703287, 51.062765094603691 ] } },
{ "type": "Feature", "id": 429, "properties": { "LAYER": "Overhead Structure", "CLASS": 19, "INTENSITY": 2, "RETURN_CNT": 2, "RETURN_NUM": 2, "GPS_TIME": 1743504057.6413684, "EXTRA_S321": 14, "EXTRA_F641": 84.635513, "Row": 213 }, "geometry": { "type": "Point", "coordinates": [ -0.432685491572328, 51.062735864727998 ] } },
{ "type": "Feature", "id": 430, "properties": { "LAYER": "Overhead Structure", "CLASS": 19, "INTENSITY": 2, "RETURN_CNT": 2, "RETURN_NUM": 2, "GPS_TIME": 1743504057.6413684, "EXTRA_S321": 14, "EXTRA_F641": 84.635513, "Row": 212 }, "geometry": { "type": "Point", "coordinates": [ -0.43271450501119, 51.062745803581102 ] } },
{ "type": "Feature", "id": 431, "properties": { "LAYER": "Overhead Structure", "CLASS": 19, "INTENSITY": 2, "RETURN_CNT": 2, "RETURN_NUM": 2, "GPS_TIME": 1743504057.6413684, "EXTRA_S321": 14, "EXTRA_F641": 84.635513, "Row": 216 }, "geometry": { "type": "Point", "coordinates": [ -0.432596669563831, 51.062705419072245 ] } },
{ "type": "Feature", "id": 432, "properties": { "LAYER": "Overhead Structure", "CLASS": 19, "INTENSITY": 2, "RETURN_CNT": 2, "RETURN_NUM": 2, "GPS_TIME": 1743504057.6413684, "EXTRA_S321": 14, "EXTRA_F641": 84.635513, "Row": 215 }, "geometry": { "type": "Point", "coordinates": [ -0.432626792755385, 51.062715667560482 ] } },
{ "type": "Feature", "id": 433, "properties": { "LAYER": "Overhead Structure", "CLASS": 19, "INTENSITY": 2, "RETURN_CNT": 2, "RETURN_NUM": 2, "GPS_TIME": 1743504057.6413684, "EXTRA_S321": 14, "EXTRA_F641": 84.635513, "Row": 214 }, "geometry": { "type": "Point", "coordinates": [ -0.432655013373567, 51.06272606389723 ] } },
{ "type": "Feature", "id": 434, "properties": { "LAYER": "Overhead Structure", "CLASS": 19, "INTENSITY": 2, "RETURN_CNT": 2, "RETURN_NUM": 2, "GPS_TIME": 1743504057.6413684, "EXTRA_S321": 14, "EXTRA_F641": 84.635513, "Row": 226 }, "geometry": { "type": "Point", "coordinates": [ -0.432508604811681, 51.060942070875463 ] } },
{ "type": "Feature", "id": 435, "properties": { "LAYER": "Overhead Structure", "CLASS": 19, "INTENSITY": 2, "RETURN_CNT": 2, "RETURN_NUM": 2, "GPS_TIME": 1743504057.6413684, "EXTRA_S321": 14, "EXTRA_F641": 84.635513, "Row": 225 }, "geometry": { "type": "Point", "coordinates": [ -0.432538241079994, 51.0609494006993 ] } },
{ "type": "Feature", "id": 436, "properties": { "LAYER": "Overhead Structure", "CLASS": 19, "INTENSITY": 2, "RETURN_CNT": 2, "RETURN_NUM": 2, "GPS_TIME": 1743504057.6413684, "EXTRA_S321": 14, "EXTRA_F641": 84.635513, "Row": 224 }, "geometry": { "type": "Point", "coordinates": [ -0.432566801271804, 51.060956584715136 ] } },
{ "type": "Feature", "id": 437, "properties": { "LAYER": "Overhead Structure", "CLASS": 19, "INTENSITY": 2, "RETURN_CNT": 2, "RETURN_NUM": 2, "GPS_TIME": 1743504057.6413684, "EXTRA_S321": 14, "EXTRA_F641": 84.635513, "Row": 223 }, "geometry": { "type": "Point", "coordinates": [ -0.432597448444707, 51.060965456677891 ] } },
{ "type": "Feature", "id": 438, "properties": { "LAYER": "Overhead Structure", "CLASS": 19, "INTENSITY": 2, "RETURN_CNT": 2, "RETURN_NUM": 2, "GPS_TIME": 1743504057.6413684, "EXTRA_S321": 14, "EXTRA_F641": 84.635513, "Row": 222 }, "geometry": { "type": "Point", "coordinates": [ -0.432627209558867, 51.060972433905476 ] } },
{ "type": "Feature", "id": 439, "properties": { "LAYER": "Overhead Structure", "CLASS": 19, "INTENSITY": 2, "RETURN_CNT": 2, "RETURN_NUM": 2, "GPS_TIME": 1743504057.6413684, "EXTRA_S321": 14, "EXTRA_F641": 84.635513, "Row": 221 }, "geometry": { "type": "Point", "coordinates": [ -0.432656596289196, 51.060980358981034 ] } },
{ "type": "Feature", "id": 440, "properties": { "LAYER": "Overhead Structure", "CLASS": 19, "INTENSITY": 2, "RETURN_CNT": 2, "RETURN_NUM": 2, "GPS_TIME": 1743504057.6413684, "EXTRA_S321": 14, "EXTRA_F641": 84.635513, "Row": 220 }, "geometry": { "type": "Point", "coordinates": [ -0.432478917542947, 51.062666748375612 ] } },
{ "type": "Feature", "id": 441, "properties": { "LAYER": "Overhead Structure", "CLASS": 19, "INTENSITY": 2, "RETURN_CNT": 2, "RETURN_NUM": 2, "GPS_TIME": 1743504057.6413684, "EXTRA_S321": 14, "EXTRA_F641": 84.635513, "Row": 219 }, "geometry": { "type": "Point", "coordinates": [ -0.432509245665648, 51.062676601037431 ] } },
{ "type": "Feature", "id": 442, "properties": { "LAYER": "Overhead Structure", "CLASS": 19, "INTENSITY": 2, "RETURN_CNT": 2, "RETURN_NUM": 2, "GPS_TIME": 1743504057.6413684, "EXTRA_S321": 14, "EXTRA_F641": 84.635513, "Row": 218 }, "geometry": { "type": "Point", "coordinates": [ -0.43253789656503, 51.062687184142042 ] } },
{ "type": "Feature", "id": 443, "properties": { "LAYER": "Overhead Structure", "CLASS": 19, "INTENSITY": 2, "RETURN_CNT": 2, "RETURN_NUM": 2, "GPS_TIME": 1743504057.6413684, "EXTRA_S321": 14, "EXTRA_F641": 84.635513, "Row": 217 }, "geometry": { "type": "Point", "coordinates": [ -0.432567584687452, 51.062696291706487 ] } },
{ "type": "Feature", "id": 444, "properties": { "LAYER": "Overhead Structure", "CLASS": 19, "INTENSITY": 2, "RETURN_CNT": 2, "RETURN_NUM": 2, "GPS_TIME": 1743504057.6413684, "EXTRA_S321": 14, "EXTRA_F641": 84.635513, "Row": 230 }, "geometry": { "type": "Point", "coordinates": [ -0.432389190153362, 51.06091326232945 ] } },
{ "type": "Feature", "id": 445, "properties": { "LAYER": "Overhead Structure", "CLASS": 19, "INTENSITY": 2, "RETURN_CNT": 2, "RETURN_NUM": 2, "GPS_TIME": 1743504057.6413684, "EXTRA_S321": 14, "EXTRA_F641": 84.635513, "Row": 229 }, "geometry": { "type": "Point", "coordinates": [ -0.432418784741611, 51.060918837126884 ] } },
{ "type": "Feature", "id": 446, "properties": { "LAYER": "Overhead Structure", "CLASS": 19, "INTENSITY": 2, "RETURN_CNT": 2, "RETURN_NUM": 2, "GPS_TIME": 1743504057.6413684, "EXTRA_S321": 14, "EXTRA_F641": 84.635513, "Row": 228 }, "geometry": { "type": "Point", "coordinates": [ -0.432448718098482, 51.060927718455893 ] } },
{ "type": "Feature", "id": 447, "properties": { "LAYER": "Overhead Structure", "CLASS": 19, "INTENSITY": 2, "RETURN_CNT": 2, "RETURN_NUM": 2, "GPS_TIME": 1743504057.6413684, "EXTRA_S321": 14, "EXTRA_F641": 84.635513, "Row": 227 }, "geometry": { "type": "Point", "coordinates": [ -0.432478640373276, 51.060934667773566 ] } },
{ "type": "Feature", "id": 448, "properties": { "LAYER": "Overhead Structure", "CLASS": 19, "INTENSITY": 2, "RETURN_CNT": 2, "RETURN_NUM": 2, "GPS_TIME": 1743504057.6413684, "EXTRA_S321": 14, "EXTRA_F641": 84.635513, "Row": 231 }, "geometry": { "type": "Point", "coordinates": [ -0.432358530905521, 51.060903861944773 ] } },
{ "type": "Feature", "id": 449, "properties": { "LAYER": "Overhead Structure", "CLASS": 19, "INTENSITY": 2, "RETURN_CNT": 2, "RETURN_NUM": 2, "GPS_TIME": 1743504057.6413684, "EXTRA_S321": 14, "EXTRA_F641": 84.635513, "Row": 221 }, "geometry": { "type": "Point", "coordinates": [ -0.432267337659594, 51.062577825169889 ] } },
{ "type": "Feature", "id": 450, "properties": { "LAYER": "Overhead Structure", "CLASS": 19, "INTENSITY": 2, "RETURN_CNT": 2, "RETURN_NUM": 2, "GPS_TIME": 1743504057.6413684, "EXTRA_S321": 14, "EXTRA_F641": 84.635513, "Row": 233 }, "geometry": { "type": "Point", "coordinates": [ -0.432297533513279, 51.060889211958383 ] } },
{ "type": "Feature", "id": 451, "properties": { "LAYER": "Overhead Structure", "CLASS": 19, "INTENSITY": 2, "RETURN_CNT": 2, "RETURN_NUM": 2, "GPS_TIME": 1743504057.6413684, "EXTRA_S321": 14, "EXTRA_F641": 84.635513, "Row": 232 }, "geometry": { "type": "Point", "coordinates": [ -0.432328865449701, 51.060897707334895 ] } },
{ "type": "Feature", "id": 452, "properties": { "LAYER": "Overhead Structure", "CLASS": 19, "INTENSITY": 2, "RETURN_CNT": 2, "RETURN_NUM": 2, "GPS_TIME": 1743504057.6413684, "EXTRA_S321": 14, "EXTRA_F641": 84.635513, "Row": 222 }, "geometry": { "type": "Point", "coordinates": [ -0.432235561566918, 51.062575155080232 ] } },
{ "type": "Feature", "id": 453, "properties": { "LAYER": "Overhead Structure", "CLASS": 19, "INTENSITY": 2, "RETURN_CNT": 2, "RETURN_NUM": 2, "GPS_TIME": 1743504057.6413684, "EXTRA_S321": 14, "EXTRA_F641": 84.635513, "Row": 223 }, "geometry": { "type": "Point", "coordinates": [ -0.432204216052563, 51.062575281166154 ] } },
{ "type": "Feature", "id": 454, "properties": { "LAYER": "Overhead Structure", "CLASS": 19, "INTENSITY": 2, "RETURN_CNT": 2, "RETURN_NUM": 2, "GPS_TIME": 1743504057.6413684, "EXTRA_S321": 14, "EXTRA_F641": 84.635513, "Row": 235 }, "geometry": { "type": "Point", "coordinates": [ -0.432239475288285, 51.060876608528609 ] } },
{ "type": "Feature", "id": 455, "properties": { "LAYER": "Overhead Structure", "CLASS": 19, "INTENSITY": 2, "RETURN_CNT": 2, "RETURN_NUM": 2, "GPS_TIME": 1743504057.6413684, "EXTRA_S321": 14, "EXTRA_F641": 84.635513, "Row": 234 }, "geometry": { "type": "Point", "coordinates": [ -0.432268027874654, 51.060883361620149 ] } },
{ "type": "Feature", "id": 456, "properties": { "LAYER": "Overhead Structure", "CLASS": 19, "INTENSITY": 2, "RETURN_CNT": 2, "RETURN_NUM": 2, "GPS_TIME": 1743504057.6413684, "EXTRA_S321": 14, "EXTRA_F641": 84.635513, "Row": 225 }, "geometry": { "type": "Point", "coordinates": [ -0.432141764531992, 51.062569584685548 ] } },
{ "type": "Feature", "id": 457, "properties": { "LAYER": "Overhead Structure", "CLASS": 19, "INTENSITY": 2, "RETURN_CNT": 2, "RETURN_NUM": 2, "GPS_TIME": 1743504057.6413684, "EXTRA_S321": 14, "EXTRA_F641": 84.635513, "Row": 224 }, "geometry": { "type": "Point", "coordinates": [ -0.432173267355324, 51.062571908293158 ] } },
{ "type": "Feature", "id": 458, "properties": { "LAYER": "Overhead Structure", "CLASS": 19, "INTENSITY": 2, "RETURN_CNT": 2, "RETURN_NUM": 2, "GPS_TIME": 1743504057.6413684, "EXTRA_S321": 14, "EXTRA_F641": 84.635513, "Row": 237 }, "geometry": { "type": "Point", "coordinates": [ -0.432175854716491, 51.060867700638845 ] } },
{ "type": "Feature", "id": 459, "properties": { "LAYER": "Overhead Structure", "CLASS": 19, "INTENSITY": 2, "RETURN_CNT": 2, "RETURN_NUM": 2, "GPS_TIME": 1743504057.6413684, "EXTRA_S321": 14, "EXTRA_F641": 84.635513, "Row": 236 }, "geometry": { "type": "Point", "coordinates": [ -0.43220630901547, 51.060871353222957 ] } },
{ "type": "Feature", "id": 460, "properties": { "LAYER": "Overhead Structure", "CLASS": 19, "INTENSITY": 2, "RETURN_CNT": 2, "RETURN_NUM": 2, "GPS_TIME": 1743504057.6413684, "EXTRA_S321": 14, "EXTRA_F641": 84.635513, "Row": 227 }, "geometry": { "type": "Point", "coordinates": [ -0.432080273609455, 51.062567401985142 ] } },
{ "type": "Feature", "id": 461, "properties": { "LAYER": "Overhead Structure", "CLASS": 19, "INTENSITY": 2, "RETURN_CNT": 2, "RETURN_NUM": 2, "GPS_TIME": 1743504057.6413684, "EXTRA_S321": 14, "EXTRA_F641": 84.635513, "Row": 226 }, "geometry": { "type": "Point", "coordinates": [ -0.432111933382251, 51.062568405754142 ] } },
{ "type": "Feature", "id": 462, "properties": { "LAYER": "Overhead Structure", "CLASS": 19, "INTENSITY": 2, "RETURN_CNT": 2, "RETURN_NUM": 2, "GPS_TIME": 1743504057.6413684, "EXTRA_S321": 14, "EXTRA_F641": 84.635513, "Row": 239 }, "geometry": { "type": "Point", "coordinates": [ -0.432114259330617, 51.060860560354982 ] } },
{ "type": "Feature", "id": 463, "properties": { "LAYER": "Overhead Structure", "CLASS": 19, "INTENSITY": 2, "RETURN_CNT": 2, "RETURN_NUM": 2, "GPS_TIME": 1743504057.6413684, "EXTRA_S321": 14, "EXTRA_F641": 84.635513, "Row": 238 }, "geometry": { "type": "Point", "coordinates": [ -0.432145311605426, 51.060863997910218 ] } },
{ "type": "Feature", "id": 464, "properties": { "LAYER": "Overhead Structure", "CLASS": 19, "INTENSITY": 2, "RETURN_CNT": 2, "RETURN_NUM": 2, "GPS_TIME": 1743504057.6413684, "EXTRA_S321": 14, "EXTRA_F641": 84.635513, "Row": 229 }, "geometry": { "type": "Point", "coordinates": [ -0.432017578880389, 51.06256224165886 ] } },
{ "type": "Feature", "id": 465, "properties": { "LAYER": "Overhead Structure", "CLASS": 19, "INTENSITY": 2, "RETURN_CNT": 2, "RETURN_NUM": 2, "GPS_TIME": 1743504057.6413684, "EXTRA_S321": 14, "EXTRA_F641": 84.635513, "Row": 228 }, "geometry": { "type": "Point", "coordinates": [ -0.432048331882959, 51.06256494534464 ] } },
{ "type": "Feature", "id": 466, "properties": { "LAYER": "Overhead Structure", "CLASS": 19, "INTENSITY": 2, "RETURN_CNT": 2, "RETURN_NUM": 2, "GPS_TIME": 1743504057.6413684, "EXTRA_S321": 14, "EXTRA_F641": 84.635513, "Row": 241 }, "geometry": { "type": "Point", "coordinates": [ -0.432054072912469, 51.060855256729674 ] } },
{ "type": "Feature", "id": 467, "properties": { "LAYER": "Overhead Structure", "CLASS": 19, "INTENSITY": 2, "RETURN_CNT": 2, "RETURN_NUM": 2, "GPS_TIME": 1743504057.6413684, "EXTRA_S321": 14, "EXTRA_F641": 84.635513, "Row": 240 }, "geometry": { "type": "Point", "coordinates": [ -0.432083608942344, 51.060858972116371 ] } },
{ "type": "Feature", "id": 468, "properties": { "LAYER": "Overhead Structure", "CLASS": 19, "INTENSITY": 2, "RETURN_CNT": 2, "RETURN_NUM": 2, "GPS_TIME": 1743504057.6413684, "EXTRA_S321": 14, "EXTRA_F641": 84.635513, "Row": 231 }, "geometry": { "type": "Point", "coordinates": [ -0.431954536426998, 51.062558122881825 ] } },
{ "type": "Feature", "id": 469, "properties": { "LAYER": "Overhead Structure", "CLASS": 19, "INTENSITY": 2, "RETURN_CNT": 2, "RETURN_NUM": 2, "GPS_TIME": 1743504057.6413684, "EXTRA_S321": 14, "EXTRA_F641": 84.635513, "Row": 230 }, "geometry": { "type": "Point", "coordinates": [ -0.431986711814133, 51.062560181961977 ] } },
{ "type": "Feature", "id": 470, "properties": { "LAYER": "Overhead Structure", "CLASS": 19, "INTENSITY": 2, "RETURN_CNT": 2, "RETURN_NUM": 2, "GPS_TIME": 1743504057.6413684, "EXTRA_S321": 14, "EXTRA_F641": 84.635513, "Row": 242 }, "geometry": { "type": "Point", "coordinates": [ -0.432022189165782, 51.060853268928597 ] } },
{ "type": "Feature", "id": 471, "properties": { "LAYER": "Overhead Structure", "CLASS": 19, "INTENSITY": 2, "RETURN_CNT": 2, "RETURN_NUM": 2, "GPS_TIME": 1743504057.6413684, "EXTRA_S321": 14, "EXTRA_F641": 84.635513, "Row": 243 }, "geometry": { "type": "Point", "coordinates": [ -0.431989410396523, 51.060854166393042 ] } },
{ "type": "Feature", "id": 472, "properties": { "LAYER": "Overhead Structure", "CLASS": 19, "INTENSITY": 2, "RETURN_CNT": 2, "RETURN_NUM": 2, "GPS_TIME": 1743504057.6413684, "EXTRA_S321": 14, "EXTRA_F641": 84.635513, "Row": 233 }, "geometry": { "type": "Point", "coordinates": [ -0.431891900793685, 51.062554640847843 ] } },
{ "type": "Feature", "id": 473, "properties": { "LAYER": "Overhead Structure", "CLASS": 19, "INTENSITY": 2, "RETURN_CNT": 2, "RETURN_NUM": 2, "GPS_TIME": 1743504057.6413684, "EXTRA_S321": 14, "EXTRA_F641": 84.635513, "Row": 232 }, "geometry": { "type": "Point", "coordinates": [ -0.431923019370528, 51.062556722545814 ] } },
{ "type": "Feature", "id": 474, "properties": { "LAYER": "Overhead Structure", "CLASS": 19, "INTENSITY": 2, "RETURN_CNT": 2, "RETURN_NUM": 2, "GPS_TIME": 1743504057.6413684, "EXTRA_S321": 14, "EXTRA_F641": 84.635513, "Row": 244 }, "geometry": { "type": "Point", "coordinates": [ -0.431957683030909, 51.060853574302392 ] } },
{ "type": "Feature", "id": 475, "properties": { "LAYER": "Overhead Structure", "CLASS": 19, "INTENSITY": 2, "RETURN_CNT": 2, "RETURN_NUM": 2, "GPS_TIME": 1743504057.6413684, "EXTRA_S321": 14, "EXTRA_F641": 84.635513, "Row": 245 }, "geometry": { "type": "Point", "coordinates": [ -0.431924309085541, 51.060856516763913 ] } },
{ "type": "Feature", "id": 476, "properties": { "LAYER": "Overhead Structure", "CLASS": 19, "INTENSITY": 2, "RETURN_CNT": 2, "RETURN_NUM": 2, "GPS_TIME": 1743504057.6413684, "EXTRA_S321": 14, "EXTRA_F641": 84.635513, "Row": 235 }, "geometry": { "type": "Point", "coordinates": [ -0.431828630690806, 51.062551943174043 ] } },
{ "type": "Feature", "id": 477, "properties": { "LAYER": "Overhead Structure", "CLASS": 19, "INTENSITY": 2, "RETURN_CNT": 2, "RETURN_NUM": 2, "GPS_TIME": 1743504057.6413684, "EXTRA_S321": 14, "EXTRA_F641": 84.635513, "Row": 234 }, "geometry": { "type": "Point", "coordinates": [ -0.431860443437617, 51.062553144772593 ] } },
{ "type": "Feature", "id": 478, "properties": { "LAYER": "Overhead Structure", "CLASS": 19, "INTENSITY": 2, "RETURN_CNT": 2, "RETURN_NUM": 2, "GPS_TIME": 1743504057.6413684, "EXTRA_S321": 14, "EXTRA_F641": 84.635513, "Row": 246 }, "geometry": { "type": "Point", "coordinates": [ -0.431893282554537, 51.060856191516237 ] } },
{ "type": "Feature", "id": 479, "properties": { "LAYER": "Overhead Structure", "CLASS": 19, "INTENSITY": 2, "RETURN_CNT": 2, "RETURN_NUM": 2, "GPS_TIME": 1743504057.6413684, "EXTRA_S321": 14, "EXTRA_F641": 84.635513, "Row": 247 }, "geometry": { "type": "Point", "coordinates": [ -0.431861249199034, 51.060856782522606 ] } },
{ "type": "Feature", "id": 480, "properties": { "LAYER": "Overhead Structure", "CLASS": 19, "INTENSITY": 2, "RETURN_CNT": 2, "RETURN_NUM": 2, "GPS_TIME": 1743504057.6413684, "EXTRA_S321": 14, "EXTRA_F641": 84.635513, "Row": 248 }, "geometry": { "type": "Point", "coordinates": [ -0.431828932899622, 51.060856288639705 ] } },
{ "type": "Feature", "id": 481, "properties": { "LAYER": "Overhead Structure", "CLASS": 19, "INTENSITY": 2, "RETURN_CNT": 2, "RETURN_NUM": 2, "GPS_TIME": 1743504057.6413684, "EXTRA_S321": 14, "EXTRA_F641": 84.635513, "Row": 238 }, "geometry": { "type": "Point", "coordinates": [ -0.431735867492535, 51.06254505732597 ] } },
{ "type": "Feature", "id": 482, "properties": { "LAYER": "Overhead Structure", "CLASS": 19, "INTENSITY": 2, "RETURN_CNT": 2, "RETURN_NUM": 2, "GPS_TIME": 1743504057.6413684, "EXTRA_S321": 14, "EXTRA_F641": 84.635513, "Row": 237 }, "geometry": { "type": "Point", "coordinates": [ -0.431766580911589, 51.062547682862572 ] } },
{ "type": "Feature", "id": 483, "properties": { "LAYER": "Overhead Structure", "CLASS": 19, "INTENSITY": 2, "RETURN_CNT": 2, "RETURN_NUM": 2, "GPS_TIME": 1743504057.6413684, "EXTRA_S321": 14, "EXTRA_F641": 84.635513, "Row": 249 }, "geometry": { "type": "Point", "coordinates": [ -0.431797689274973, 51.060857345884209 ] } },
{ "type": "Feature", "id": 484, "properties": { "LAYER": "Overhead Structure", "CLASS": 19, "INTENSITY": 2, "RETURN_CNT": 2, "RETURN_NUM": 2, "GPS_TIME": 1743504057.6413684, "EXTRA_S321": 14, "EXTRA_F641": 84.635513, "Row": 250 }, "geometry": { "type": "Point", "coordinates": [ -0.431766119038086, 51.060857173665759 ] } },
{ "type": "Feature", "id": 485, "properties": { "LAYER": "Overhead Structure", "CLASS": 19, "INTENSITY": 2, "RETURN_CNT": 2, "RETURN_NUM": 2, "GPS_TIME": 1743504057.6413684, "EXTRA_S321": 14, "EXTRA_F641": 84.635513, "Row": 239 }, "geometry": { "type": "Point", "coordinates": [ -0.431704816470662, 51.062542757443111 ] } },
{ "type": "Feature", "id": 486, "properties": { "LAYER": "Overhead Structure", "CLASS": 19, "INTENSITY": 2, "RETURN_CNT": 2, "RETURN_NUM": 2, "GPS_TIME": 1743504057.6413684, "EXTRA_S321": 14, "EXTRA_F641": 84.635513, "Row": 240 }, "geometry": { "type": "Point", "coordinates": [ -0.431672408937119, 51.062543016454455 ] } },
{ "type": "Feature", "id": 487, "properties": { "LAYER": "Overhead Structure", "CLASS": 19, "INTENSITY": 2, "RETURN_CNT": 2, "RETURN_NUM": 2, "GPS_TIME": 1743504057.6413684, "EXTRA_S321": 14, "EXTRA_F641": 84.635513, "Row": 251 }, "geometry": { "type": "Point", "coordinates": [ -0.43173430555961, 51.060857836592078 ] } },
{ "type": "Feature", "id": 488, "properties": { "LAYER": "Overhead Structure", "CLASS": 19, "INTENSITY": 2, "RETURN_CNT": 2, "RETURN_NUM": 2, "GPS_TIME": 1743504057.6413684, "EXTRA_S321": 14, "EXTRA_F641": 84.635513, "Row": 252 }, "geometry": { "type": "Point", "coordinates": [ -0.431702865155803, 51.060858885867788 ] } },
{ "type": "Feature", "id": 489, "properties": { "LAYER": "Overhead Structure", "CLASS": 19, "INTENSITY": 2, "RETURN_CNT": 2, "RETURN_NUM": 2, "GPS_TIME": 1743504057.6413684, "EXTRA_S321": 14, "EXTRA_F641": 84.635513, "Row": 241 }, "geometry": { "type": "Point", "coordinates": [ -0.431641009963113, 51.062544935649072 ] } },
{ "type": "Feature", "id": 490, "properties": { "LAYER": "Overhead Structure", "CLASS": 19, "INTENSITY": 2, "RETURN_CNT": 2, "RETURN_NUM": 2, "GPS_TIME": 1743504057.6413684, "EXTRA_S321": 14, "EXTRA_F641": 84.635513, "Row": 242 }, "geometry": { "type": "Point", "coordinates": [ -0.431609135560387, 51.062545673596858 ] } },
{ "type": "Feature", "id": 491, "properties": { "LAYER": "Overhead Structure", "CLASS": 19, "INTENSITY": 2, "RETURN_CNT": 2, "RETURN_NUM": 2, "GPS_TIME": 1743504057.6413684, "EXTRA_S321": 14, "EXTRA_F641": 84.635513, "Row": 253 }, "geometry": { "type": "Point", "coordinates": [ -0.431670007592635, 51.060860079823257 ] } },
{ "type": "Feature", "id": 492, "properties": { "LAYER": "Overhead Structure", "CLASS": 19, "INTENSITY": 2, "RETURN_CNT": 2, "RETURN_NUM": 2, "GPS_TIME": 1743504057.6413684, "EXTRA_S321": 14, "EXTRA_F641": 84.635513, "Row": 243 }, "geometry": { "type": "Point", "coordinates": [ -0.431576950457185, 51.0625453082015 ] } },
{ "type": "Feature", "id": 493, "properties": { "LAYER": "Overhead Structure", "CLASS": 19, "INTENSITY": 2, "RETURN_CNT": 2, "RETURN_NUM": 2, "GPS_TIME": 1743504057.6413684, "EXTRA_S321": 14, "EXTRA_F641": 84.635513, "Row": 254 }, "geometry": { "type": "Point", "coordinates": [ -0.431637416014278, 51.060861499690226 ] } },
{ "type": "Feature", "id": 494, "properties": { "LAYER": "Overhead Structure", "CLASS": 19, "INTENSITY": 2, "RETURN_CNT": 2, "RETURN_NUM": 2, "GPS_TIME": 1743504057.6413684, "EXTRA_S321": 14, "EXTRA_F641": 84.635513, "Row": 255 }, "geometry": { "type": "Point", "coordinates": [ -0.431605667676965, 51.060861709537669 ] } },
{ "type": "Feature", "id": 495, "properties": { "LAYER": "Overhead Structure", "CLASS": 19, "INTENSITY": 2, "RETURN_CNT": 2, "RETURN_NUM": 2, "GPS_TIME": 1743504057.6413684, "EXTRA_S321": 14, "EXTRA_F641": 84.635513, "Row": 244 }, "geometry": { "type": "Point", "coordinates": [ -0.431545870267628, 51.06254479843362 ] } },
{ "type": "Feature", "id": 496, "properties": { "LAYER": "Overhead Structure", "CLASS": 19, "INTENSITY": 2, "RETURN_CNT": 2, "RETURN_NUM": 2, "GPS_TIME": 1743504057.6413684, "EXTRA_S321": 14, "EXTRA_F641": 84.635513, "Row": 245 }, "geometry": { "type": "Point", "coordinates": [ -0.431513615524726, 51.062546837723943 ] } },
{ "type": "Feature", "id": 497, "properties": { "LAYER": "Overhead Structure", "CLASS": 19, "INTENSITY": 2, "RETURN_CNT": 2, "RETURN_NUM": 2, "GPS_TIME": 1743504057.6413684, "EXTRA_S321": 14, "EXTRA_F641": 84.635513, "Row": 256 }, "geometry": { "type": "Point", "coordinates": [ -0.431574865787389, 51.060861467578036 ] } },
{ "type": "Feature", "id": 498, "properties": { "LAYER": "Overhead Structure", "CLASS": 19, "INTENSITY": 2, "RETURN_CNT": 2, "RETURN_NUM": 2, "GPS_TIME": 1743504057.6413684, "EXTRA_S321": 14, "EXTRA_F641": 84.635513, "Row": 257 }, "geometry": { "type": "Point", "coordinates": [ -0.431542237594396, 51.06086439783158 ] } },
{ "type": "Feature", "id": 499, "properties": { "LAYER": "Overhead Structure", "CLASS": 19, "INTENSITY": 2, "RETURN_CNT": 2, "RETURN_NUM": 2, "GPS_TIME": 1743504057.6413684, "EXTRA_S321": 14, "EXTRA_F641": 84.635513, "Row": 246 }, "geometry": { "type": "Point", "coordinates": [ -0.431480544271952, 51.062546223800702 ] } },
{ "type": "Feature", "id": 500, "properties": { "LAYER": "Overhead Structure", "CLASS": 19, "INTENSITY": 2, "RETURN_CNT": 2, "RETURN_NUM": 2, "GPS_TIME": 1743504057.6413684, "EXTRA_S321": 14, "EXTRA_F641": 84.635513, "Row": 247 }, "geometry": { "type": "Point", "coordinates": [ -0.431449631628491, 51.062546712152134 ] } },
{ "type": "Feature", "id": 501, "properties": { "LAYER": "Overhead Structure", "CLASS": 19, "INTENSITY": 2, "RETURN_CNT": 2, "RETURN_NUM": 2, "GPS_TIME": 1743504057.6413684, "EXTRA_S321": 14, "EXTRA_F641": 84.635513, "Row": 259 }, "geometry": { "type": "Point", "coordinates": [ -0.431478129298928, 51.060865266260102 ] } },
{ "type": "Feature", "id": 502, "properties": { "LAYER": "Overhead Structure", "CLASS": 19, "INTENSITY": 2, "RETURN_CNT": 2, "RETURN_NUM": 2, "GPS_TIME": 1743504057.6413684, "EXTRA_S321": 14, "EXTRA_F641": 84.635513, "Row": 258 }, "geometry": { "type": "Point", "coordinates": [ -0.431509747262623, 51.060866220859161 ] } },
{ "type": "Feature", "id": 503, "properties": { "LAYER": "Overhead Structure", "CLASS": 19, "INTENSITY": 2, "RETURN_CNT": 2, "RETURN_NUM": 2, "GPS_TIME": 1743504057.6413684, "EXTRA_S321": 14, "EXTRA_F641": 84.635513, "Row": 248 }, "geometry": { "type": "Point", "coordinates": [ -0.431416974097798, 51.062546659092604 ] } },
{ "type": "Feature", "id": 504, "properties": { "LAYER": "Overhead Structure", "CLASS": 19, "INTENSITY": 2, "RETURN_CNT": 2, "RETURN_NUM": 2, "GPS_TIME": 1743504057.6413684, "EXTRA_S321": 14, "EXTRA_F641": 84.635513, "Row": 249 }, "geometry": { "type": "Point", "coordinates": [ -0.431385464194429, 51.062546367521705 ] } },
{ "type": "Feature", "id": 505, "properties": { "LAYER": "Overhead Structure", "CLASS": 19, "INTENSITY": 2, "RETURN_CNT": 2, "RETURN_NUM": 2, "GPS_TIME": 1743504057.6413684, "EXTRA_S321": 14, "EXTRA_F641": 84.635513, "Row": 260 }, "geometry": { "type": "Point", "coordinates": [ -0.43144636665361, 51.060866044044893 ] } },
{ "type": "Feature", "id": 506, "properties": { "LAYER": "Overhead Structure", "CLASS": 19, "INTENSITY": 2, "RETURN_CNT": 2, "RETURN_NUM": 2, "GPS_TIME": 1743504057.6413684, "EXTRA_S321": 14, "EXTRA_F641": 84.635513, "Row": 261 }, "geometry": { "type": "Point", "coordinates": [ -0.4314138462574, 51.06086630056182 ] } },
{ "type": "Feature", "id": 507, "properties": { "LAYER": "Overhead Structure", "CLASS": 19, "INTENSITY": 2, "RETURN_CNT": 2, "RETURN_NUM": 2, "GPS_TIME": 1743504057.6413684, "EXTRA_S321": 14, "EXTRA_F641": 84.635513, "Row": 250 }, "geometry": { "type": "Point", "coordinates": [ -0.43135419759383, 51.062546447088707 ] } },
{ "type": "Feature", "id": 508, "properties": { "LAYER": "Overhead Structure", "CLASS": 19, "INTENSITY": 2, "RETURN_CNT": 2, "RETURN_NUM": 2, "GPS_TIME": 1743504057.6413684, "EXTRA_S321": 14, "EXTRA_F641": 84.635513, "Row": 251 }, "geometry": { "type": "Point", "coordinates": [ -0.431322262922208, 51.062546795627412 ] } },
{ "type": "Feature", "id": 509, "properties": { "LAYER": "Overhead Structure", "CLASS": 19, "INTENSITY": 2, "RETURN_CNT": 2, "RETURN_NUM": 2, "GPS_TIME": 1743504057.6413684, "EXTRA_S321": 14, "EXTRA_F641": 84.635513, "Row": 252 }, "geometry": { "type": "Point", "coordinates": [ -0.431290393504229, 51.062547009789952 ] } },
{ "type": "Feature", "id": 510, "properties": { "LAYER": "Overhead Structure", "CLASS": 19, "INTENSITY": 2, "RETURN_CNT": 2, "RETURN_NUM": 2, "GPS_TIME": 1743504057.6413684, "EXTRA_S321": 14, "EXTRA_F641": 84.635513, "Row": 263 }, "geometry": { "type": "Point", "coordinates": [ -0.431350182714794, 51.060867729868598 ] } },
{ "type": "Feature", "id": 511, "properties": { "LAYER": "Overhead Structure", "CLASS": 19, "INTENSITY": 2, "RETURN_CNT": 2, "RETURN_NUM": 2, "GPS_TIME": 1743504057.6413684, "EXTRA_S321": 14, "EXTRA_F641": 84.635513, "Row": 262 }, "geometry": { "type": "Point", "coordinates": [ -0.431381386471105, 51.06086891004896 ] } },
{ "type": "Feature", "id": 512, "properties": { "LAYER": "Overhead Structure", "CLASS": 19, "INTENSITY": 2, "RETURN_CNT": 2, "RETURN_NUM": 2, "GPS_TIME": 1743504057.6413684, "EXTRA_S321": 14, "EXTRA_F641": 84.635513, "Row": 263 }, "geometry": { "type": "Point", "coordinates": [ -0.431304992703248, 51.06105252480917 ] } },
{ "type": "Feature", "id": 513, "properties": { "LAYER": "Overhead Structure", "CLASS": 19, "INTENSITY": 2, "RETURN_CNT": 2, "RETURN_NUM": 2, "GPS_TIME": 1743504057.6413684, "EXTRA_S321": 14, "EXTRA_F641": 84.635513, "Row": 262 }, "geometry": { "type": "Point", "coordinates": [ -0.431337042207447, 51.061056708468257 ] } },
{ "type": "Feature", "id": 514, "properties": { "LAYER": "Overhead Structure", "CLASS": 19, "INTENSITY": 2, "RETURN_CNT": 2, "RETURN_NUM": 2, "GPS_TIME": 1743504057.6413684, "EXTRA_S321": 14, "EXTRA_F641": 84.635513, "Row": 261 }, "geometry": { "type": "Point", "coordinates": [ -0.431368171936566, 51.061061024200669 ] } },
{ "type": "Feature", "id": 515, "properties": { "LAYER": "Overhead Structure", "CLASS": 19, "INTENSITY": 2, "RETURN_CNT": 2, "RETURN_NUM": 2, "GPS_TIME": 1743504057.6413684, "EXTRA_S321": 14, "EXTRA_F641": 84.635513, "Row": 260 }, "geometry": { "type": "Point", "coordinates": [ -0.431358353943553, 51.061225867653903 ] } },
{ "type": "Feature", "id": 516, "properties": { "LAYER": "Overhead Structure", "CLASS": 19, "INTENSITY": 2, "RETURN_CNT": 2, "RETURN_NUM": 2, "GPS_TIME": 1743504057.6413684, "EXTRA_S321": 14, "EXTRA_F641": 84.635513, "Row": 259, "marker-color": "#7e7e7e", "marker-size": "medium", "marker-symbol": "circle" }, "geometry": { "type": "Point", "coordinates": [ -0.43126013920597, 51.061758344131277 ] } },
{ "type": "Feature", "id": 517, "properties": { "LAYER": "Overhead Structure", "CLASS": 19, "INTENSITY": 2, "RETURN_CNT": 2, "RETURN_NUM": 2, "GPS_TIME": 1743504057.6413684, "EXTRA_S321": 14, "EXTRA_F641": 84.635513, "Row": 253 }, "geometry": { "type": "Point", "coordinates": [ -0.431257737410023, 51.062546937096769 ] } },
{ "type": "Feature", "id": 518, "properties": { "LAYER": "Overhead Structure", "CLASS": 19, "INTENSITY": 2, "RETURN_CNT": 2, "RETURN_NUM": 2, "GPS_TIME": 1743504057.6413684, "EXTRA_S321": 14, "EXTRA_F641": 84.635513, "Row": 254 }, "geometry": { "type": "Point", "coordinates": [ -0.431226445076595, 51.062547456777565 ] } },
{ "type": "Feature", "id": 519, "properties": { "LAYER": "Overhead Structure", "CLASS": 19, "INTENSITY": 2, "RETURN_CNT": 2, "RETURN_NUM": 2, "GPS_TIME": 1743504057.6413684, "EXTRA_S321": 14, "EXTRA_F641": 84.635513, "Row": 255 }, "geometry": { "type": "Point", "coordinates": [ -0.431194605354042, 51.062548605930594 ] } },
{ "type": "Feature", "id": 520, "properties": { "LAYER": "Overhead Structure", "CLASS": 19, "INTENSITY": 2, "RETURN_CNT": 2, "RETURN_NUM": 2, "GPS_TIME": 1743504057.6413684, "EXTRA_S321": 14, "EXTRA_F641": 84.635513, "Row": 256 }, "geometry": { "type": "Point", "coordinates": [ -0.431163543855614, 51.062548046555484 ] } },
{ "type": "Feature", "id": 521, "properties": { "LAYER": "Overhead Structure", "CLASS": 19, "INTENSITY": 2, "RETURN_CNT": 2, "RETURN_NUM": 2, "GPS_TIME": 1743504057.6413684, "EXTRA_S321": 14, "EXTRA_F641": 84.635513, "Row": 257 }, "geometry": { "type": "Point", "coordinates": [ -0.431131334236974, 51.062548959212613 ] } },
{ "type": "Feature", "id": 522, "properties": { "LAYER": "Overhead Structure", "CLASS": 19, "INTENSITY": 2, "RETURN_CNT": 2, "RETURN_NUM": 2, "GPS_TIME": 1743504057.6413684, "EXTRA_S321": 14, "EXTRA_F641": 84.635513, "Row": 258 }, "geometry": { "type": "Point", "coordinates": [ -0.431099226455648, 51.062548667034214 ] } },
{ "type": "Feature", "id": 523, "properties": { "Row": 236 }, "geometry": { "type": "Point", "coordinates": [ -0.431798122871612, 51.062550624834813 ] } }
]
}
