{
"type": "FeatureCollection",
"name": "posts",
"crs": { "type": "name", "properties": { "name": "urn:ogc:def:crs:OGC:1.3:CRS84" } },
"features": [
{ "type": "Feature", "id": 0, "properties": { "LAYER": "Overhead Structure", "CLASS": 19, "INTENSITY": 2, "RETURN_CNT": 2, "RETURN_NUM": 2, "GPS_TIME": 1743504057.6413684, "EXTRA_S321": 14, "EXTRA_F641": 84.635513, "Row": 3 }, "geometry": { "type": "Point", "coordinates": [ -0.437832908512504, 51.062515818739662 ] } },
{ "type": "Feature", "id": 1, "properties": { "LAYER": "Overhead Structure", "CLASS": 19, "INTENSITY": 2, "RETURN_CNT": 2, "RETURN_NUM": 2, "GPS_TIME": 1743504057.6413684, "EXTRA_S321": 14, "EXTRA_F641": 84.635513, "Row": 2 }, "geometry": { "type": "Point", "coordinates": [ -0.437908664857735, 51.062672768839036 ] } },
{ "type": "Feature", "id": 3, "properties": { "LAYER": "Overhead Structure", "CLASS": 19, "INTENSITY": 2, "RETURN_CNT": 2, "RETURN_NUM": 2, "GPS_TIME": 1743504057.6413684, "EXTRA_S321": 14, "EXTRA_F641": 84.635513, "Row": 1 }, "geometry": { "type": "Point", "coordinates": [ -0.437984587211112, 51.06283216812632 ] } },
{ "type": "Feature", "id": 4, "properties": { "LAYER": "Overhead Structure", "CLASS": 19, "INTENSITY": 2, "RETURN_CNT": 2, "RETURN_NUM": 2, "GPS_TIME": 1743504057.6413684, "EXTRA_S321": 14, "EXTRA_F641": 84.635513, "Row": 1 }, "geometry": { "type": "Point", "coordinates": [ -0.438079860177707, 51.063173462694095 ] } },
{ "type": "Feature", "id": 5, "properties": { "LAYER": "Overhead Structure", "CLASS": 19, "INTENSITY": 2, "RETURN_CNT": 2, "RETURN_NUM": 2, "GPS_TIME": 1743504057.6413684, "EXTRA_S321": 14, "EXTRA_F641": 84.635513, "Row": 2 }, "geometry": { "type": "Point", "coordinates": [ -0.438048738361272, 51.063176828074127 ] } },
{ "type": "Feature", "id": 6, "properties": { "LAYER": "Overhead Structure", "CLASS": 19, "INTENSITY": 2, "RETURN_CNT": 2, "RETURN_NUM": 2, "GPS_TIME": 1743504057.6413684, "EXTRA_S321": 14, "EXTRA_F641": 84.635513, "Row": 3 }, "geometry": { "type": "Point", "coordinates": [ -0.438017762900981, 51.063179768438978 ] } },
{ "type": "Feature", "id": 7, "properties": { "LAYER": "Overhead Structure", "CLASS": 19, "INTENSITY": 2, "RETURN_CNT": 2, "RETURN_NUM": 2, "GPS_TIME": 1743504057.6413684, "EXTRA_S321": 14, "EXTRA_F641": 84.635513, "Row": 4 }, "geometry": { "type": "Point", "coordinates": [ -0.437986704564053, 51.063183094262428 ] } },
{ "type": "Feature", "id": 8, "properties": { "LAYER": "Overhead Structure", "CLASS": 19, "INTENSITY": 2, "RETURN_CNT": 2, "RETURN_NUM": 2, "GPS_TIME": 1743504057.6413684, "EXTRA_S321": 14, "EXTRA_F641": 84.635513, "Row": 5 }, "geometry": { "type": "Point", "coordinates": [ -0.437956230833998, 51.063186219402354 ] } },
{ "type": "Feature", "id": 9, "properties": { "LAYER": "Overhead Structure", "CLASS": 19, "INTENSITY": 2, "RETURN_CNT": 2, "RETURN_NUM": 2, "GPS_TIME": 1743504057.6413684, "EXTRA_S321": 14, "EXTRA_F641": 84.635513, "Row": 6 }, "geometry": { "type": "Point", "coordinates": [ -0.437925245871801, 51.063190810453222 ] } },
{ "type": "Feature", "id": 10, "properties": { "LAYER": "Overhead Structure", "CLASS": 19, "INTENSITY": 2, "RETURN_CNT": 2, "RETURN_NUM": 2, "GPS_TIME": 1743504057.6413684, "EXTRA_S321": 14, "EXTRA_F641": 84.635513, "Row": 7 }, "geometry": { "type": "Point", "coordinates": [ -0.437894384289502, 51.063193891567174 ] } },
{ "type": "Feature", "id": 11, "properties": { "LAYER": "Overhead Structure", "CLASS": 19, "INTENSITY": 2, "RETURN_CNT": 2, "RETURN_NUM": 2, "GPS_TIME": 1743504057.6413684, "EXTRA_S321": 14, "EXTRA_F641": 84.635513, "Row": 8 }, "geometry": { "type": "Point", "coordinates": [ -0.437862848169508, 51.063198291301575 ] } },
{ "type": "Feature", "id": 12, "properties": { "LAYER": "Overhead Structure", "CLASS": 19, "INTENSITY": 2, "RETURN_CNT": 2, "RETURN_NUM": 2, "GPS_TIME": 1743504057.6413684, "EXTRA_S321": 14, "EXTRA_F641": 84.635513, "Row": 9 }, "geometry": { "type": "Point", "coordinates": [ -0.43783233164464, 51.063201744009589 ] } },
{ "type": "Feature", "id": 13, "properties": { "LAYER": "Overhead Structure", "CLASS": 19, "INTENSITY": 2, "RETURN_CNT": 2, "RETURN_NUM": 2, "GPS_TIME": 1743504057.6413684, "EXTRA_S321": 14, "EXTRA_F641": 84.635513, "Row": 10 }, "geometry": { "type": "Point", "coordinates": [ -0.437800630592447, 51.063204606599115 ] } },
{ "type": "Feature", "id": 14, "properties": { "LAYER": "Overhead Structure", "CLASS": 19, "INTENSITY": 2, "RETURN_CNT": 2, "RETURN_NUM": 2, "GPS_TIME": 1743504057.6413684, "EXTRA_S321": 14, "EXTRA_F641": 84.635513, "Row": 11 }, "geometry": { "type": "Point", "coordinates": [ -0.437769384295338, 51.06320807697945 ] } },
{ "type": "Feature", "id": 15, "properties": { "LAYER": "Overhead Structure", "CLASS": 19, "INTENSITY": 2, "RETURN_CNT": 2, "RETURN_NUM": 2, "GPS_TIME": 1743504057.6413684, "EXTRA_S321": 14, "EXTRA_F641": 84.635513, "Row": 12 }, "geometry": { "type": "Point", "coordinates": [ -0.437739537495324, 51.063211381083583 ] } },
{ "type": "Feature", "id": 16, "properties": { "LAYER": "Overhead Structure", "CLASS": 19, "INTENSITY": 2, "RETURN_CNT": 2, "RETURN_NUM": 2, "GPS_TIME": 1743504057.6413684, "EXTRA_S321": 14, "EXTRA_F641": 84.635513, "Row": 13 }, "geometry": { "type": "Point", "coordinates": [ -0.437708142722825, 51.063214450863747 ] } },
{ "type": "Feature", "id": 16, "properties": { "LAYER": "Overhead Structure", "CLASS": 19, "INTENSITY": 2, "RETURN_CNT": 2, "RETURN_NUM": 2, "GPS_TIME": 1743504057.6413684, "EXTRA_S321": 14, "EXTRA_F641": 84.635513, "Row": 4 }, "geometry": { "type": "Point", "coordinates": [ -0.437676426753743, 51.062065420531411 ] } },
{ "type": "Feature", "id": 17, "properties": { "LAYER": "Overhead Structure", "CLASS": 19, "INTENSITY": 2, "RETURN_CNT": 2, "RETURN_NUM": 2, "GPS_TIME": 1743504057.6413684, "EXTRA_S321": 14, "EXTRA_F641": 84.635513, "Row": 5 }, "geometry": { "type": "Point", "coordinates": [ -0.437650062706805, 51.062089777398562 ] } },
{ "type": "Feature", "id": 18, "properties": { "LAYER": "Overhead Structure", "CLASS": 19, "INTENSITY": 2, "RETURN_CNT": 2, "RETURN_NUM": 2, "GPS_TIME": 1743504057.6413684, "EXTRA_S321": 14, "EXTRA_F641": 84.635513, "Row": 6 }, "geometry": { "type": "Point", "coordinates": [ -0.437624779490438, 51.062112669864412 ] } },
{ "type": "Feature", "id": 20, "properties": { "LAYER": "Overhead Structure", "CLASS": 19, "INTENSITY": 2, "RETURN_CNT": 2, "RETURN_NUM": 2, "GPS_TIME": 1743504057.6413684, "EXTRA_S321": 14, "EXTRA_F641": 84.635513, "Row": 14 }, "geometry": { "type": "Point", "coordinates": [ -0.437677089427922, 51.063218317928843 ] } },
{ "type": "Feature", "id": 21, "properties": { "LAYER": "Overhead Structure", "CLASS": 19, "INTENSITY": 2, "RETURN_CNT": 2, "RETURN_NUM": 2, "GPS_TIME": 1743504057.6413684, "EXTRA_S321": 14, "EXTRA_F641": 84.635513, "Row": 15 }, "geometry": { "type": "Point", "coordinates": [ -0.43764603036079, 51.063221673242417 ] } },
{ "type": "Feature", "id": 22, "properties": { "LAYER": "Overhead Structure", "CLASS": 19, "INTENSITY": 2, "RETURN_CNT": 2, "RETURN_NUM": 2, "GPS_TIME": 1743504057.6413684, "EXTRA_S321": 14, "EXTRA_F641": 84.635513, "Row": 16 }, "geometry": { "type": "Point", "coordinates": [ -0.43761569161995, 51.063225037559434 ] } },
{ "type": "Feature", "id": 23, "properties": { "LAYER": "Overhead Structure", "CLASS": 19, "INTENSITY": 2, "RETURN_CNT": 2, "RETURN_NUM": 2, "GPS_TIME": 1743504057.6413684, "EXTRA_S321": 14, "EXTRA_F641": 84.635513, "Row": 17 }, "geometry": { "type": "Point", "coordinates": [ -0.437584665722134, 51.063229123729307 ] } },
{ "type": "Feature", "id": 23, "properties": { "LAYER": "Overhead Structure", "CLASS": 19, "INTENSITY": 2, "RETURN_CNT": 2, "RETURN_NUM": 2, "GPS_TIME": 1743504057.6413684, "EXTRA_S321": 14, "EXTRA_F641": 84.635513, "Row": 7 }, "geometry": { "type": "Point", "coordinates": [ -0.437599028408102, 51.062134544915828 ] } },
{ "type": "Feature", "id": 24, "properties": { "LAYER": "Overhead Structure", "CLASS": 19, "INTENSITY": 2, "RETURN_CNT": 2, "RETURN_NUM": 2, "GPS_TIME": 1743504057.6413684, "EXTRA_S321": 14, "EXTRA_F641": 84.635513, "Row": 8 }, "geometry": { "type": "Point", "coordinates": [ -0.437572728815174, 51.062156869441992 ] } },
{ "type": "Feature", "id": 25, "properties": { "LAYER": "Overhead Structure", "CLASS": 19, "INTENSITY": 2, "RETURN_CNT": 2, "RETURN_NUM": 2, "GPS_TIME": 1743504057.6413684, "EXTRA_S321": 14, "EXTRA_F641": 84.635513, "Row": 9 }, "geometry": { "type": "Point", "coordinates": [ -0.43754730709338, 51.06217954877706 ] } },
{ "type": "Feature", "id": 26, "properties": { "LAYER": "Overhead Structure", "CLASS": 19, "INTENSITY": 2, "RETURN_CNT": 2, "RETURN_NUM": 2, "GPS_TIME": 1743504057.6413684, "EXTRA_S321": 14, "EXTRA_F641": 84.635513, "Row": 10 }, "geometry": { "type": "Point", "coordinates": [ -0.437521215763933, 51.062201630028056 ] } },
{ "type": "Feature", "id": 28, "properties": { "LAYER": "Overhead Structure", "CLASS": 19, "INTENSITY": 2, "RETURN_CNT": 2, "RETURN_NUM": 2, "GPS_TIME": 1743504057.6413684, "EXTRA_S321": 14, "EXTRA_F641": 84.635513, "Row": 18 }, "geometry": { "type": "Point", "coordinates": [ -0.437552502740823, 51.063231036601863 ] } },
{ "type": "Feature", "id": 29, "properties": { "LAYER": "Overhead Structure", "CLASS": 19, "INTENSITY": 2, "RETURN_CNT": 2, "RETURN_NUM": 2, "GPS_TIME": 1743504057.6413684, "EXTRA_S321": 14, "EXTRA_F641": 84.635513, "Row": 19 }, "geometry": { "type": "Point", "coordinates": [ -0.437522444706356, 51.063234885360743 ] } },
{ "type": "Feature", "id": 30, "properties": { "LAYER": "Overhead Structure", "CLASS": 19, "INTENSITY": 2, "RETURN_CNT": 2, "RETURN_NUM": 2, "GPS_TIME": 1743504057.6413684, "EXTRA_S321": 14, "EXTRA_F641": 84.635513, "Row": 20 }, "geometry": { "type": "Point", "coordinates": [ -0.437490974337202, 51.063238230440327 ] } },
{ "type": "Feature", "id": 31, "properties": { "LAYER": "Overhead Structure", "CLASS": 19, "INTENSITY": 2, "RETURN_CNT": 2, "RETURN_NUM": 2, "GPS_TIME": 1743504057.6413684, "EXTRA_S321": 14, "EXTRA_F641": 84.635513, "Row": 21 }, "geometry": { "type": "Point", "coordinates": [ -0.437461243621787, 51.063242087081804 ] } },
{ "type": "Feature", "id": 31, "properties": { "LAYER": "Overhead Structure", "CLASS": 19, "INTENSITY": 2, "RETURN_CNT": 2, "RETURN_NUM": 2, "GPS_TIME": 1743504057.6413684, "EXTRA_S321": 14, "EXTRA_F641": 84.635513, "Row": 11 }, "geometry": { "type": "Point", "coordinates": [ -0.437495566119309, 51.062222828549956 ] } },
{ "type": "Feature", "id": 32, "properties": { "LAYER": "Overhead Structure", "CLASS": 19, "INTENSITY": 2, "RETURN_CNT": 2, "RETURN_NUM": 2, "GPS_TIME": 1743504057.6413684, "EXTRA_S321": 14, "EXTRA_F641": 84.635513, "Row": 12 }, "geometry": { "type": "Point", "coordinates": [ -0.437470952212394, 51.062245446400752 ] } },
{ "type": "Feature", "id": 33, "properties": { "LAYER": "Overhead Structure", "CLASS": 19, "INTENSITY": 2, "RETURN_CNT": 2, "RETURN_NUM": 2, "GPS_TIME": 1743504057.6413684, "EXTRA_S321": 14, "EXTRA_F641": 84.635513, "Row": 13 }, "geometry": { "type": "Point", "coordinates": [ -0.437438569960824, 51.062249077710966 ] } },
{ "type": "Feature", "id": 34, "properties": { "LAYER": "Overhead Structure", "CLASS": 19, "INTENSITY": 2, "RETURN_CNT": 2, "RETURN_NUM": 2, "GPS_TIME": 1743504057.6413684, "EXTRA_S321": 14, "EXTRA_F641": 84.635513, "Row": 14 }, "geometry": { "type": "Point", "coordinates": [ -0.437409417957541, 51.062253766943009 ] } },
{ "type": "Feature", "id": 36, "properties": { "LAYER": "Overhead Structure", "CLASS": 19, "INTENSITY": 2, "RETURN_CNT": 2, "RETURN_NUM": 2, "GPS_TIME": 1743504057.6413684, "EXTRA_S321": 14, "EXTRA_F641": 84.635513, "Row": 23 }, "geometry": { "type": "Point", "coordinates": [ -0.437398746232215, 51.063245728360982 ] } },
{ "type": "Feature", "id": 37, "properties": { "LAYER": "Overhead Structure", "CLASS": 19, "INTENSITY": 2, "RETURN_CNT": 2, "RETURN_NUM": 2, "GPS_TIME": 1743504057.6413684, "EXTRA_S321": 14, "EXTRA_F641": 84.635513, "Row": 22 }, "geometry": { "type": "Point", "coordinates": [ -0.437430372640275, 51.063247016412738 ] } },
{ "type": "Feature", "id": 38, "properties": { "LAYER": "Overhead Structure", "CLASS": 19, "INTENSITY": 2, "RETURN_CNT": 2, "RETURN_NUM": 2, "GPS_TIME": 1743504057.6413684, "EXTRA_S321": 14, "EXTRA_F641": 84.635513, "Row": 24 }, "geometry": { "type": "Point", "coordinates": [ -0.437367662551396, 51.063249326845792 ] } },
{ "type": "Feature", "id": 39, "properties": { "LAYER": "Overhead Structure", "CLASS": 19, "INTENSITY": 2, "RETURN_CNT": 2, "RETURN_NUM": 2, "GPS_TIME": 1743504057.6413684, "EXTRA_S321": 14, "EXTRA_F641": 84.635513, "Row": 25 }, "geometry": { "type": "Point", "coordinates": [ -0.437336082241919, 51.063250766074788 ] } },
{ "type": "Feature", "id": 39, "properties": { "LAYER": "Overhead Structure", "CLASS": 19, "INTENSITY": 2, "RETURN_CNT": 2, "RETURN_NUM": 2, "GPS_TIME": 1743504057.6413684, "EXTRA_S321": 14, "EXTRA_F641": 84.635513, "Row": 15 }, "geometry": { "type": "Point", "coordinates": [ -0.437377981119649, 51.062257521458356 ] } },
{ "type": "Feature", "id": 40, "properties": { "LAYER": "Overhead Structure", "CLASS": 19, "INTENSITY": 2, "RETURN_CNT": 2, "RETURN_NUM": 2, "GPS_TIME": 1743504057.6413684, "EXTRA_S321": 14, "EXTRA_F641": 84.635513, "Row": 16 }, "geometry": { "type": "Point", "coordinates": [ -0.437348138148301, 51.062263054181081 ] } },
{ "type": "Feature", "id": 41, "properties": { "LAYER": "Overhead Structure", "CLASS": 19, "INTENSITY": 2, "RETURN_CNT": 2, "RETURN_NUM": 2, "GPS_TIME": 1743504057.6413684, "EXTRA_S321": 14, "EXTRA_F641": 84.635513, "Row": 17 }, "geometry": { "type": "Point", "coordinates": [ -0.437316921736352, 51.062268050581949 ] } },
{ "type": "Feature", "id": 42, "properties": { "LAYER": "Overhead Structure", "CLASS": 19, "INTENSITY": 2, "RETURN_CNT": 2, "RETURN_NUM": 2, "GPS_TIME": 1743504057.6413684, "EXTRA_S321": 14, "EXTRA_F641": 84.635513, "Row": 18 }, "geometry": { "type": "Point", "coordinates": [ -0.437285954619294, 51.062270612668726 ] } },
{ "type": "Feature", "id": 44, "properties": { "LAYER": "Overhead Structure", "CLASS": 19, "INTENSITY": 2, "RETURN_CNT": 2, "RETURN_NUM": 2, "GPS_TIME": 1743504057.6413684, "EXTRA_S321": 14, "EXTRA_F641": 84.635513, "Row": 27 }, "geometry": { "type": "Point", "coordinates": [ -0.437272200102363, 51.063250667724184 ] } },
{ "type": "Feature", "id": 45, "properties": { "LAYER": "Overhead Structure", "CLASS": 19, "INTENSITY": 2, "RETURN_CNT": 2, "RETURN_NUM": 2, "GPS_TIME": 1743504057.6413684, "EXTRA_S321": 14, "EXTRA_F641": 84.635513, "Row": 26 }, "geometry": { "type": "Point", "coordinates": [ -0.437304252654989, 51.063252161264451 ] } },
{ "type": "Feature", "id": 46, "properties": { "LAYER": "Overhead Structure", "CLASS": 19, "INTENSITY": 2, "RETURN_CNT": 2, "RETURN_NUM": 2, "GPS_TIME": 1743504057.6413684, "EXTRA_S321": 14, "EXTRA_F641": 84.635513, "Row": 28 }, "geometry": { "type": "Point", "coordinates": [ -0.437241253754162, 51.063253623823627 ] } },
{ "type": "Feature", "id": 58, "properties": { "LAYER": "Overhead Structure", "CLASS": 19, "INTENSITY": 2, "RETURN_CNT": 2, "RETURN_NUM": 2, "GPS_TIME": 1743504057.6413684, "EXTRA_S321": 14, "EXTRA_F641": 84.635513, "Row": 19 }, "geometry": { "type": "Point", "coordinates": [ -0.437254270104429, 51.06227429166065 ] } },
{ "type": "Feature", "id": 59, "properties": { "LAYER": "Overhead Structure", "CLASS": 19, "INTENSITY": 2, "RETURN_CNT": 2, "RETURN_NUM": 2, "GPS_TIME": 1743504057.6413684, "EXTRA_S321": 14, "EXTRA_F641": 84.635513, "Row": 20 }, "geometry": { "type": "Point", "coordinates": [ -0.437223758516092, 51.062278218934189 ] } },
{ "type": "Feature", "id": 61, "properties": { "LAYER": "Overhead Structure", "CLASS": 19, "INTENSITY": 2, "RETURN_CNT": 2, "RETURN_NUM": 2, "GPS_TIME": 1743504057.6413684, "EXTRA_S321": 14, "EXTRA_F641": 84.635513, "Row": 29 }, "geometry": { "type": "Point", "coordinates": [ -0.437209953087391, 51.063254654347858 ] } },
{ "type": "Feature", "id": 62, "properties": { "LAYER": "Overhead Structure", "CLASS": 19, "INTENSITY": 2, "RETURN_CNT": 2, "RETURN_NUM": 2, "GPS_TIME": 1743504057.6413684, "EXTRA_S321": 14, "EXTRA_F641": 84.635513, "Row": 30 }, "geometry": { "type": "Point", "coordinates": [ -0.437178951771425, 51.063256908511526 ] } },
{ "type": "Feature", "id": 63, "properties": { "LAYER": "Overhead Structure", "CLASS": 19, "INTENSITY": 2, "RETURN_CNT": 2, "RETURN_NUM": 2, "GPS_TIME": 1743504057.6413684, "EXTRA_S321": 14, "EXTRA_F641": 84.635513, "Row": 31 }, "geometry": { "type": "Point", "coordinates": [ -0.437146315566599, 51.063258038991783 ] } },
{ "type": "Feature", "id": 67, "properties": { "LAYER": "Overhead Structure", "CLASS": 19, "INTENSITY": 2, "RETURN_CNT": 2, "RETURN_NUM": 2, "GPS_TIME": 1743504057.6413684, "EXTRA_S321": 14, "EXTRA_F641": 84.635513, "Row": 21 }, "geometry": { "type": "Point", "coordinates": [ -0.437193055753999, 51.062282505372224 ] } },
{ "type": "Feature", "id": 68, "properties": { "LAYER": "Overhead Structure", "CLASS": 19, "INTENSITY": 2, "RETURN_CNT": 2, "RETURN_NUM": 2, "GPS_TIME": 1743504057.6413684, "EXTRA_S321": 14, "EXTRA_F641": 84.635513, "Row": 22 }, "geometry": { "type": "Point", "coordinates": [ -0.437163590322165, 51.06228727523353 ] } },
{ "type": "Feature", "id": 69, "properties": { "LAYER": "Overhead Structure", "CLASS": 19, "INTENSITY": 2, "RETURN_CNT": 2, "RETURN_NUM": 2, "GPS_TIME": 1743504057.6413684, "EXTRA_S321": 14, "EXTRA_F641": 84.635513, "Row": 23 }, "geometry": { "type": "Point", "coordinates": [ -0.437132851485909, 51.062291093033195 ] } },
{ "type": "Feature", "id": 96, "properties": { "LAYER": "Overhead Structure", "CLASS": 19, "INTENSITY": 2, "RETURN_CNT": 2, "RETURN_NUM": 2, "GPS_TIME": 1743504057.6413684, "EXTRA_S321": 14, "EXTRA_F641": 84.635513, "Row": 38 }, "geometry": { "type": "Point", "coordinates": [ -0.436923797550275, 51.063260464081665 ] } },
{ "type": "Feature", "id": 71, "properties": { "LAYER": "Overhead Structure", "CLASS": 19, "INTENSITY": 2, "RETURN_CNT": 2, "RETURN_NUM": 2, "GPS_TIME": 1743504057.6413684, "EXTRA_S321": 14, "EXTRA_F641": 84.635513, "Row": 32 }, "geometry": { "type": "Point", "coordinates": [ -0.437115846422727, 51.063260939287645 ] } },
{ "type": "Feature", "id": 72, "properties": { "LAYER": "Overhead Structure", "CLASS": 19, "INTENSITY": 2, "RETURN_CNT": 2, "RETURN_NUM": 2, "GPS_TIME": 1743504057.6413684, "EXTRA_S321": 14, "EXTRA_F641": 84.635513, "Row": 33 }, "geometry": { "type": "Point", "coordinates": [ -0.437083623959477, 51.063261439408329 ] } },
{ "type": "Feature", "id": 76, "properties": { "LAYER": "Overhead Structure", "CLASS": 19, "INTENSITY": 2, "RETURN_CNT": 2, "RETURN_NUM": 2, "GPS_TIME": 1743504057.6413684, "EXTRA_S321": 14, "EXTRA_F641": 84.635513, "Row": 24 }, "geometry": { "type": "Point", "coordinates": [ -0.437103293187802, 51.062295689432574 ] } },
{ "type": "Feature", "id": 77, "properties": { "LAYER": "Overhead Structure", "CLASS": 19, "INTENSITY": 2, "RETURN_CNT": 2, "RETURN_NUM": 2, "GPS_TIME": 1743504057.6413684, "EXTRA_S321": 14, "EXTRA_F641": 84.635513, "Row": 25 }, "geometry": { "type": "Point", "coordinates": [ -0.437072137850353, 51.062299948631008 ] } },
{ "type": "Feature", "id": 79, "properties": { "LAYER": "Overhead Structure", "CLASS": 19, "INTENSITY": 2, "RETURN_CNT": 2, "RETURN_NUM": 2, "GPS_TIME": 1743504057.6413684, "EXTRA_S321": 14, "EXTRA_F641": 84.635513, "Row": 34 }, "geometry": { "type": "Point", "coordinates": [ -0.437052343231718, 51.063261910632882 ] } },
{ "type": "Feature", "id": 80, "properties": { "LAYER": "Overhead Structure", "CLASS": 19, "INTENSITY": 2, "RETURN_CNT": 2, "RETURN_NUM": 2, "GPS_TIME": 1743504057.6413684, "EXTRA_S321": 14, "EXTRA_F641": 84.635513, "Row": 35 }, "geometry": { "type": "Point", "coordinates": [ -0.437019904705239, 51.06326186279469 ] } },
{ "type": "Feature", "id": 85, "properties": { "LAYER": "Overhead Structure", "CLASS": 19, "INTENSITY": 2, "RETURN_CNT": 2, "RETURN_NUM": 2, "GPS_TIME": 1743504057.6413684, "EXTRA_S321": 14, "EXTRA_F641": 84.635513, "Row": 26 }, "geometry": { "type": "Point", "coordinates": [ -0.437040911299497, 51.062305257640141 ] } },
{ "type": "Feature", "id": 86, "properties": { "LAYER": "Overhead Structure", "CLASS": 19, "INTENSITY": 2, "RETURN_CNT": 2, "RETURN_NUM": 2, "GPS_TIME": 1743504057.6413684, "EXTRA_S321": 14, "EXTRA_F641": 84.635513, "Row": 27 }, "geometry": { "type": "Point", "coordinates": [ -0.437010251732241, 51.062307644663719 ] } },
{ "type": "Feature", "id": 88, "properties": { "LAYER": "Overhead Structure", "CLASS": 19, "INTENSITY": 2, "RETURN_CNT": 2, "RETURN_NUM": 2, "GPS_TIME": 1743504057.6413684, "EXTRA_S321": 14, "EXTRA_F641": 84.635513, "Row": 36 }, "geometry": { "type": "Point", "coordinates": [ -0.436988576667837, 51.063262267282504 ] } },
{ "type": "Feature", "id": 89, "properties": { "LAYER": "Overhead Structure", "CLASS": 19, "INTENSITY": 2, "RETURN_CNT": 2, "RETURN_NUM": 2, "GPS_TIME": 1743504057.6413684, "EXTRA_S321": 14, "EXTRA_F641": 84.635513, "Row": 37 }, "geometry": { "type": "Point", "coordinates": [ -0.436956034909393, 51.063262257601188 ] } },
{ "type": "Feature", "id": 92, "properties": { "LAYER": "Overhead Structure", "CLASS": 19, "INTENSITY": 2, "RETURN_CNT": 2, "RETURN_NUM": 2, "GPS_TIME": 1743504057.6413684, "EXTRA_S321": 14, "EXTRA_F641": 84.635513, "Row": 28 }, "geometry": { "type": "Point", "coordinates": [ -0.436979176080712, 51.06231117211572 ] } },
{ "type": "Feature", "id": 93, "properties": { "LAYER": "Overhead Structure", "CLASS": 19, "INTENSITY": 2, "RETURN_CNT": 2, "RETURN_NUM": 2, "GPS_TIME": 1743504057.6413684, "EXTRA_S321": 14, "EXTRA_F641": 84.635513, "Row": 29 }, "geometry": { "type": "Point", "coordinates": [ -0.436948861758924, 51.062315401315345 ] } },
{ "type": "Feature", "id": 96, "properties": { "LAYER": "Overhead Structure", "CLASS": 19, "INTENSITY": 2, "RETURN_CNT": 2, "RETURN_NUM": 2, "GPS_TIME": 1743504057.6413684, "EXTRA_S321": 14, "EXTRA_F641": 84.635513, "Row": 39 }, "geometry": { "type": "Point", "coordinates": [ -0.436892829863792, 51.063263420056238 ] } },
{ "type": "Feature", "id": 101, "properties": { "LAYER": "Overhead Structure", "CLASS": 19, "INTENSITY": 2, "RETURN_CNT": 2, "RETURN_NUM": 2, "GPS_TIME": 1743504057.6413684, "EXTRA_S321": 14, "EXTRA_F641": 84.635513, "Row": 30 }, "geometry": { "type": "Point", "coordinates": [ -0.436918395062282, 51.062320605504183 ] } },
{ "type": "Feature", "id": 102, "properties": { "LAYER": "Overhead Structure", "CLASS": 19, "INTENSITY": 2, "RETURN_CNT": 2, "RETURN_NUM": 2, "GPS_TIME": 1743504057.6413684, "EXTRA_S321": 14, "EXTRA_F641": 84.635513, "Row": 31 }, "geometry": { "type": "Point", "coordinates": [ -0.43688628112118, 51.062324348079748 ] } },
{ "type": "Feature", "id": 107, "properties": { "LAYER": "Overhead Structure", "CLASS": 19, "INTENSITY": 2, "RETURN_CNT": 2, "RETURN_NUM": 2, "GPS_TIME": 1743504057.6413684, "EXTRA_S321": 14, "EXTRA_F641": 84.635513, "Row": 32 }, "geometry": { "type": "Point", "coordinates": [ -0.43685639958585, 51.062328810402242 ] } },
{ "type": "Feature", "id": 108, "properties": { "LAYER": "Overhead Structure", "CLASS": 19, "INTENSITY": 2, "RETURN_CNT": 2, "RETURN_NUM": 2, "GPS_TIME": 1743504057.6413684, "EXTRA_S321": 14, "EXTRA_F641": 84.635513, "Row": 33 }, "geometry": { "type": "Point", "coordinates": [ -0.436845187440884, 51.062404291614307 ] } },
{ "type": "Feature", "id": 109, "properties": { "LAYER": "Overhead Structure", "CLASS": 19, "INTENSITY": 2, "RETURN_CNT": 2, "RETURN_NUM": 2, "GPS_TIME": 1743504057.6413684, "EXTRA_S321": 14, "EXTRA_F641": 84.635513, "Row": 34 }, "geometry": { "type": "Point", "coordinates": [ -0.436835190240367, 51.062481685576813 ] } },
{ "type": "Feature", "id": 110, "properties": { "LAYER": "Overhead Structure", "CLASS": 19, "INTENSITY": 2, "RETURN_CNT": 2, "RETURN_NUM": 2, "GPS_TIME": 1743504057.6413684, "EXTRA_S321": 14, "EXTRA_F641": 84.635513, "Row": 35 }, "geometry": { "type": "Point", "coordinates": [ -0.436823925001282, 51.062556297586298 ] } },
{ "type": "Feature", "id": 111, "properties": { "LAYER": "Overhead Structure", "CLASS": 19, "INTENSITY": 2, "RETURN_CNT": 2, "RETURN_NUM": 2, "GPS_TIME": 1743504057.6413684, "EXTRA_S321": 14, "EXTRA_F641": 84.635513, "Row": 36 }, "geometry": { "type": "Point", "coordinates": [ -0.436812818960952, 51.062630795968346 ] } },
{ "type": "Feature", "id": 112, "properties": { "LAYER": "Overhead Structure", "CLASS": 19, "INTENSITY": 2, "RETURN_CNT": 2, "RETURN_NUM": 2, "GPS_TIME": 1743504057.6413684, "EXTRA_S321": 14, "EXTRA_F641": 84.635513, "Row": 37 }, "geometry": { "type": "Point", "coordinates": [ -0.436802041755643, 51.062707113202727 ] } },
{ "type": "Feature", "id": 113, "properties": { "LAYER": "Overhead Structure", "CLASS": 19, "INTENSITY": 2, "RETURN_CNT": 2, "RETURN_NUM": 2, "GPS_TIME": 1743504057.6413684, "EXTRA_S321": 14, "EXTRA_F641": 84.635513, "Row": 38 }, "geometry": { "type": "Point", "coordinates": [ -0.436790666268408, 51.06278252191953 ] } },
{ "type": "Feature", "id": 114, "properties": { "LAYER": "Overhead Structure", "CLASS": 19, "INTENSITY": 2, "RETURN_CNT": 2, "RETURN_NUM": 2, "GPS_TIME": 1743504057.6413684, "EXTRA_S321": 14, "EXTRA_F641": 84.635513, "Row": 39 }, "geometry": { "type": "Point", "coordinates": [ -0.436780956844224, 51.062859479665605 ] } },
{ "type": "Feature", "id": 124, "properties": { "LAYER": "Overhead Structure", "CLASS": 19, "INTENSITY": 2, "RETURN_CNT": 2, "RETURN_NUM": 2, "GPS_TIME": 1743504057.6413684, "EXTRA_S321": 14, "EXTRA_F641": 84.635513, "Row": 40 }, "geometry": { "type": "Point", "coordinates": [ -0.436659649757125, 51.062652217347129 ] } },
{ "type": "Feature", "id": 125, "properties": { "LAYER": "Overhead Structure", "CLASS": 19, "INTENSITY": 2, "RETURN_CNT": 2, "RETURN_NUM": 2, "GPS_TIME": 1743504057.6413684, "EXTRA_S321": 14, "EXTRA_F641": 84.635513, "Row": 46 }, "geometry": { "type": "Point", "coordinates": [ -0.436644560506109, 51.063284415708502 ] } },
{ "type": "Feature", "id": 128, "properties": { "LAYER": "Overhead Structure", "CLASS": 19, "INTENSITY": 2, "RETURN_CNT": 2, "RETURN_NUM": 2, "GPS_TIME": 1743504057.6413684, "EXTRA_S321": 14, "EXTRA_F641": 84.635513, "Row": 41 }, "geometry": { "type": "Point", "coordinates": [ -0.436650078788712, 51.062730846027925 ] } },
{ "type": "Feature", "id": 129, "properties": { "LAYER": "Overhead Structure", "CLASS": 19, "INTENSITY": 2, "RETURN_CNT": 2, "RETURN_NUM": 2, "GPS_TIME": 1743504057.6413684, "EXTRA_S321": 14, "EXTRA_F641": 84.635513, "Row": 42 }, "geometry": { "type": "Point", "coordinates": [ -0.436639904908749, 51.062808779890581 ] } },
{ "type": "Feature", "id": 130, "properties": { "LAYER": "Overhead Structure", "CLASS": 19, "INTENSITY": 2, "RETURN_CNT": 2, "RETURN_NUM": 2, "GPS_TIME": 1743504057.6413684, "EXTRA_S321": 14, "EXTRA_F641": 84.635513, "Row": 43 }, "geometry": { "type": "Point", "coordinates": [ -0.436629852453484, 51.062888302935548 ] } },
{ "type": "Feature", "id": 131, "properties": { "LAYER": "Overhead Structure", "CLASS": 19, "INTENSITY": 2, "RETURN_CNT": 2, "RETURN_NUM": 2, "GPS_TIME": 1743504057.6413684, "EXTRA_S321": 14, "EXTRA_F641": 84.635513, "Row": 44 }, "geometry": { "type": "Point", "coordinates": [ -0.43661923740287, 51.062965051910169 ] } },
{ "type": "Feature", "id": 132, "properties": { "LAYER": "Overhead Structure", "CLASS": 19, "INTENSITY": 2, "RETURN_CNT": 2, "RETURN_NUM": 2, "GPS_TIME": 1743504057.6413684, "EXTRA_S321": 14, "EXTRA_F641": 84.635513, "Row": 45 }, "geometry": { "type": "Point", "coordinates": [ -0.436610137796869, 51.063043191134163 ] } },
{ "type": "Feature", "id": 133, "properties": { "LAYER": "Overhead Structure", "CLASS": 19, "INTENSITY": 2, "RETURN_CNT": 2, "RETURN_NUM": 2, "GPS_TIME": 1743504057.6413684, "EXTRA_S321": 14, "EXTRA_F641": 84.635513, "Row": 47 }, "geometry": { "type": "Point", "coordinates": [ -0.436614849662524, 51.063292318559263 ] } },
{ "type": "Feature", "id": 134, "properties": { "LAYER": "Overhead Structure", "CLASS": 19, "INTENSITY": 2, "RETURN_CNT": 2, "RETURN_NUM": 2, "GPS_TIME": 1743504057.6413684, "EXTRA_S321": 14, "EXTRA_F641": 84.635513, "Row": 48 }, "geometry": { "type": "Point", "coordinates": [ -0.43658451792258, 51.063297496667545 ] } },
{ "type": "Feature", "id": 138, "properties": { "LAYER": "Overhead Structure", "CLASS": 19, "INTENSITY": 2, "RETURN_CNT": 2, "RETURN_NUM": 2, "GPS_TIME": 1743504057.6413684, "EXTRA_S321": 14, "EXTRA_F641": 84.635513, "Row": 49 }, "geometry": { "type": "Point", "coordinates": [ -0.43655358017381, 51.06330129186582 ] } },
{ "type": "Feature", "id": 141, "properties": { "LAYER": "Overhead Structure", "CLASS": 19, "INTENSITY": 2, "RETURN_CNT": 2, "RETURN_NUM": 2, "GPS_TIME": 1743504057.6413684, "EXTRA_S321": 14, "EXTRA_F641": 84.635513, "Row": 40 }, "geometry": { "type": "Point", "coordinates": [ -0.436580674754365, 51.062364824101287 ] } },
{ "type": "Feature", "id": 142, "properties": { "LAYER": "Overhead Structure", "CLASS": 19, "INTENSITY": 2, "RETURN_CNT": 2, "RETURN_NUM": 2, "GPS_TIME": 1743504057.6413684, "EXTRA_S321": 14, "EXTRA_F641": 84.635513, "Row": 50 }, "geometry": { "type": "Point", "coordinates": [ -0.436524369839487, 51.063306870721242 ] } },
{ "type": "Feature", "id": 145, "properties": { "LAYER": "Overhead Structure", "CLASS": 19, "INTENSITY": 2, "RETURN_CNT": 2, "RETURN_NUM": 2, "GPS_TIME": 1743504057.6413684, "EXTRA_S321": 14, "EXTRA_F641": 84.635513, "Row": 41 }, "geometry": { "type": "Point", "coordinates": [ -0.436547717983592, 51.062363631450111 ] } },
{ "type": "Feature", "id": 146, "properties": { "LAYER": "Overhead Structure", "CLASS": 19, "INTENSITY": 2, "RETURN_CNT": 2, "RETURN_NUM": 2, "GPS_TIME": 1743504057.6413684, "EXTRA_S321": 14, "EXTRA_F641": 84.635513, "Row": 51 }, "geometry": { "type": "Point", "coordinates": [ -0.436492552413615, 51.063312171584094 ] } },
{ "type": "Feature", "id": 149, "properties": { "LAYER": "Overhead Structure", "CLASS": 19, "INTENSITY": 2, "RETURN_CNT": 2, "RETURN_NUM": 2, "GPS_TIME": 1743504057.6413684, "EXTRA_S321": 14, "EXTRA_F641": 84.635513, "Row": 42 }, "geometry": { "type": "Point", "coordinates": [ -0.436514773945254, 51.062362627453695 ] } },
{ "type": "Feature", "id": 150, "properties": { "LAYER": "Overhead Structure", "CLASS": 19, "INTENSITY": 2, "RETURN_CNT": 2, "RETURN_NUM": 2, "GPS_TIME": 1743504057.6413684, "EXTRA_S321": 14, "EXTRA_F641": 84.635513, "Row": 52 }, "geometry": { "type": "Point", "coordinates": [ -0.436460912652758, 51.063318037997156 ] } },
{ "type": "Feature", "id": 152, "properties": { "LAYER": "Overhead Structure", "CLASS": 19, "INTENSITY": 2, "RETURN_CNT": 2, "RETURN_NUM": 2, "GPS_TIME": 1743504057.6413684, "EXTRA_S321": 14, "EXTRA_F641": 84.635513, "Row": 43 }, "geometry": { "type": "Point", "coordinates": [ -0.436483094987529, 51.062361504883285 ] } },
{ "type": "Feature", "id": 153, "properties": { "LAYER": "Overhead Structure", "CLASS": 19, "INTENSITY": 2, "RETURN_CNT": 2, "RETURN_NUM": 2, "GPS_TIME": 1743504057.6413684, "EXTRA_S321": 14, "EXTRA_F641": 84.635513, "Row": 53 }, "geometry": { "type": "Point", "coordinates": [ -0.436431868718588, 51.06332293291856 ] } },
{ "type": "Feature", "id": 157, "properties": { "LAYER": "Overhead Structure", "CLASS": 19, "INTENSITY": 2, "RETURN_CNT": 2, "RETURN_NUM": 2, "GPS_TIME": 1743504057.6413684, "EXTRA_S321": 14, "EXTRA_F641": 84.635513, "Row": 44 }, "geometry": { "type": "Point", "coordinates": [ -0.436450258138473, 51.062359535467294 ] } },
{ "type": "Feature", "id": 158, "properties": { "LAYER": "Overhead Structure", "CLASS": 19, "INTENSITY": 2, "RETURN_CNT": 2, "RETURN_NUM": 2, "GPS_TIME": 1743504057.6413684, "EXTRA_S321": 14, "EXTRA_F641": 84.635513, "Row": 54 }, "geometry": { "type": "Point", "coordinates": [ -0.436401805412865, 51.06332682093921 ] } },
{ "type": "Feature", "id": 160, "properties": { "LAYER": "Overhead Structure", "CLASS": 19, "INTENSITY": 2, "RETURN_CNT": 2, "RETURN_NUM": 2, "GPS_TIME": 1743504057.6413684, "EXTRA_S321": 14, "EXTRA_F641": 84.635513, "Row": 55 }, "geometry": { "type": "Point", "coordinates": [ -0.436371918278653, 51.063334054390829 ] } },
{ "type": "Feature", "id": 162, "properties": { "LAYER": "Overhead Structure", "CLASS": 19, "INTENSITY": 2, "RETURN_CNT": 2, "RETURN_NUM": 2, "GPS_TIME": 1743504057.6413684, "EXTRA_S321": 14, "EXTRA_F641": 84.635513, "Row": 45 }, "geometry": { "type": "Point", "coordinates": [ -0.436417908544805, 51.062357255214707 ] } },
{ "type": "Feature", "id": 163, "properties": { "LAYER": "Overhead Structure", "CLASS": 19, "INTENSITY": 2, "RETURN_CNT": 2, "RETURN_NUM": 2, "GPS_TIME": 1743504057.6413684, "EXTRA_S321": 14, "EXTRA_F641": 84.635513, "Row": 56 }, "geometry": { "type": "Point", "coordinates": [ -0.436340965282695, 51.063338656312681 ] } },
{ "type": "Feature", "id": 166, "properties": { "LAYER": "Overhead Structure", "CLASS": 19, "INTENSITY": 2, "RETURN_CNT": 2, "RETURN_NUM": 2, "GPS_TIME": 1743504057.6413684, "EXTRA_S321": 14, "EXTRA_F641": 84.635513, "Row": 46 }, "geometry": { "type": "Point", "coordinates": [ -0.436385407277803, 51.062354759021659 ] } },
{ "type": "Feature", "id": 167, "properties": { "LAYER": "Overhead Structure", "CLASS": 19, "INTENSITY": 2, "RETURN_CNT": 2, "RETURN_NUM": 2, "GPS_TIME": 1743504057.6413684, "EXTRA_S321": 14, "EXTRA_F641": 84.635513, "Row": 57 }, "geometry": { "type": "Point", "coordinates": [ -0.436310689022744, 51.063343067164553 ] } },
{ "type": "Feature", "id": 169, "properties": { "LAYER": "Overhead Structure", "CLASS": 19, "INTENSITY": 2, "RETURN_CNT": 2, "RETURN_NUM": 2, "GPS_TIME": 1743504057.6413684, "EXTRA_S321": 14, "EXTRA_F641": 84.635513, "Row": 47 }, "geometry": { "type": "Point", "coordinates": [ -0.436354648123212, 51.062353400911675 ] } },
{ "type": "Feature", "id": 171, "properties": { "LAYER": "Overhead Structure", "CLASS": 19, "INTENSITY": 2, "RETURN_CNT": 2, "RETURN_NUM": 2, "GPS_TIME": 1743504057.6413684, "EXTRA_S321": 14, "EXTRA_F641": 84.635513, "Row": 58 }, "geometry": { "type": "Point", "coordinates": [ -0.436279501972247, 51.063348425306778 ] } },
{ "type": "Feature", "id": 174, "properties": { "LAYER": "Overhead Structure", "CLASS": 19, "INTENSITY": 2, "RETURN_CNT": 2, "RETURN_NUM": 2, "GPS_TIME": 1743504057.6413684, "EXTRA_S321": 14, "EXTRA_F641": 84.635513, "Row": 48 }, "geometry": { "type": "Point", "coordinates": [ -0.43632158753407, 51.062352022527634 ] } },
{ "type": "Feature", "id": 175, "properties": { "LAYER": "Overhead Structure", "CLASS": 19, "INTENSITY": 2, "RETURN_CNT": 2, "RETURN_NUM": 2, "GPS_TIME": 1743504057.6413684, "EXTRA_S321": 14, "EXTRA_F641": 84.635513, "Row": 59 }, "geometry": { "type": "Point", "coordinates": [ -0.436249827620497, 51.063352586990696 ] } },
{ "type": "Feature", "id": 178, "properties": { "LAYER": "Overhead Structure", "CLASS": 19, "INTENSITY": 2, "RETURN_CNT": 2, "RETURN_NUM": 2, "GPS_TIME": 1743504057.6413684, "EXTRA_S321": 14, "EXTRA_F641": 84.635513, "Row": 49 }, "geometry": { "type": "Point", "coordinates": [ -0.436289303290288, 51.062348932175297 ] } },
{ "type": "Feature", "id": 179, "properties": { "LAYER": "Overhead Structure", "CLASS": 19, "INTENSITY": 2, "RETURN_CNT": 2, "RETURN_NUM": 2, "GPS_TIME": 1743504057.6413684, "EXTRA_S321": 14, "EXTRA_F641": 84.635513, "Row": 60 }, "geometry": { "type": "Point", "coordinates": [ -0.436218466392951, 51.063358514136851 ] } },
{ "type": "Feature", "id": 182, "properties": { "LAYER": "Overhead Structure", "CLASS": 19, "INTENSITY": 2, "RETURN_CNT": 2, "RETURN_NUM": 2, "GPS_TIME": 1743504057.6413684, "EXTRA_S321": 14, "EXTRA_F641": 84.635513, "Row": 50 }, "geometry": { "type": "Point", "coordinates": [ -0.436256383239604, 51.062348358346377 ] } },
{ "type": "Feature", "id": 183, "properties": { "LAYER": "Overhead Structure", "CLASS": 19, "INTENSITY": 2, "RETURN_CNT": 2, "RETURN_NUM": 2, "GPS_TIME": 1743504057.6413684, "EXTRA_S321": 14, "EXTRA_F641": 84.635513, "Row": 61 }, "geometry": { "type": "Point", "coordinates": [ -0.43618856243846, 51.063364161683594 ] } },
{ "type": "Feature", "id": 334, "properties": { "LAYER": "Overhead Structure", "CLASS": 19, "INTENSITY": 2, "RETURN_CNT": 2, "RETURN_NUM": 2, "GPS_TIME": 1743504057.6413684, "EXTRA_S321": 14, "EXTRA_F641": 84.635513, "Row": 92 }, "geometry": { "type": "Point", "coordinates": [ -0.434912427870133, 51.062331578333108 ] } },
{ "type": "Feature", "id": 185, "properties": { "LAYER": "Overhead Structure", "CLASS": 19, "INTENSITY": 2, "RETURN_CNT": 2, "RETURN_NUM": 2, "GPS_TIME": 1743504057.6413684, "EXTRA_S321": 14, "EXTRA_F641": 84.635513, "Row": 51 }, "geometry": { "type": "Point", "coordinates": [ -0.43622328016737, 51.062345092624959 ] } },
{ "type": "Feature", "id": 187, "properties": { "LAYER": "Overhead Structure", "CLASS": 19, "INTENSITY": 2, "RETURN_CNT": 2, "RETURN_NUM": 2, "GPS_TIME": 1743504057.6413684, "EXTRA_S321": 14, "EXTRA_F641": 84.635513, "Row": 62 }, "geometry": { "type": "Point", "coordinates": [ -0.436158140381356, 51.063368724935231 ] } },
{ "type": "Feature", "id": 189, "properties": { "LAYER": "Overhead Structure", "CLASS": 19, "INTENSITY": 2, "RETURN_CNT": 2, "RETURN_NUM": 2, "GPS_TIME": 1743504057.6413684, "EXTRA_S321": 14, "EXTRA_F641": 84.635513, "Row": 52 }, "geometry": { "type": "Point", "coordinates": [ -0.436191050580222, 51.062343488468862 ] } },
{ "type": "Feature", "id": 190, "properties": { "LAYER": "Overhead Structure", "CLASS": 19, "INTENSITY": 2, "RETURN_CNT": 2, "RETURN_NUM": 2, "GPS_TIME": 1743504057.6413684, "EXTRA_S321": 14, "EXTRA_F641": 84.635513, "Row": 63 }, "geometry": { "type": "Point", "coordinates": [ -0.436128679328473, 51.063373764780131 ] } },
{ "type": "Feature", "id": 193, "properties": { "LAYER": "Overhead Structure", "CLASS": 19, "INTENSITY": 2, "RETURN_CNT": 2, "RETURN_NUM": 2, "GPS_TIME": 1743504057.6413684, "EXTRA_S321": 14, "EXTRA_F641": 84.635513, "Row": 53 }, "geometry": { "type": "Point", "coordinates": [ -0.43615807695673, 51.062341980057802 ] } },
{ "type": "Feature", "id": 194, "properties": { "LAYER": "Overhead Structure", "CLASS": 19, "INTENSITY": 2, "RETURN_CNT": 2, "RETURN_NUM": 2, "GPS_TIME": 1743504057.6413684, "EXTRA_S321": 14, "EXTRA_F641": 84.635513, "Row": 64 }, "geometry": { "type": "Point", "coordinates": [ -0.436096807816558, 51.063379562231134 ] } },
{ "type": "Feature", "id": 197, "properties": { "LAYER": "Overhead Structure", "CLASS": 19, "INTENSITY": 2, "RETURN_CNT": 2, "RETURN_NUM": 2, "GPS_TIME": 1743504057.6413684, "EXTRA_S321": 14, "EXTRA_F641": 84.635513, "Row": 54 }, "geometry": { "type": "Point", "coordinates": [ -0.436126694993733, 51.062338918803526 ] } },
{ "type": "Feature", "id": 198, "properties": { "LAYER": "Overhead Structure", "CLASS": 19, "INTENSITY": 2, "RETURN_CNT": 2, "RETURN_NUM": 2, "GPS_TIME": 1743504057.6413684, "EXTRA_S321": 14, "EXTRA_F641": 84.635513, "Row": 65 }, "geometry": { "type": "Point", "coordinates": [ -0.436066382895908, 51.063384939909987 ] } },
{ "type": "Feature", "id": 201, "properties": { "LAYER": "Overhead Structure", "CLASS": 19, "INTENSITY": 2, "RETURN_CNT": 2, "RETURN_NUM": 2, "GPS_TIME": 1743504057.6413684, "EXTRA_S321": 14, "EXTRA_F641": 84.635513, "Row": 55 }, "geometry": { "type": "Point", "coordinates": [ -0.436095169636767, 51.062337996833776 ] } },
{ "type": "Feature", "id": 202, "properties": { "LAYER": "Overhead Structure", "CLASS": 19, "INTENSITY": 2, "RETURN_CNT": 2, "RETURN_NUM": 2, "GPS_TIME": 1743504057.6413684, "EXTRA_S321": 14, "EXTRA_F641": 84.635513, "Row": 66 }, "geometry": { "type": "Point", "coordinates": [ -0.436037787400784, 51.063390344627628 ] } },
{ "type": "Feature", "id": 206, "properties": { "LAYER": "Overhead Structure", "CLASS": 19, "INTENSITY": 2, "RETURN_CNT": 2, "RETURN_NUM": 2, "GPS_TIME": 1743504057.6413684, "EXTRA_S321": 14, "EXTRA_F641": 84.635513, "Row": 56 }, "geometry": { "type": "Point", "coordinates": [ -0.43606200108129, 51.062336328645429 ] } },
{ "type": "Feature", "id": 207, "properties": { "LAYER": "Overhead Structure", "CLASS": 19, "INTENSITY": 2, "RETURN_CNT": 2, "RETURN_NUM": 2, "GPS_TIME": 1743504057.6413684, "EXTRA_S321": 14, "EXTRA_F641": 84.635513, "Row": 67 }, "geometry": { "type": "Point", "coordinates": [ -0.436006618120464, 51.063396063083445 ] } },
{ "type": "Feature", "id": 210, "properties": { "LAYER": "Overhead Structure", "CLASS": 19, "INTENSITY": 2, "RETURN_CNT": 2, "RETURN_NUM": 2, "GPS_TIME": 1743504057.6413684, "EXTRA_S321": 14, "EXTRA_F641": 84.635513, "Row": 57 }, "geometry": { "type": "Point", "coordinates": [ -0.436029808978441, 51.06233340606979 ] } },
{ "type": "Feature", "id": 211, "properties": { "LAYER": "Overhead Structure", "CLASS": 19, "INTENSITY": 2, "RETURN_CNT": 2, "RETURN_NUM": 2, "GPS_TIME": 1743504057.6413684, "EXTRA_S321": 14, "EXTRA_F641": 84.635513, "Row": 68 }, "geometry": { "type": "Point", "coordinates": [ -0.43597623851315, 51.063400733089061 ] } },
{ "type": "Feature", "id": 214, "properties": { "LAYER": "Overhead Structure", "CLASS": 19, "INTENSITY": 2, "RETURN_CNT": 2, "RETURN_NUM": 2, "GPS_TIME": 1743504057.6413684, "EXTRA_S321": 14, "EXTRA_F641": 84.635513, "Row": 58 }, "geometry": { "type": "Point", "coordinates": [ -0.435996150675602, 51.062330936106804 ] } },
{ "type": "Feature", "id": 215, "properties": { "LAYER": "Overhead Structure", "CLASS": 19, "INTENSITY": 2, "RETURN_CNT": 2, "RETURN_NUM": 2, "GPS_TIME": 1743504057.6413684, "EXTRA_S321": 14, "EXTRA_F641": 84.635513, "Row": 69 }, "geometry": { "type": "Point", "coordinates": [ -0.435945630618145, 51.063406130072039 ] } },
{ "type": "Feature", "id": 218, "properties": { "LAYER": "Overhead Structure", "CLASS": 19, "INTENSITY": 2, "RETURN_CNT": 2, "RETURN_NUM": 2, "GPS_TIME": 1743504057.6413684, "EXTRA_S321": 14, "EXTRA_F641": 84.635513, "Row": 59 }, "geometry": { "type": "Point", "coordinates": [ -0.43596470949299, 51.062328612210329 ] } },
{ "type": "Feature", "id": 219, "properties": { "LAYER": "Overhead Structure", "CLASS": 19, "INTENSITY": 2, "RETURN_CNT": 2, "RETURN_NUM": 2, "GPS_TIME": 1743504057.6413684, "EXTRA_S321": 14, "EXTRA_F641": 84.635513, "Row": 70 }, "geometry": { "type": "Point", "coordinates": [ -0.435915034299778, 51.06341132059611 ] } },
{ "type": "Feature", "id": 222, "properties": { "LAYER": "Overhead Structure", "CLASS": 19, "INTENSITY": 2, "RETURN_CNT": 2, "RETURN_NUM": 2, "GPS_TIME": 1743504057.6413684, "EXTRA_S321": 14, "EXTRA_F641": 84.635513, "Row": 60 }, "geometry": { "type": "Point", "coordinates": [ -0.435932429564505, 51.062328806023167 ] } },
{ "type": "Feature", "id": 223, "properties": { "LAYER": "Overhead Structure", "CLASS": 19, "INTENSITY": 2, "RETURN_CNT": 2, "RETURN_NUM": 2, "GPS_TIME": 1743504057.6413684, "EXTRA_S321": 14, "EXTRA_F641": 84.635513, "Row": 71 }, "geometry": { "type": "Point", "coordinates": [ -0.435884534147939, 51.063417085104362 ] } },
{ "type": "Feature", "id": 226, "properties": { "LAYER": "Overhead Structure", "CLASS": 19, "INTENSITY": 2, "RETURN_CNT": 2, "RETURN_NUM": 2, "GPS_TIME": 1743504057.6413684, "EXTRA_S321": 14, "EXTRA_F641": 84.635513, "Row": 61 }, "geometry": { "type": "Point", "coordinates": [ -0.435899334705705, 51.062326581763152 ] } },
{ "type": "Feature", "id": 227, "properties": { "LAYER": "Overhead Structure", "CLASS": 19, "INTENSITY": 2, "RETURN_CNT": 2, "RETURN_NUM": 2, "GPS_TIME": 1743504057.6413684, "EXTRA_S321": 14, "EXTRA_F641": 84.635513, "Row": 72 }, "geometry": { "type": "Point", "coordinates": [ -0.43585188000553, 51.063413886641719 ] } },
{ "type": "Feature", "id": 230, "properties": { "LAYER": "Overhead Structure", "CLASS": 19, "INTENSITY": 2, "RETURN_CNT": 2, "RETURN_NUM": 2, "GPS_TIME": 1743504057.6413684, "EXTRA_S321": 14, "EXTRA_F641": 84.635513, "Row": 62 }, "geometry": { "type": "Point", "coordinates": [ -0.435867147995774, 51.062324045373707 ] } },
{ "type": "Feature", "id": 231, "properties": { "LAYER": "Overhead Structure", "CLASS": 19, "INTENSITY": 2, "RETURN_CNT": 2, "RETURN_NUM": 2, "GPS_TIME": 1743504057.6413684, "EXTRA_S321": 14, "EXTRA_F641": 84.635513, "Row": 73 }, "geometry": { "type": "Point", "coordinates": [ -0.435818907569151, 51.063412989482245 ] } },
{ "type": "Feature", "id": 234, "properties": { "LAYER": "Overhead Structure", "CLASS": 19, "INTENSITY": 2, "RETURN_CNT": 2, "RETURN_NUM": 2, "GPS_TIME": 1743504057.6413684, "EXTRA_S321": 14, "EXTRA_F641": 84.635513, "Row": 63 }, "geometry": { "type": "Point", "coordinates": [ -0.435834631966096, 51.062321284027988 ] } },
{ "type": "Feature", "id": 235, "properties": { "LAYER": "Overhead Structure", "CLASS": 19, "INTENSITY": 2, "RETURN_CNT": 2, "RETURN_NUM": 2, "GPS_TIME": 1743504057.6413684, "EXTRA_S321": 14, "EXTRA_F641": 84.635513, "Row": 74 }, "geometry": { "type": "Point", "coordinates": [ -0.435786976035773, 51.063411729287267 ] } },
{ "type": "Feature", "id": 238, "properties": { "LAYER": "Overhead Structure", "CLASS": 19, "INTENSITY": 2, "RETURN_CNT": 2, "RETURN_NUM": 2, "GPS_TIME": 1743504057.6413684, "EXTRA_S321": 14, "EXTRA_F641": 84.635513, "Row": 64 }, "geometry": { "type": "Point", "coordinates": [ -0.435802099137885, 51.062319129582235 ] } },
{ "type": "Feature", "id": 239, "properties": { "LAYER": "Overhead Structure", "CLASS": 19, "INTENSITY": 2, "RETURN_CNT": 2, "RETURN_NUM": 2, "GPS_TIME": 1743504057.6413684, "EXTRA_S321": 14, "EXTRA_F641": 84.635513, "Row": 75 }, "geometry": { "type": "Point", "coordinates": [ -0.435754517987585, 51.06340850832089 ] } },
{ "type": "Feature", "id": 242, "properties": { "LAYER": "Overhead Structure", "CLASS": 19, "INTENSITY": 2, "RETURN_CNT": 2, "RETURN_NUM": 2, "GPS_TIME": 1743504057.6413684, "EXTRA_S321": 14, "EXTRA_F641": 84.635513, "Row": 65 }, "geometry": { "type": "Point", "coordinates": [ -0.435769073480589, 51.062318020598291 ] } },
{ "type": "Feature", "id": 243, "properties": { "LAYER": "Overhead Structure", "CLASS": 19, "INTENSITY": 2, "RETURN_CNT": 2, "RETURN_NUM": 2, "GPS_TIME": 1743504057.6413684, "EXTRA_S321": 14, "EXTRA_F641": 84.635513, "Row": 76 }, "geometry": { "type": "Point", "coordinates": [ -0.435720656541375, 51.063401194721727 ] } },
{ "type": "Feature", "id": 246, "properties": { "LAYER": "Overhead Structure", "CLASS": 19, "INTENSITY": 2, "RETURN_CNT": 2, "RETURN_NUM": 2, "GPS_TIME": 1743504057.6413684, "EXTRA_S321": 14, "EXTRA_F641": 84.635513, "Row": 66 }, "geometry": { "type": "Point", "coordinates": [ -0.435738168060136, 51.06231587022468 ] } },
{ "type": "Feature", "id": 247, "properties": { "LAYER": "Overhead Structure", "CLASS": 19, "INTENSITY": 2, "RETURN_CNT": 2, "RETURN_NUM": 2, "GPS_TIME": 1743504057.6413684, "EXTRA_S321": 14, "EXTRA_F641": 84.635513, "Row": 77 }, "geometry": { "type": "Point", "coordinates": [ -0.435687051996264, 51.063395371116577 ] } },
{ "type": "Feature", "id": 250, "properties": { "LAYER": "Overhead Structure", "CLASS": 19, "INTENSITY": 2, "RETURN_CNT": 2, "RETURN_NUM": 2, "GPS_TIME": 1743504057.6413684, "EXTRA_S321": 14, "EXTRA_F641": 84.635513, "Row": 67 }, "geometry": { "type": "Point", "coordinates": [ -0.435705830787184, 51.06231716095148 ] } },
{ "type": "Feature", "id": 251, "properties": { "LAYER": "Overhead Structure", "CLASS": 19, "INTENSITY": 2, "RETURN_CNT": 2, "RETURN_NUM": 2, "GPS_TIME": 1743504057.6413684, "EXTRA_S321": 14, "EXTRA_F641": 84.635513, "Row": 78 }, "geometry": { "type": "Point", "coordinates": [ -0.435652562850305, 51.06338722485264 ] } },
{ "type": "Feature", "id": 254, "properties": { "LAYER": "Overhead Structure", "CLASS": 19, "INTENSITY": 2, "RETURN_CNT": 2, "RETURN_NUM": 2, "GPS_TIME": 1743504057.6413684, "EXTRA_S321": 14, "EXTRA_F641": 84.635513, "Row": 68 }, "geometry": { "type": "Point", "coordinates": [ -0.435674609394209, 51.06231795275697 ] } },
{ "type": "Feature", "id": 255, "properties": { "LAYER": "Overhead Structure", "CLASS": 19, "INTENSITY": 2, "RETURN_CNT": 2, "RETURN_NUM": 2, "GPS_TIME": 1743504057.6413684, "EXTRA_S321": 14, "EXTRA_F641": 84.635513, "Row": 79 }, "geometry": { "type": "Point", "coordinates": [ -0.43561855759365, 51.063379659056146 ] } },
{ "type": "Feature", "id": 257, "properties": { "LAYER": "Overhead Structure", "CLASS": 19, "INTENSITY": 2, "RETURN_CNT": 2, "RETURN_NUM": 2, "GPS_TIME": 1743504057.6413684, "EXTRA_S321": 14, "EXTRA_F641": 84.635513, "Row": 69 }, "geometry": { "type": "Point", "coordinates": [ -0.43564315813152, 51.062317824619399 ] } },
{ "type": "Feature", "id": 258, "properties": { "LAYER": "Overhead Structure", "CLASS": 19, "INTENSITY": 2, "RETURN_CNT": 2, "RETURN_NUM": 2, "GPS_TIME": 1743504057.6413684, "EXTRA_S321": 14, "EXTRA_F641": 84.635513, "Row": 80 }, "geometry": { "type": "Point", "coordinates": [ -0.435584746311604, 51.063372742840379 ] } },
{ "type": "Feature", "id": 262, "properties": { "LAYER": "Overhead Structure", "CLASS": 19, "INTENSITY": 2, "RETURN_CNT": 2, "RETURN_NUM": 2, "GPS_TIME": 1743504057.6413684, "EXTRA_S321": 14, "EXTRA_F641": 84.635513, "Row": 70 }, "geometry": { "type": "Point", "coordinates": [ -0.435611217273816, 51.062318364877541 ] } },
{ "type": "Feature", "id": 264, "properties": { "LAYER": "Overhead Structure", "CLASS": 19, "INTENSITY": 2, "RETURN_CNT": 2, "RETURN_NUM": 2, "GPS_TIME": 1743504057.6413684, "EXTRA_S321": 14, "EXTRA_F641": 84.635513, "Row": 81 }, "geometry": { "type": "Point", "coordinates": [ -0.435550887859398, 51.063366371141981 ] } },
{ "type": "Feature", "id": 267, "properties": { "LAYER": "Overhead Structure", "CLASS": 19, "INTENSITY": 2, "RETURN_CNT": 2, "RETURN_NUM": 2, "GPS_TIME": 1743504057.6413684, "EXTRA_S321": 14, "EXTRA_F641": 84.635513, "Row": 71 }, "geometry": { "type": "Point", "coordinates": [ -0.435578737270462, 51.0623195950728 ] } },
{ "type": "Feature", "id": 269, "properties": { "LAYER": "Overhead Structure", "CLASS": 19, "INTENSITY": 2, "RETURN_CNT": 2, "RETURN_NUM": 2, "GPS_TIME": 1743504057.6413684, "EXTRA_S321": 14, "EXTRA_F641": 84.635513, "Row": 82 }, "geometry": { "type": "Point", "coordinates": [ -0.435516446034896, 51.063357951098901 ] } },
{ "type": "Feature", "id": 270, "properties": { "LAYER": "Overhead Structure", "CLASS": 19, "INTENSITY": 2, "RETURN_CNT": 2, "RETURN_NUM": 2, "GPS_TIME": 1743504057.6413684, "EXTRA_S321": 14, "EXTRA_F641": 84.635513, "Row": 72 }, "geometry": { "type": "Point", "coordinates": [ -0.435547682418638, 51.062319814552929 ] } },
{ "type": "Feature", "id": 273, "properties": { "LAYER": "Overhead Structure", "CLASS": 19, "INTENSITY": 2, "RETURN_CNT": 2, "RETURN_NUM": 2, "GPS_TIME": 1743504057.6413684, "EXTRA_S321": 14, "EXTRA_F641": 84.635513, "Row": 83 }, "geometry": { "type": "Point", "coordinates": [ -0.435483275284679, 51.063351500425817 ] } },
{ "type": "Feature", "id": 274, "properties": { "LAYER": "Overhead Structure", "CLASS": 19, "INTENSITY": 2, "RETURN_CNT": 2, "RETURN_NUM": 2, "GPS_TIME": 1743504057.6413684, "EXTRA_S321": 14, "EXTRA_F641": 84.635513, "Row": 73 }, "geometry": { "type": "Point", "coordinates": [ -0.435515262581818, 51.062321784232395 ] } },
{ "type": "Feature", "id": 277, "properties": { "LAYER": "Overhead Structure", "CLASS": 19, "INTENSITY": 2, "RETURN_CNT": 2, "RETURN_NUM": 2, "GPS_TIME": 1743504057.6413684, "EXTRA_S321": 14, "EXTRA_F641": 84.635513, "Row": 84 }, "geometry": { "type": "Point", "coordinates": [ -0.435450440904183, 51.063344868478438 ] } },
{ "type": "Feature", "id": 278, "properties": { "LAYER": "Overhead Structure", "CLASS": 19, "INTENSITY": 2, "RETURN_CNT": 2, "RETURN_NUM": 2, "GPS_TIME": 1743504057.6413684, "EXTRA_S321": 14, "EXTRA_F641": 84.635513, "Row": 74 }, "geometry": { "type": "Point", "coordinates": [ -0.435484021750182, 51.062322185067309 ] } },
{ "type": "Feature", "id": 280, "properties": { "LAYER": "Overhead Structure", "CLASS": 19, "INTENSITY": 2, "RETURN_CNT": 2, "RETURN_NUM": 2, "GPS_TIME": 1743504057.6413684, "EXTRA_S321": 14, "EXTRA_F641": 84.635513, "Row": 85 }, "geometry": { "type": "Point", "coordinates": [ -0.435416319167862, 51.063336281015893 ] } },
{ "type": "Feature", "id": 281, "properties": { "LAYER": "Overhead Structure", "CLASS": 19, "INTENSITY": 2, "RETURN_CNT": 2, "RETURN_NUM": 2, "GPS_TIME": 1743504057.6413684, "EXTRA_S321": 14, "EXTRA_F641": 84.635513, "Row": 75 }, "geometry": { "type": "Point", "coordinates": [ -0.435452126508494, 51.062322758249067 ] } },
{ "type": "Feature", "id": 285, "properties": { "LAYER": "Overhead Structure", "CLASS": 19, "INTENSITY": 2, "RETURN_CNT": 2, "RETURN_NUM": 2, "GPS_TIME": 1743504057.6413684, "EXTRA_S321": 14, "EXTRA_F641": 84.635513, "Row": 86 }, "geometry": { "type": "Point", "coordinates": [ -0.435382426440013, 51.063330109795061 ] } },
{ "type": "Feature", "id": 288, "properties": { "LAYER": "Overhead Structure", "CLASS": 19, "INTENSITY": 2, "RETURN_CNT": 2, "RETURN_NUM": 2, "GPS_TIME": 1743504057.6413684, "EXTRA_S321": 14, "EXTRA_F641": 84.635513, "Row": 76 }, "geometry": { "type": "Point", "coordinates": [ -0.435419553101936, 51.062322404380573 ] } },
{ "type": "Feature", "id": 289, "properties": { "LAYER": "Overhead Structure", "CLASS": 19, "INTENSITY": 2, "RETURN_CNT": 2, "RETURN_NUM": 2, "GPS_TIME": 1743504057.6413684, "EXTRA_S321": 14, "EXTRA_F641": 84.635513, "Row": 87 }, "geometry": { "type": "Point", "coordinates": [ -0.43534818657603, 51.063322952029921 ] } },
{ "type": "Feature", "id": 291, "properties": { "LAYER": "Overhead Structure", "CLASS": 19, "INTENSITY": 2, "RETURN_CNT": 2, "RETURN_NUM": 2, "GPS_TIME": 1743504057.6413684, "EXTRA_S321": 14, "EXTRA_F641": 84.635513, "Row": 77 }, "geometry": { "type": "Point", "coordinates": [ -0.435389133458793, 51.062323318164417 ] } },
{ "type": "Feature", "id": 293, "properties": { "LAYER": "Overhead Structure", "CLASS": 19, "INTENSITY": 2, "RETURN_CNT": 2, "RETURN_NUM": 2, "GPS_TIME": 1743504057.6413684, "EXTRA_S321": 14, "EXTRA_F641": 84.635513, "Row": 88 }, "geometry": { "type": "Point", "coordinates": [ -0.435313889295495, 51.063315065049288 ] } },
{ "type": "Feature", "id": 296, "properties": { "LAYER": "Overhead Structure", "CLASS": 19, "INTENSITY": 2, "RETURN_CNT": 2, "RETURN_NUM": 2, "GPS_TIME": 1743504057.6413684, "EXTRA_S321": 14, "EXTRA_F641": 84.635513, "Row": 78 }, "geometry": { "type": "Point", "coordinates": [ -0.435356447758239, 51.062322913752269 ] } },
{ "type": "Feature", "id": 297, "properties": { "LAYER": "Overhead Structure", "CLASS": 19, "INTENSITY": 2, "RETURN_CNT": 2, "RETURN_NUM": 2, "GPS_TIME": 1743504057.6413684, "EXTRA_S321": 14, "EXTRA_F641": 84.635513, "Row": 89 }, "geometry": { "type": "Point", "coordinates": [ -0.435279696663356, 51.063307657533677 ] } },
{ "type": "Feature", "id": 299, "properties": { "LAYER": "Overhead Structure", "CLASS": 19, "INTENSITY": 2, "RETURN_CNT": 2, "RETURN_NUM": 2, "GPS_TIME": 1743504057.6413684, "EXTRA_S321": 14, "EXTRA_F641": 84.635513, "Row": 79 }, "geometry": { "type": "Point", "coordinates": [ -0.435324318696724, 51.062323521060051 ] } },
{ "type": "Feature", "id": 301, "properties": { "LAYER": "Overhead Structure", "CLASS": 19, "INTENSITY": 2, "RETURN_CNT": 2, "RETURN_NUM": 2, "GPS_TIME": 1743504057.6413684, "EXTRA_S321": 14, "EXTRA_F641": 84.635513, "Row": 90 }, "geometry": { "type": "Point", "coordinates": [ -0.43524553901925, 51.063300160807273 ] } },
{ "type": "Feature", "id": 304, "properties": { "LAYER": "Overhead Structure", "CLASS": 19, "INTENSITY": 2, "RETURN_CNT": 2, "RETURN_NUM": 2, "GPS_TIME": 1743504057.6413684, "EXTRA_S321": 14, "EXTRA_F641": 84.635513, "Row": 80 }, "geometry": { "type": "Point", "coordinates": [ -0.435293796530011, 51.062325551181566 ] } },
{ "type": "Feature", "id": 305, "properties": { "LAYER": "Overhead Structure", "CLASS": 19, "INTENSITY": 2, "RETURN_CNT": 2, "RETURN_NUM": 2, "GPS_TIME": 1743504057.6413684, "EXTRA_S321": 14, "EXTRA_F641": 84.635513, "Row": 91 }, "geometry": { "type": "Point", "coordinates": [ -0.435212971494987, 51.063292945294442 ] } },
{ "type": "Feature", "id": 308, "properties": { "LAYER": "Overhead Structure", "CLASS": 19, "INTENSITY": 2, "RETURN_CNT": 2, "RETURN_NUM": 2, "GPS_TIME": 1743504057.6413684, "EXTRA_S321": 14, "EXTRA_F641": 84.635513, "Row": 81 }, "geometry": { "type": "Point", "coordinates": [ -0.43526060351991, 51.062324934515573 ] } },
{ "type": "Feature", "id": 311, "properties": { "LAYER": "Overhead Structure", "CLASS": 19, "INTENSITY": 2, "RETURN_CNT": 2, "RETURN_NUM": 2, "GPS_TIME": 1743504057.6413684, "EXTRA_S321": 14, "EXTRA_F641": 84.635513, "Row": 82 }, "geometry": { "type": "Point", "coordinates": [ -0.435229666047303, 51.062325839505803 ] } },
{ "type": "Feature", "id": 312, "properties": { "LAYER": "Overhead Structure", "CLASS": 19, "INTENSITY": 2, "RETURN_CNT": 2, "RETURN_NUM": 2, "GPS_TIME": 1743504057.6413684, "EXTRA_S321": 14, "EXTRA_F641": 84.635513, "Row": 92 }, "geometry": { "type": "Point", "coordinates": [ -0.435178468081144, 51.063285207606711 ] } },
{ "type": "Feature", "id": 314, "properties": { "LAYER": "Overhead Structure", "CLASS": 19, "INTENSITY": 2, "RETURN_CNT": 2, "RETURN_NUM": 2, "GPS_TIME": 1743504057.6413684, "EXTRA_S321": 14, "EXTRA_F641": 84.635513, "Row": 83 }, "geometry": { "type": "Point", "coordinates": [ -0.43519731662262, 51.062325553847693 ] } },
{ "type": "Feature", "id": 319, "properties": { "LAYER": "Overhead Structure", "CLASS": 19, "INTENSITY": 2, "RETURN_CNT": 2, "RETURN_NUM": 2, "GPS_TIME": 1743504057.6413684, "EXTRA_S321": 14, "EXTRA_F641": 84.635513, "Row": 84 }, "geometry": { "type": "Point", "coordinates": [ -0.435165597932312, 51.062326033694511 ] } },
{ "type": "Feature", "id": 322, "properties": { "LAYER": "Overhead Structure", "CLASS": 19, "INTENSITY": 2, "RETURN_CNT": 2, "RETURN_NUM": 2, "GPS_TIME": 1743504057.6413684, "EXTRA_S321": 14, "EXTRA_F641": 84.635513, "Row": 85 }, "geometry": { "type": "Point", "coordinates": [ -0.435134400126951, 51.062326656685386 ] } },
{ "type": "Feature", "id": 325, "properties": { "LAYER": "Overhead Structure", "CLASS": 19, "INTENSITY": 2, "RETURN_CNT": 2, "RETURN_NUM": 2, "GPS_TIME": 1743504057.6413684, "EXTRA_S321": 14, "EXTRA_F641": 84.635513, "Row": 86 }, "geometry": { "type": "Point", "coordinates": [ -0.435102896641288, 51.062326996036283 ] } },
{ "type": "Feature", "id": 326, "properties": { "LAYER": "Overhead Structure", "CLASS": 19, "INTENSITY": 2, "RETURN_CNT": 2, "RETURN_NUM": 2, "GPS_TIME": 1743504057.6413684, "EXTRA_S321": 14, "EXTRA_F641": 84.635513, "Row": 87 }, "geometry": { "type": "Point", "coordinates": [ -0.435070666853671, 51.06232767592104 ] } },
{ "type": "Feature", "id": 330, "properties": { "LAYER": "Overhead Structure", "CLASS": 19, "INTENSITY": 2, "RETURN_CNT": 2, "RETURN_NUM": 2, "GPS_TIME": 1743504057.6413684, "EXTRA_S321": 14, "EXTRA_F641": 84.635513, "Row": 88 }, "geometry": { "type": "Point", "coordinates": [ -0.435038330790473, 51.06232857070362 ] } },
{ "type": "Feature", "id": 334, "properties": { "LAYER": "Overhead Structure", "CLASS": 19, "INTENSITY": 2, "RETURN_CNT": 2, "RETURN_NUM": 2, "GPS_TIME": 1743504057.6413684, "EXTRA_S321": 14, "EXTRA_F641": 84.635513, "Row": 89 }, "geometry": { "type": "Point", "coordinates": [ -0.435007719559496, 51.062328263769238 ] } },
{ "type": "Feature", "id": 335, "properties": { "LAYER": "Overhead Structure", "CLASS": 19, "INTENSITY": 2, "RETURN_CNT": 2, "RETURN_NUM": 2, "GPS_TIME": 1743504057.6413684, "EXTRA_S321": 14, "EXTRA_F641": 84.635513, "Row": 90 }, "geometry": { "type": "Point", "coordinates": [ -0.434975480246138, 51.062329226281157 ] } },
{ "type": "Feature", "id": 340, "properties": { "LAYER": "Overhead Structure", "CLASS": 19, "INTENSITY": 2, "RETURN_CNT": 2, "RETURN_NUM": 2, "GPS_TIME": 1743504057.6413684, "EXTRA_S321": 14, "EXTRA_F641": 84.635513, "Row": 91 }, "geometry": { "type": "Point", "coordinates": [ -0.434944435900696, 51.062330539226203 ] } }
]
}
