{
"type": "FeatureCollection",
"name": "posts",
"crs": { "type": "name", "properties": { "name": "urn:ogc:def:crs:OGC:1.3:CRS84" } },
"features": [
{ "type": "Feature", "id": 46, "properties": { "LAYER": "Overhead Structure", "CLASS": 19, "INTENSITY": 2, "RETURN_CNT": 2, "RETURN_NUM": 2, "GPS_TIME": 1743504057.6413684, "EXTRA_S321": 14, "EXTRA_F641": 84.635513, "Row": 93 }, "geometry": { "type": "Point", "coordinates": [ -0.437259771778553, 51.06145923969131 ] } },
{ "type": "Feature", "id": 47, "properties": { "LAYER": "Overhead Structure", "CLASS": 19, "INTENSITY": 2, "RETURN_CNT": 2, "RETURN_NUM": 2, "GPS_TIME": 1743504057.6413684, "EXTRA_S321": 14, "EXTRA_F641": 84.635513, "Row": 93 }, "geometry": { "type": "Point", "coordinates": [ -0.437226039614977, 51.062056725073965 ] } },
{ "type": "Feature", "id": 53, "properties": { "LAYER": "Overhead Structure", "CLASS": 19, "INTENSITY": 2, "RETURN_CNT": 2, "RETURN_NUM": 2, "GPS_TIME": 1743504057.6413684, "EXTRA_S321": 14, "EXTRA_F641": 84.635513, "Row": 95 }, "geometry": { "type": "Point", "coordinates": [ -0.437202205701786, 51.06137922937549 ] } },
{ "type": "Feature", "id": 54, "properties": { "LAYER": "Overhead Structure", "CLASS": 19, "INTENSITY": 2, "RETURN_CNT": 2, "RETURN_NUM": 2, "GPS_TIME": 1743504057.6413684, "EXTRA_S321": 14, "EXTRA_F641": 84.635513, "Row": 94 }, "geometry": { "type": "Point", "coordinates": [ -0.437230870439912, 51.061419167454524 ] } },
{ "type": "Feature", "id": 55, "properties": { "LAYER": "Overhead Structure", "CLASS": 19, "INTENSITY": 2, "RETURN_CNT": 2, "RETURN_NUM": 2, "GPS_TIME": 1743504057.6413684, "EXTRA_S321": 14, "EXTRA_F641": 84.635513, "Row": 94 }, "geometry": { "type": "Point", "coordinates": [ -0.437194350226631, 51.06205865207766 ] } },
{ "type": "Feature", "id": 56, "properties": { "LAYER": "Overhead Structure", "CLASS": 19, "INTENSITY": 2, "RETURN_CNT": 2, "RETURN_NUM": 2, "GPS_TIME": 1743504057.6413684, "EXTRA_S321": 14, "EXTRA_F641": 84.635513, "Row": 95 }, "geometry": { "type": "Point", "coordinates": [ -0.437162850730296, 51.06205973358577 ] } },
{ "type": "Feature", "id": 62, "properties": { "LAYER": "Overhead Structure", "CLASS": 19, "INTENSITY": 2, "RETURN_CNT": 2, "RETURN_NUM": 2, "GPS_TIME": 1743504057.6413684, "EXTRA_S321": 14, "EXTRA_F641": 84.635513, "Row": 97 }, "geometry": { "type": "Point", "coordinates": [ -0.43714320528135, 51.061299536107441 ] } },
{ "type": "Feature", "id": 63, "properties": { "LAYER": "Overhead Structure", "CLASS": 19, "INTENSITY": 2, "RETURN_CNT": 2, "RETURN_NUM": 2, "GPS_TIME": 1743504057.6413684, "EXTRA_S321": 14, "EXTRA_F641": 84.635513, "Row": 96 }, "geometry": { "type": "Point", "coordinates": [ -0.43717242091434, 51.061337934798971 ] } },
{ "type": "Feature", "id": 64, "properties": { "LAYER": "Overhead Structure", "CLASS": 19, "INTENSITY": 2, "RETURN_CNT": 2, "RETURN_NUM": 2, "GPS_TIME": 1743504057.6413684, "EXTRA_S321": 14, "EXTRA_F641": 84.635513, "Row": 96 }, "geometry": { "type": "Point", "coordinates": [ -0.437131297900006, 51.062062138093559 ] } },
{ "type": "Feature", "id": 65, "properties": { "LAYER": "Overhead Structure", "CLASS": 19, "INTENSITY": 2, "RETURN_CNT": 2, "RETURN_NUM": 2, "GPS_TIME": 1743504057.6413684, "EXTRA_S321": 14, "EXTRA_F641": 84.635513, "Row": 97 }, "geometry": { "type": "Point", "coordinates": [ -0.437099043930859, 51.062064158200378 ] } },
{ "type": "Feature", "id": 70, "properties": { "LAYER": "Overhead Structure", "CLASS": 19, "INTENSITY": 2, "RETURN_CNT": 2, "RETURN_NUM": 2, "GPS_TIME": 1743504057.6413684, "EXTRA_S321": 14, "EXTRA_F641": 84.635513, "Row": 100 }, "geometry": { "type": "Point", "coordinates": [ -0.437056007729713, 51.061178635450823 ] } },
{ "type": "Feature", "id": 71, "properties": { "LAYER": "Overhead Structure", "CLASS": 19, "INTENSITY": 2, "RETURN_CNT": 2, "RETURN_NUM": 2, "GPS_TIME": 1743504057.6413684, "EXTRA_S321": 14, "EXTRA_F641": 84.635513, "Row": 99 }, "geometry": { "type": "Point", "coordinates": [ -0.437084720174109, 51.061219229889581 ] } },
{ "type": "Feature", "id": 72, "properties": { "LAYER": "Overhead Structure", "CLASS": 19, "INTENSITY": 2, "RETURN_CNT": 2, "RETURN_NUM": 2, "GPS_TIME": 1743504057.6413684, "EXTRA_S321": 14, "EXTRA_F641": 84.635513, "Row": 98 }, "geometry": { "type": "Point", "coordinates": [ -0.437114758331016, 51.06125947490176 ] } },
{ "type": "Feature", "id": 73, "properties": { "LAYER": "Overhead Structure", "CLASS": 19, "INTENSITY": 2, "RETURN_CNT": 2, "RETURN_NUM": 2, "GPS_TIME": 1743504057.6413684, "EXTRA_S321": 14, "EXTRA_F641": 84.635513, "Row": 98 }, "geometry": { "type": "Point", "coordinates": [ -0.437067686391373, 51.062067012446171 ] } },
{ "type": "Feature", "id": 74, "properties": { "LAYER": "Overhead Structure", "CLASS": 19, "INTENSITY": 2, "RETURN_CNT": 2, "RETURN_NUM": 2, "GPS_TIME": 1743504057.6413684, "EXTRA_S321": 14, "EXTRA_F641": 84.635513, "Row": 99 }, "geometry": { "type": "Point", "coordinates": [ -0.437036367438069, 51.062068109180551 ] } },
{ "type": "Feature", "id": 79, "properties": { "LAYER": "Overhead Structure", "CLASS": 19, "INTENSITY": 2, "RETURN_CNT": 2, "RETURN_NUM": 2, "GPS_TIME": 1743504057.6413684, "EXTRA_S321": 14, "EXTRA_F641": 84.635513, "Row": 101 }, "geometry": { "type": "Point", "coordinates": [ -0.437027533422917, 51.061139855884271 ] } },
{ "type": "Feature", "id": 80, "properties": { "LAYER": "Overhead Structure", "CLASS": 19, "INTENSITY": 2, "RETURN_CNT": 2, "RETURN_NUM": 2, "GPS_TIME": 1743504057.6413684, "EXTRA_S321": 14, "EXTRA_F641": 84.635513, "Row": 100 }, "geometry": { "type": "Point", "coordinates": [ -0.437005155477631, 51.06207033745828 ] } },
{ "type": "Feature", "id": 81, "properties": { "LAYER": "Overhead Structure", "CLASS": 19, "INTENSITY": 2, "RETURN_CNT": 2, "RETURN_NUM": 2, "GPS_TIME": 1743504057.6413684, "EXTRA_S321": 14, "EXTRA_F641": 84.635513, "Row": 101 }, "geometry": { "type": "Point", "coordinates": [ -0.436973499135631, 51.062073409075438 ] } },
{ "type": "Feature", "id": 86, "properties": { "LAYER": "Overhead Structure", "CLASS": 19, "INTENSITY": 2, "RETURN_CNT": 2, "RETURN_NUM": 2, "GPS_TIME": 1743504057.6413684, "EXTRA_S321": 14, "EXTRA_F641": 84.635513, "Row": 104 }, "geometry": { "type": "Point", "coordinates": [ -0.436939598814131, 51.061021867690648 ] } },
{ "type": "Feature", "id": 87, "properties": { "LAYER": "Overhead Structure", "CLASS": 19, "INTENSITY": 2, "RETURN_CNT": 2, "RETURN_NUM": 2, "GPS_TIME": 1743504057.6413684, "EXTRA_S321": 14, "EXTRA_F641": 84.635513, "Row": 103 }, "geometry": { "type": "Point", "coordinates": [ -0.436968948854892, 51.061060211175558 ] } },
{ "type": "Feature", "id": 88, "properties": { "LAYER": "Overhead Structure", "CLASS": 19, "INTENSITY": 2, "RETURN_CNT": 2, "RETURN_NUM": 2, "GPS_TIME": 1743504057.6413684, "EXTRA_S321": 14, "EXTRA_F641": 84.635513, "Row": 102 }, "geometry": { "type": "Point", "coordinates": [ -0.436997096375877, 51.061098926404668 ] } },
{ "type": "Feature", "id": 89, "properties": { "LAYER": "Overhead Structure", "CLASS": 19, "INTENSITY": 2, "RETURN_CNT": 2, "RETURN_NUM": 2, "GPS_TIME": 1743504057.6413684, "EXTRA_S321": 14, "EXTRA_F641": 84.635513, "Row": 102 }, "geometry": { "type": "Point", "coordinates": [ -0.436941958940899, 51.062075559740919 ] } },
{ "type": "Feature", "id": 90, "properties": { "LAYER": "Overhead Structure", "CLASS": 19, "INTENSITY": 2, "RETURN_CNT": 2, "RETURN_NUM": 2, "GPS_TIME": 1743504057.6413684, "EXTRA_S321": 14, "EXTRA_F641": 84.635513, "Row": 103 }, "geometry": { "type": "Point", "coordinates": [ -0.436911624485732, 51.06207808987817 ] } },
{ "type": "Feature", "id": 93, "properties": { "LAYER": "Overhead Structure", "CLASS": 19, "INTENSITY": 2, "RETURN_CNT": 2, "RETURN_NUM": 2, "GPS_TIME": 1743504057.6413684, "EXTRA_S321": 14, "EXTRA_F641": 84.635513, "Row": 106 }, "geometry": { "type": "Point", "coordinates": [ -0.436880294115623, 51.060950366029004 ] } },
{ "type": "Feature", "id": 94, "properties": { "LAYER": "Overhead Structure", "CLASS": 19, "INTENSITY": 2, "RETURN_CNT": 2, "RETURN_NUM": 2, "GPS_TIME": 1743504057.6413684, "EXTRA_S321": 14, "EXTRA_F641": 84.635513, "Row": 105 }, "geometry": { "type": "Point", "coordinates": [ -0.436910058315912, 51.060982658066557 ] } },
{ "type": "Feature", "id": 95, "properties": { "LAYER": "Overhead Structure", "CLASS": 19, "INTENSITY": 2, "RETURN_CNT": 2, "RETURN_NUM": 2, "GPS_TIME": 1743504057.6413684, "EXTRA_S321": 14, "EXTRA_F641": 84.635513, "Row": 104 }, "geometry": { "type": "Point", "coordinates": [ -0.436878796642112, 51.062080434984772 ] } },
{ "type": "Feature", "id": 96, "properties": { "LAYER": "Overhead Structure", "CLASS": 19, "INTENSITY": 2, "RETURN_CNT": 2, "RETURN_NUM": 2, "GPS_TIME": 1743504057.6413684, "EXTRA_S321": 14, "EXTRA_F641": 84.635513, "Row": 105 }, "geometry": { "type": "Point", "coordinates": [ -0.43684771686563, 51.062081956052076 ] } },
{ "type": "Feature", "id": 105, "properties": { "LAYER": "Overhead Structure", "CLASS": 19, "INTENSITY": 2, "RETURN_CNT": 2, "RETURN_NUM": 2, "GPS_TIME": 1743504057.6413684, "EXTRA_S321": 14, "EXTRA_F641": 84.635513, "Row": 108 }, "geometry": { "type": "Point", "coordinates": [ -0.436820484235351, 51.060887844258765 ] } },
{ "type": "Feature", "id": 106, "properties": { "LAYER": "Overhead Structure", "CLASS": 19, "INTENSITY": 2, "RETURN_CNT": 2, "RETURN_NUM": 2, "GPS_TIME": 1743504057.6413684, "EXTRA_S321": 14, "EXTRA_F641": 84.635513, "Row": 107 }, "geometry": { "type": "Point", "coordinates": [ -0.436850002678719, 51.060919569537418 ] } },
{ "type": "Feature", "id": 107, "properties": { "LAYER": "Overhead Structure", "CLASS": 19, "INTENSITY": 2, "RETURN_CNT": 2, "RETURN_NUM": 2, "GPS_TIME": 1743504057.6413684, "EXTRA_S321": 14, "EXTRA_F641": 84.635513, "Row": 106 }, "geometry": { "type": "Point", "coordinates": [ -0.436816091994634, 51.062082939863195 ] } },
{ "type": "Feature", "id": 108, "properties": { "LAYER": "Overhead Structure", "CLASS": 19, "INTENSITY": 2, "RETURN_CNT": 2, "RETURN_NUM": 2, "GPS_TIME": 1743504057.6413684, "EXTRA_S321": 14, "EXTRA_F641": 84.635513, "Row": 107 }, "geometry": { "type": "Point", "coordinates": [ -0.436785424731415, 51.062086136635578 ] } },
{ "type": "Feature", "id": 109, "properties": { "LAYER": "Overhead Structure", "CLASS": 19, "INTENSITY": 2, "RETURN_CNT": 2, "RETURN_NUM": 2, "GPS_TIME": 1743504057.6413684, "EXTRA_S321": 14, "EXTRA_F641": 84.635513, "Row": 108 }, "geometry": { "type": "Point", "coordinates": [ -0.436752648176282, 51.062088896474307 ] } },
{ "type": "Feature", "id": 110, "properties": { "LAYER": "Overhead Structure", "CLASS": 19, "INTENSITY": 2, "RETURN_CNT": 2, "RETURN_NUM": 2, "GPS_TIME": 1743504057.6413684, "EXTRA_S321": 14, "EXTRA_F641": 84.635513, "Row": 110 }, "geometry": { "type": "Point", "coordinates": [ -0.436761741104285, 51.060823719931932 ] } },
{ "type": "Feature", "id": 111, "properties": { "LAYER": "Overhead Structure", "CLASS": 19, "INTENSITY": 2, "RETURN_CNT": 2, "RETURN_NUM": 2, "GPS_TIME": 1743504057.6413684, "EXTRA_S321": 14, "EXTRA_F641": 84.635513, "Row": 109 }, "geometry": { "type": "Point", "coordinates": [ -0.436790687355078, 51.060856289283322 ] } },
{ "type": "Feature", "id": 112, "properties": { "LAYER": "Overhead Structure", "CLASS": 19, "INTENSITY": 2, "RETURN_CNT": 2, "RETURN_NUM": 2, "GPS_TIME": 1743504057.6413684, "EXTRA_S321": 14, "EXTRA_F641": 84.635513, "Row": 109 }, "geometry": { "type": "Point", "coordinates": [ -0.436721578946784, 51.062091396619586 ] } },
{ "type": "Feature", "id": 113, "properties": { "LAYER": "Overhead Structure", "CLASS": 19, "INTENSITY": 2, "RETURN_CNT": 2, "RETURN_NUM": 2, "GPS_TIME": 1743504057.6413684, "EXTRA_S321": 14, "EXTRA_F641": 84.635513, "Row": 110 }, "geometry": { "type": "Point", "coordinates": [ -0.436689522425807, 51.062092886925477 ] } },
{ "type": "Feature", "id": 116, "properties": { "LAYER": "Overhead Structure", "CLASS": 19, "INTENSITY": 2, "RETURN_CNT": 2, "RETURN_NUM": 2, "GPS_TIME": 1743504057.6413684, "EXTRA_S321": 14, "EXTRA_F641": 84.635513, "Row": 111 }, "geometry": { "type": "Point", "coordinates": [ -0.436729100979748, 51.060789253967535 ] } },
{ "type": "Feature", "id": 117, "properties": { "LAYER": "Overhead Structure", "CLASS": 19, "INTENSITY": 2, "RETURN_CNT": 2, "RETURN_NUM": 2, "GPS_TIME": 1743504057.6413684, "EXTRA_S321": 14, "EXTRA_F641": 84.635513, "Row": 111 }, "geometry": { "type": "Point", "coordinates": [ -0.436657941986885, 51.062095085543064 ] } },
{ "type": "Feature", "id": 125, "properties": { "LAYER": "Overhead Structure", "CLASS": 19, "INTENSITY": 2, "RETURN_CNT": 2, "RETURN_NUM": 2, "GPS_TIME": 1743504057.6413684, "EXTRA_S321": 14, "EXTRA_F641": 84.635513, "Row": 113 }, "geometry": { "type": "Point", "coordinates": [ -0.436672727487694, 51.060729812251438 ] } },
{ "type": "Feature", "id": 126, "properties": { "LAYER": "Overhead Structure", "CLASS": 19, "INTENSITY": 2, "RETURN_CNT": 2, "RETURN_NUM": 2, "GPS_TIME": 1743504057.6413684, "EXTRA_S321": 14, "EXTRA_F641": 84.635513, "Row": 112 }, "geometry": { "type": "Point", "coordinates": [ -0.436702418800689, 51.060760152899419 ] } },
{ "type": "Feature", "id": 127, "properties": { "LAYER": "Overhead Structure", "CLASS": 19, "INTENSITY": 2, "RETURN_CNT": 2, "RETURN_NUM": 2, "GPS_TIME": 1743504057.6413684, "EXTRA_S321": 14, "EXTRA_F641": 84.635513, "Row": 112 }, "geometry": { "type": "Point", "coordinates": [ -0.436626878460871, 51.062093985986522 ] } },
{ "type": "Feature", "id": 129, "properties": { "LAYER": "Overhead Structure", "CLASS": 19, "INTENSITY": 2, "RETURN_CNT": 2, "RETURN_NUM": 2, "GPS_TIME": 1743504057.6413684, "EXTRA_S321": 14, "EXTRA_F641": 84.635513, "Row": 114 }, "geometry": { "type": "Point", "coordinates": [ -0.436642923997039, 51.060698075140166 ] } },
{ "type": "Feature", "id": 130, "properties": { "LAYER": "Overhead Structure", "CLASS": 19, "INTENSITY": 2, "RETURN_CNT": 2, "RETURN_NUM": 2, "GPS_TIME": 1743504057.6413684, "EXTRA_S321": 14, "EXTRA_F641": 84.635513, "Row": 113 }, "geometry": { "type": "Point", "coordinates": [ -0.436596367347293, 51.06209428494217 ] } },
{ "type": "Feature", "id": 133, "properties": { "LAYER": "Overhead Structure", "CLASS": 19, "INTENSITY": 2, "RETURN_CNT": 2, "RETURN_NUM": 2, "GPS_TIME": 1743504057.6413684, "EXTRA_S321": 14, "EXTRA_F641": 84.635513, "Row": 115 }, "geometry": { "type": "Point", "coordinates": [ -0.436612952755561, 51.06066494914387 ] } },
{ "type": "Feature", "id": 134, "properties": { "LAYER": "Overhead Structure", "CLASS": 19, "INTENSITY": 2, "RETURN_CNT": 2, "RETURN_NUM": 2, "GPS_TIME": 1743504057.6413684, "EXTRA_S321": 14, "EXTRA_F641": 84.635513, "Row": 114 }, "geometry": { "type": "Point", "coordinates": [ -0.436563327237386, 51.062094573856939 ] } },
{ "type": "Feature", "id": 137, "properties": { "LAYER": "Overhead Structure", "CLASS": 19, "INTENSITY": 2, "RETURN_CNT": 2, "RETURN_NUM": 2, "GPS_TIME": 1743504057.6413684, "EXTRA_S321": 14, "EXTRA_F641": 84.635513, "Row": 116 }, "geometry": { "type": "Point", "coordinates": [ -0.436583406173825, 51.06063264362745 ] } },
{ "type": "Feature", "id": 138, "properties": { "LAYER": "Overhead Structure", "CLASS": 19, "INTENSITY": 2, "RETURN_CNT": 2, "RETURN_NUM": 2, "GPS_TIME": 1743504057.6413684, "EXTRA_S321": 14, "EXTRA_F641": 84.635513, "Row": 115 }, "geometry": { "type": "Point", "coordinates": [ -0.436532211025542, 51.062093074542275 ] } },
{ "type": "Feature", "id": 141, "properties": { "LAYER": "Overhead Structure", "CLASS": 19, "INTENSITY": 2, "RETURN_CNT": 2, "RETURN_NUM": 2, "GPS_TIME": 1743504057.6413684, "EXTRA_S321": 14, "EXTRA_F641": 84.635513, "Row": 116 }, "geometry": { "type": "Point", "coordinates": [ -0.436500868140011, 51.062093168625509 ] } },
{ "type": "Feature", "id": 144, "properties": { "LAYER": "Overhead Structure", "CLASS": 19, "INTENSITY": 2, "RETURN_CNT": 2, "RETURN_NUM": 2, "GPS_TIME": 1743504057.6413684, "EXTRA_S321": 14, "EXTRA_F641": 84.635513, "Row": 117 }, "geometry": { "type": "Point", "coordinates": [ -0.43655479921876, 51.060604607338242 ] } },
{ "type": "Feature", "id": 145, "properties": { "LAYER": "Overhead Structure", "CLASS": 19, "INTENSITY": 2, "RETURN_CNT": 2, "RETURN_NUM": 2, "GPS_TIME": 1743504057.6413684, "EXTRA_S321": 14, "EXTRA_F641": 84.635513, "Row": 117 }, "geometry": { "type": "Point", "coordinates": [ -0.436470659978435, 51.062093400880549 ] } },
{ "type": "Feature", "id": 146, "properties": { "LAYER": "Overhead Structure", "CLASS": 19, "INTENSITY": 2, "RETURN_CNT": 2, "RETURN_NUM": 2, "GPS_TIME": 1743504057.6413684, "EXTRA_S321": 14, "EXTRA_F641": 84.635513, "Row": 118 }, "geometry": { "type": "Point", "coordinates": [ -0.436523101397135, 51.060608741223575 ] } },
{ "type": "Feature", "id": 149, "properties": { "LAYER": "Overhead Structure", "CLASS": 19, "INTENSITY": 2, "RETURN_CNT": 2, "RETURN_NUM": 2, "GPS_TIME": 1743504057.6413684, "EXTRA_S321": 14, "EXTRA_F641": 84.635513, "Row": 118 }, "geometry": { "type": "Point", "coordinates": [ -0.436438955067713, 51.062092216978172 ] } },
{ "type": "Feature", "id": 151, "properties": { "LAYER": "Overhead Structure", "CLASS": 19, "INTENSITY": 2, "RETURN_CNT": 2, "RETURN_NUM": 2, "GPS_TIME": 1743504057.6413684, "EXTRA_S321": 14, "EXTRA_F641": 84.635513, "Row": 119 }, "geometry": { "type": "Point", "coordinates": [ -0.436490828579929, 51.060613646973728 ] } },
{ "type": "Feature", "id": 154, "properties": { "LAYER": "Overhead Structure", "CLASS": 19, "INTENSITY": 2, "RETURN_CNT": 2, "RETURN_NUM": 2, "GPS_TIME": 1743504057.6413684, "EXTRA_S321": 14, "EXTRA_F641": 84.635513, "Row": 119 }, "geometry": { "type": "Point", "coordinates": [ -0.436406832524775, 51.062092125186631 ] } },
{ "type": "Feature", "id": 155, "properties": { "LAYER": "Overhead Structure", "CLASS": 19, "INTENSITY": 2, "RETURN_CNT": 2, "RETURN_NUM": 2, "GPS_TIME": 1743504057.6413684, "EXTRA_S321": 14, "EXTRA_F641": 84.635513, "Row": 120 }, "geometry": { "type": "Point", "coordinates": [ -0.43645926234686, 51.060618127731466 ] } },
{ "type": "Feature", "id": 158, "properties": { "LAYER": "Overhead Structure", "CLASS": 19, "INTENSITY": 2, "RETURN_CNT": 2, "RETURN_NUM": 2, "GPS_TIME": 1743504057.6413684, "EXTRA_S321": 14, "EXTRA_F641": 84.635513, "Row": 120 }, "geometry": { "type": "Point", "coordinates": [ -0.436375386443707, 51.062091155143001 ] } },
{ "type": "Feature", "id": 160, "properties": { "LAYER": "Overhead Structure", "CLASS": 19, "INTENSITY": 2, "RETURN_CNT": 2, "RETURN_NUM": 2, "GPS_TIME": 1743504057.6413684, "EXTRA_S321": 14, "EXTRA_F641": 84.635513, "Row": 121 }, "geometry": { "type": "Point", "coordinates": [ -0.436427298690696, 51.060624214302372 ] } },
{ "type": "Feature", "id": 162, "properties": { "LAYER": "Overhead Structure", "CLASS": 19, "INTENSITY": 2, "RETURN_CNT": 2, "RETURN_NUM": 2, "GPS_TIME": 1743504057.6413684, "EXTRA_S321": 14, "EXTRA_F641": 84.635513, "Row": 122 }, "geometry": { "type": "Point", "coordinates": [ -0.436395224681491, 51.060628870405196 ] } },
{ "type": "Feature", "id": 163, "properties": { "LAYER": "Overhead Structure", "CLASS": 19, "INTENSITY": 2, "RETURN_CNT": 2, "RETURN_NUM": 2, "GPS_TIME": 1743504057.6413684, "EXTRA_S321": 14, "EXTRA_F641": 84.635513, "Row": 121 }, "geometry": { "type": "Point", "coordinates": [ -0.436343473310323, 51.062091200008339 ] } },
{ "type": "Feature", "id": 166, "properties": { "LAYER": "Overhead Structure", "CLASS": 19, "INTENSITY": 2, "RETURN_CNT": 2, "RETURN_NUM": 2, "GPS_TIME": 1743504057.6413684, "EXTRA_S321": 14, "EXTRA_F641": 84.635513, "Row": 122 }, "geometry": { "type": "Point", "coordinates": [ -0.436312508100063, 51.062090559570521 ] } },
{ "type": "Feature", "id": 167, "properties": { "LAYER": "Overhead Structure", "CLASS": 19, "INTENSITY": 2, "RETURN_CNT": 2, "RETURN_NUM": 2, "GPS_TIME": 1743504057.6413684, "EXTRA_S321": 14, "EXTRA_F641": 84.635513, "Row": 123 }, "geometry": { "type": "Point", "coordinates": [ -0.436363768321977, 51.060634183958584 ] } },
{ "type": "Feature", "id": 170, "properties": { "LAYER": "Overhead Structure", "CLASS": 19, "INTENSITY": 2, "RETURN_CNT": 2, "RETURN_NUM": 2, "GPS_TIME": 1743504057.6413684, "EXTRA_S321": 14, "EXTRA_F641": 84.635513, "Row": 123 }, "geometry": { "type": "Point", "coordinates": [ -0.436281554732216, 51.062089921796812 ] } },
{ "type": "Feature", "id": 171, "properties": { "LAYER": "Overhead Structure", "CLASS": 19, "INTENSITY": 2, "RETURN_CNT": 2, "RETURN_NUM": 2, "GPS_TIME": 1743504057.6413684, "EXTRA_S321": 14, "EXTRA_F641": 84.635513, "Row": 124 }, "geometry": { "type": "Point", "coordinates": [ -0.436331566915281, 51.06064008430566 ] } },
{ "type": "Feature", "id": 174, "properties": { "LAYER": "Overhead Structure", "CLASS": 19, "INTENSITY": 2, "RETURN_CNT": 2, "RETURN_NUM": 2, "GPS_TIME": 1743504057.6413684, "EXTRA_S321": 14, "EXTRA_F641": 84.635513, "Row": 124 }, "geometry": { "type": "Point", "coordinates": [ -0.43624999018322, 51.062088948197598 ] } },
{ "type": "Feature", "id": 176, "properties": { "LAYER": "Overhead Structure", "CLASS": 19, "INTENSITY": 2, "RETURN_CNT": 2, "RETURN_NUM": 2, "GPS_TIME": 1743504057.6413684, "EXTRA_S321": 14, "EXTRA_F641": 84.635513, "Row": 125 }, "geometry": { "type": "Point", "coordinates": [ -0.436298922287407, 51.06064579337469 ] } },
{ "type": "Feature", "id": 178, "properties": { "LAYER": "Overhead Structure", "CLASS": 19, "INTENSITY": 2, "RETURN_CNT": 2, "RETURN_NUM": 2, "GPS_TIME": 1743504057.6413684, "EXTRA_S321": 14, "EXTRA_F641": 84.635513, "Row": 125 }, "geometry": { "type": "Point", "coordinates": [ -0.436218276508312, 51.062088319814052 ] } },
{ "type": "Feature", "id": 181, "properties": { "LAYER": "Overhead Structure", "CLASS": 19, "INTENSITY": 2, "RETURN_CNT": 2, "RETURN_NUM": 2, "GPS_TIME": 1743504057.6413684, "EXTRA_S321": 14, "EXTRA_F641": 84.635513, "Row": 126 }, "geometry": { "type": "Point", "coordinates": [ -0.436269655986027, 51.060652570610621 ] } },
{ "type": "Feature", "id": 182, "properties": { "LAYER": "Overhead Structure", "CLASS": 19, "INTENSITY": 2, "RETURN_CNT": 2, "RETURN_NUM": 2, "GPS_TIME": 1743504057.6413684, "EXTRA_S321": 14, "EXTRA_F641": 84.635513, "Row": 126 }, "geometry": { "type": "Point", "coordinates": [ -0.436186685027303, 51.062088587439113 ] } },
{ "type": "Feature", "id": 185, "properties": { "LAYER": "Overhead Structure", "CLASS": 19, "INTENSITY": 2, "RETURN_CNT": 2, "RETURN_NUM": 2, "GPS_TIME": 1743504057.6413684, "EXTRA_S321": 14, "EXTRA_F641": 84.635513, "Row": 127 }, "geometry": { "type": "Point", "coordinates": [ -0.436236108838929, 51.060657816056221 ] } },
{ "type": "Feature", "id": 186, "properties": { "LAYER": "Overhead Structure", "CLASS": 19, "INTENSITY": 2, "RETURN_CNT": 2, "RETURN_NUM": 2, "GPS_TIME": 1743504057.6413684, "EXTRA_S321": 14, "EXTRA_F641": 84.635513, "Row": 127 }, "geometry": { "type": "Point", "coordinates": [ -0.43615557365991, 51.062087856940323 ] } },
{ "type": "Feature", "id": 189, "properties": { "LAYER": "Overhead Structure", "CLASS": 19, "INTENSITY": 2, "RETURN_CNT": 2, "RETURN_NUM": 2, "GPS_TIME": 1743504057.6413684, "EXTRA_S321": 14, "EXTRA_F641": 84.635513, "Row": 128 }, "geometry": { "type": "Point", "coordinates": [ -0.436205955635055, 51.06066236988044 ] } },
{ "type": "Feature", "id": 190, "properties": { "LAYER": "Overhead Structure", "CLASS": 19, "INTENSITY": 2, "RETURN_CNT": 2, "RETURN_NUM": 2, "GPS_TIME": 1743504057.6413684, "EXTRA_S321": 14, "EXTRA_F641": 84.635513, "Row": 128 }, "geometry": { "type": "Point", "coordinates": [ -0.436124297815213, 51.062086929747359 ] } },
{ "type": "Feature", "id": 193, "properties": { "LAYER": "Overhead Structure", "CLASS": 19, "INTENSITY": 2, "RETURN_CNT": 2, "RETURN_NUM": 2, "GPS_TIME": 1743504057.6413684, "EXTRA_S321": 14, "EXTRA_F641": 84.635513, "Row": 129 }, "geometry": { "type": "Point", "coordinates": [ -0.436173475089603, 51.060667408578958 ] } },
{ "type": "Feature", "id": 194, "properties": { "LAYER": "Overhead Structure", "CLASS": 19, "INTENSITY": 2, "RETURN_CNT": 2, "RETURN_NUM": 2, "GPS_TIME": 1743504057.6413684, "EXTRA_S321": 14, "EXTRA_F641": 84.635513, "Row": 129 }, "geometry": { "type": "Point", "coordinates": [ -0.436093240715619, 51.062087368918711 ] } },
{ "type": "Feature", "id": 195, "properties": { "LAYER": "Overhead Structure", "CLASS": 19, "INTENSITY": 2, "RETURN_CNT": 2, "RETURN_NUM": 2, "GPS_TIME": 1743504057.6413684, "EXTRA_S321": 14, "EXTRA_F641": 84.635513, "Row": 130 }, "geometry": { "type": "Point", "coordinates": [ -0.436142013713019, 51.060672721112958 ] } },
{ "type": "Feature", "id": 198, "properties": { "LAYER": "Overhead Structure", "CLASS": 19, "INTENSITY": 2, "RETURN_CNT": 2, "RETURN_NUM": 2, "GPS_TIME": 1743504057.6413684, "EXTRA_S321": 14, "EXTRA_F641": 84.635513, "Row": 130 }, "geometry": { "type": "Point", "coordinates": [ -0.436061039427079, 51.062086926453404 ] } },
{ "type": "Feature", "id": 199, "properties": { "LAYER": "Overhead Structure", "CLASS": 19, "INTENSITY": 2, "RETURN_CNT": 2, "RETURN_NUM": 2, "GPS_TIME": 1743504057.6413684, "EXTRA_S321": 14, "EXTRA_F641": 84.635513, "Row": 131 }, "geometry": { "type": "Point", "coordinates": [ -0.436110558078969, 51.060676950441028 ] } },
{ "type": "Feature", "id": 202, "properties": { "LAYER": "Overhead Structure", "CLASS": 19, "INTENSITY": 2, "RETURN_CNT": 2, "RETURN_NUM": 2, "GPS_TIME": 1743504057.6413684, "EXTRA_S321": 14, "EXTRA_F641": 84.635513, "Row": 131 }, "geometry": { "type": "Point", "coordinates": [ -0.436030306664896, 51.062086563240761 ] } },
{ "type": "Feature", "id": 203, "properties": { "LAYER": "Overhead Structure", "CLASS": 19, "INTENSITY": 2, "RETURN_CNT": 2, "RETURN_NUM": 2, "GPS_TIME": 1743504057.6413684, "EXTRA_S321": 14, "EXTRA_F641": 84.635513, "Row": 132 }, "geometry": { "type": "Point", "coordinates": [ -0.43607809930097, 51.060683512996263 ] } },
{ "type": "Feature", "id": 206, "properties": { "LAYER": "Overhead Structure", "CLASS": 19, "INTENSITY": 2, "RETURN_CNT": 2, "RETURN_NUM": 2, "GPS_TIME": 1743504057.6413684, "EXTRA_S321": 14, "EXTRA_F641": 84.635513, "Row": 133 }, "geometry": { "type": "Point", "coordinates": [ -0.436047295237629, 51.060687351445722 ] } },
{ "type": "Feature", "id": 207, "properties": { "LAYER": "Overhead Structure", "CLASS": 19, "INTENSITY": 2, "RETURN_CNT": 2, "RETURN_NUM": 2, "GPS_TIME": 1743504057.6413684, "EXTRA_S321": 14, "EXTRA_F641": 84.635513, "Row": 132 }, "geometry": { "type": "Point", "coordinates": [ -0.435998227060342, 51.062086222755568 ] } },
{ "type": "Feature", "id": 210, "properties": { "LAYER": "Overhead Structure", "CLASS": 19, "INTENSITY": 2, "RETURN_CNT": 2, "RETURN_NUM": 2, "GPS_TIME": 1743504057.6413684, "EXTRA_S321": 14, "EXTRA_F641": 84.635513, "Row": 133 }, "geometry": { "type": "Point", "coordinates": [ -0.43596767219167, 51.062085407160275 ] } },
{ "type": "Feature", "id": 211, "properties": { "LAYER": "Overhead Structure", "CLASS": 19, "INTENSITY": 2, "RETURN_CNT": 2, "RETURN_NUM": 2, "GPS_TIME": 1743504057.6413684, "EXTRA_S321": 14, "EXTRA_F641": 84.635513, "Row": 134 }, "geometry": { "type": "Point", "coordinates": [ -0.43601480174224, 51.060692849985564 ] } },
{ "type": "Feature", "id": 214, "properties": { "LAYER": "Overhead Structure", "CLASS": 19, "INTENSITY": 2, "RETURN_CNT": 2, "RETURN_NUM": 2, "GPS_TIME": 1743504057.6413684, "EXTRA_S321": 14, "EXTRA_F641": 84.635513, "Row": 135 }, "geometry": { "type": "Point", "coordinates": [ -0.43598329876402, 51.060697472126215 ] } },
{ "type": "Feature", "id": 215, "properties": { "LAYER": "Overhead Structure", "CLASS": 19, "INTENSITY": 2, "RETURN_CNT": 2, "RETURN_NUM": 2, "GPS_TIME": 1743504057.6413684, "EXTRA_S321": 14, "EXTRA_F641": 84.635513, "Row": 134 }, "geometry": { "type": "Point", "coordinates": [ -0.435935291827578, 51.062085151321611 ] } },
{ "type": "Feature", "id": 218, "properties": { "LAYER": "Overhead Structure", "CLASS": 19, "INTENSITY": 2, "RETURN_CNT": 2, "RETURN_NUM": 2, "GPS_TIME": 1743504057.6413684, "EXTRA_S321": 14, "EXTRA_F641": 84.635513, "Row": 135 }, "geometry": { "type": "Point", "coordinates": [ -0.43590378546688, 51.062084140418101 ] } },
{ "type": "Feature", "id": 219, "properties": { "LAYER": "Overhead Structure", "CLASS": 19, "INTENSITY": 2, "RETURN_CNT": 2, "RETURN_NUM": 2, "GPS_TIME": 1743504057.6413684, "EXTRA_S321": 14, "EXTRA_F641": 84.635513, "Row": 136 }, "geometry": { "type": "Point", "coordinates": [ -0.435951310762177, 51.06070311318885 ] } },
{ "type": "Feature", "id": 222, "properties": { "LAYER": "Overhead Structure", "CLASS": 19, "INTENSITY": 2, "RETURN_CNT": 2, "RETURN_NUM": 2, "GPS_TIME": 1743504057.6413684, "EXTRA_S321": 14, "EXTRA_F641": 84.635513, "Row": 136 }, "geometry": { "type": "Point", "coordinates": [ -0.435873396348002, 51.062084548736578 ] } },
{ "type": "Feature", "id": 223, "properties": { "LAYER": "Overhead Structure", "CLASS": 19, "INTENSITY": 2, "RETURN_CNT": 2, "RETURN_NUM": 2, "GPS_TIME": 1743504057.6413684, "EXTRA_S321": 14, "EXTRA_F641": 84.635513, "Row": 137 }, "geometry": { "type": "Point", "coordinates": [ -0.43592096662993, 51.060690180643334 ] } },
{ "type": "Feature", "id": 226, "properties": { "LAYER": "Overhead Structure", "CLASS": 19, "INTENSITY": 2, "RETURN_CNT": 2, "RETURN_NUM": 2, "GPS_TIME": 1743504057.6413684, "EXTRA_S321": 14, "EXTRA_F641": 84.635513, "Row": 137 }, "geometry": { "type": "Point", "coordinates": [ -0.435842526191076, 51.062084533126232 ] } },
{ "type": "Feature", "id": 227, "properties": { "LAYER": "Overhead Structure", "CLASS": 19, "INTENSITY": 2, "RETURN_CNT": 2, "RETURN_NUM": 2, "GPS_TIME": 1743504057.6413684, "EXTRA_S321": 14, "EXTRA_F641": 84.635513, "Row": 138 }, "geometry": { "type": "Point", "coordinates": [ -0.435890288530956, 51.060674965790128 ] } },
{ "type": "Feature", "id": 230, "properties": { "LAYER": "Overhead Structure", "CLASS": 19, "INTENSITY": 2, "RETURN_CNT": 2, "RETURN_NUM": 2, "GPS_TIME": 1743504057.6413684, "EXTRA_S321": 14, "EXTRA_F641": 84.635513, "Row": 139 }, "geometry": { "type": "Point", "coordinates": [ -0.4358606222086, 51.060660172960553 ] } },
{ "type": "Feature", "id": 231, "properties": { "LAYER": "Overhead Structure", "CLASS": 19, "INTENSITY": 2, "RETURN_CNT": 2, "RETURN_NUM": 2, "GPS_TIME": 1743504057.6413684, "EXTRA_S321": 14, "EXTRA_F641": 84.635513, "Row": 138 }, "geometry": { "type": "Point", "coordinates": [ -0.435809836990425, 51.062083302770752 ] } },
{ "type": "Feature", "id": 234, "properties": { "LAYER": "Overhead Structure", "CLASS": 19, "INTENSITY": 2, "RETURN_CNT": 2, "RETURN_NUM": 2, "GPS_TIME": 1743504057.6413684, "EXTRA_S321": 14, "EXTRA_F641": 84.635513, "Row": 140 }, "geometry": { "type": "Point", "coordinates": [ -0.435829276686919, 51.060644676721907 ] } },
{ "type": "Feature", "id": 235, "properties": { "LAYER": "Overhead Structure", "CLASS": 19, "INTENSITY": 2, "RETURN_CNT": 2, "RETURN_NUM": 2, "GPS_TIME": 1743504057.6413684, "EXTRA_S321": 14, "EXTRA_F641": 84.635513, "Row": 139 }, "geometry": { "type": "Point", "coordinates": [ -0.435778295938418, 51.062083017227195 ] } },
{ "type": "Feature", "id": 238, "properties": { "LAYER": "Overhead Structure", "CLASS": 19, "INTENSITY": 2, "RETURN_CNT": 2, "RETURN_NUM": 2, "GPS_TIME": 1743504057.6413684, "EXTRA_S321": 14, "EXTRA_F641": 84.635513, "Row": 141 }, "geometry": { "type": "Point", "coordinates": [ -0.435800072706729, 51.060629960476938 ] } },
{ "type": "Feature", "id": 239, "properties": { "LAYER": "Overhead Structure", "CLASS": 19, "INTENSITY": 2, "RETURN_CNT": 2, "RETURN_NUM": 2, "GPS_TIME": 1743504057.6413684, "EXTRA_S321": 14, "EXTRA_F641": 84.635513, "Row": 140 }, "geometry": { "type": "Point", "coordinates": [ -0.43574671158358, 51.062082145087537 ] } },
{ "type": "Feature", "id": 242, "properties": { "LAYER": "Overhead Structure", "CLASS": 19, "INTENSITY": 2, "RETURN_CNT": 2, "RETURN_NUM": 2, "GPS_TIME": 1743504057.6413684, "EXTRA_S321": 14, "EXTRA_F641": 84.635513, "Row": 141 }, "geometry": { "type": "Point", "coordinates": [ -0.43571525326525, 51.062081440850442 ] } },
{ "type": "Feature", "id": 243, "properties": { "LAYER": "Overhead Structure", "CLASS": 19, "INTENSITY": 2, "RETURN_CNT": 2, "RETURN_NUM": 2, "GPS_TIME": 1743504057.6413684, "EXTRA_S321": 14, "EXTRA_F641": 84.635513, "Row": 142 }, "geometry": { "type": "Point", "coordinates": [ -0.435768900976913, 51.060615360432926 ] } },
{ "type": "Feature", "id": 246, "properties": { "LAYER": "Overhead Structure", "CLASS": 19, "INTENSITY": 2, "RETURN_CNT": 2, "RETURN_NUM": 2, "GPS_TIME": 1743504057.6413684, "EXTRA_S321": 14, "EXTRA_F641": 84.635513, "Row": 142 }, "geometry": { "type": "Point", "coordinates": [ -0.435683608884691, 51.062081014949413 ] } },
{ "type": "Feature", "id": 249, "properties": { "LAYER": "Overhead Structure", "CLASS": 19, "INTENSITY": 2, "RETURN_CNT": 2, "RETURN_NUM": 2, "GPS_TIME": 1743504057.6413684, "EXTRA_S321": 14, "EXTRA_F641": 84.635513, "Row": 143 }, "geometry": { "type": "Point", "coordinates": [ -0.435737053141216, 51.060601120822867 ] } },
{ "type": "Feature", "id": 250, "properties": { "LAYER": "Overhead Structure", "CLASS": 19, "INTENSITY": 2, "RETURN_CNT": 2, "RETURN_NUM": 2, "GPS_TIME": 1743504057.6413684, "EXTRA_S321": 14, "EXTRA_F641": 84.635513, "Row": 143 }, "geometry": { "type": "Point", "coordinates": [ -0.4356539104701, 51.062079831687171 ] } },
{ "type": "Feature", "id": 251, "properties": { "LAYER": "Overhead Structure", "CLASS": 19, "INTENSITY": 2, "RETURN_CNT": 2, "RETURN_NUM": 2, "GPS_TIME": 1743504057.6413684, "EXTRA_S321": 14, "EXTRA_F641": 84.635513, "Row": 144 }, "geometry": { "type": "Point", "coordinates": [ -0.435706805756965, 51.060584850418294 ] } },
{ "type": "Feature", "id": 253, "properties": { "LAYER": "Overhead Structure", "CLASS": 19, "INTENSITY": 2, "RETURN_CNT": 2, "RETURN_NUM": 2, "GPS_TIME": 1743504057.6413684, "EXTRA_S321": 14, "EXTRA_F641": 84.635513, "Row": 144 }, "geometry": { "type": "Point", "coordinates": [ -0.435621646915915, 51.062080487514322 ] } },
{ "type": "Feature", "id": 255, "properties": { "LAYER": "Overhead Structure", "CLASS": 19, "INTENSITY": 2, "RETURN_CNT": 2, "RETURN_NUM": 2, "GPS_TIME": 1743504057.6413684, "EXTRA_S321": 14, "EXTRA_F641": 84.635513, "Row": 145 }, "geometry": { "type": "Point", "coordinates": [ -0.435676096582401, 51.060570575599634 ] } },
{ "type": "Feature", "id": 256, "properties": { "LAYER": "Overhead Structure", "CLASS": 19, "INTENSITY": 2, "RETURN_CNT": 2, "RETURN_NUM": 2, "GPS_TIME": 1743504057.6413684, "EXTRA_S321": 14, "EXTRA_F641": 84.635513, "Row": 145 }, "geometry": { "type": "Point", "coordinates": [ -0.435590208523206, 51.0620804704565 ] } },
{ "type": "Feature", "id": 258, "properties": { "LAYER": "Overhead Structure", "CLASS": 19, "INTENSITY": 2, "RETURN_CNT": 2, "RETURN_NUM": 2, "GPS_TIME": 1743504057.6413684, "EXTRA_S321": 14, "EXTRA_F641": 84.635513, "Row": 146 }, "geometry": { "type": "Point", "coordinates": [ -0.43564678847454, 51.060555184488415 ] } },
{ "type": "Feature", "id": 261, "properties": { "LAYER": "Overhead Structure", "CLASS": 19, "INTENSITY": 2, "RETURN_CNT": 2, "RETURN_NUM": 2, "GPS_TIME": 1743504057.6413684, "EXTRA_S321": 14, "EXTRA_F641": 84.635513, "Row": 147 }, "geometry": { "type": "Point", "coordinates": [ -0.43561474721581, 51.060540417948729 ] } },
{ "type": "Feature", "id": 262, "properties": { "LAYER": "Overhead Structure", "CLASS": 19, "INTENSITY": 2, "RETURN_CNT": 2, "RETURN_NUM": 2, "GPS_TIME": 1743504057.6413684, "EXTRA_S321": 14, "EXTRA_F641": 84.635513, "Row": 146 }, "geometry": { "type": "Point", "coordinates": [ -0.435558592994615, 51.062079294226002 ] } },
{ "type": "Feature", "id": 265, "properties": { "LAYER": "Overhead Structure", "CLASS": 19, "INTENSITY": 2, "RETURN_CNT": 2, "RETURN_NUM": 2, "GPS_TIME": 1743504057.6413684, "EXTRA_S321": 14, "EXTRA_F641": 84.635513, "Row": 148 }, "geometry": { "type": "Point", "coordinates": [ -0.435583994994504, 51.060545592566669 ] } },
{ "type": "Feature", "id": 266, "properties": { "LAYER": "Overhead Structure", "CLASS": 19, "INTENSITY": 2, "RETURN_CNT": 2, "RETURN_NUM": 2, "GPS_TIME": 1743504057.6413684, "EXTRA_S321": 14, "EXTRA_F641": 84.635513, "Row": 147 }, "geometry": { "type": "Point", "coordinates": [ -0.435526687226029, 51.062078911272529 ] } },
{ "type": "Feature", "id": 269, "properties": { "LAYER": "Overhead Structure", "CLASS": 19, "INTENSITY": 2, "RETURN_CNT": 2, "RETURN_NUM": 2, "GPS_TIME": 1743504057.6413684, "EXTRA_S321": 14, "EXTRA_F641": 84.635513, "Row": 148 }, "geometry": { "type": "Point", "coordinates": [ -0.435496024917276, 51.062078074384942 ] } },
{ "type": "Feature", "id": 272, "properties": { "LAYER": "Overhead Structure", "CLASS": 19, "INTENSITY": 2, "RETURN_CNT": 2, "RETURN_NUM": 2, "GPS_TIME": 1743504057.6413684, "EXTRA_S321": 14, "EXTRA_F641": 84.635513, "Row": 149 }, "geometry": { "type": "Point", "coordinates": [ -0.435548766529352, 51.060555093914488 ] } },
{ "type": "Feature", "id": 273, "properties": { "LAYER": "Overhead Structure", "CLASS": 19, "INTENSITY": 2, "RETURN_CNT": 2, "RETURN_NUM": 2, "GPS_TIME": 1743504057.6413684, "EXTRA_S321": 14, "EXTRA_F641": 84.635513, "Row": 150 }, "geometry": { "type": "Point", "coordinates": [ -0.43552056946109, 51.060557164450373 ] } },
{ "type": "Feature", "id": 274, "properties": { "LAYER": "Overhead Structure", "CLASS": 19, "INTENSITY": 2, "RETURN_CNT": 2, "RETURN_NUM": 2, "GPS_TIME": 1743504057.6413684, "EXTRA_S321": 14, "EXTRA_F641": 84.635513, "Row": 149 }, "geometry": { "type": "Point", "coordinates": [ -0.435464872310578, 51.062078624605064 ] } },
{ "type": "Feature", "id": 276, "properties": { "LAYER": "Overhead Structure", "CLASS": 19, "INTENSITY": 2, "RETURN_CNT": 2, "RETURN_NUM": 2, "GPS_TIME": 1743504057.6413684, "EXTRA_S321": 14, "EXTRA_F641": 84.635513, "Row": 151 }, "geometry": { "type": "Point", "coordinates": [ -0.43548868743406, 51.060562058488699 ] } },
{ "type": "Feature", "id": 277, "properties": { "LAYER": "Overhead Structure", "CLASS": 19, "INTENSITY": 2, "RETURN_CNT": 2, "RETURN_NUM": 2, "GPS_TIME": 1743504057.6413684, "EXTRA_S321": 14, "EXTRA_F641": 84.635513, "Row": 150 }, "geometry": { "type": "Point", "coordinates": [ -0.435433038766801, 51.062078253390247 ] } },
{ "type": "Feature", "id": 280, "properties": { "LAYER": "Overhead Structure", "CLASS": 19, "INTENSITY": 2, "RETURN_CNT": 2, "RETURN_NUM": 2, "GPS_TIME": 1743504057.6413684, "EXTRA_S321": 14, "EXTRA_F641": 84.635513, "Row": 151 }, "geometry": { "type": "Point", "coordinates": [ -0.435401210926228, 51.062076961653105 ] } },
{ "type": "Feature", "id": 282, "properties": { "LAYER": "Overhead Structure", "CLASS": 19, "INTENSITY": 2, "RETURN_CNT": 2, "RETURN_NUM": 2, "GPS_TIME": 1743504057.6413684, "EXTRA_S321": 14, "EXTRA_F641": 84.635513, "Row": 152 }, "geometry": { "type": "Point", "coordinates": [ -0.435457373644353, 51.060568499488731 ] } },
{ "type": "Feature", "id": 284, "properties": { "LAYER": "Overhead Structure", "CLASS": 19, "INTENSITY": 2, "RETURN_CNT": 2, "RETURN_NUM": 2, "GPS_TIME": 1743504057.6413684, "EXTRA_S321": 14, "EXTRA_F641": 84.635513, "Row": 153 }, "geometry": { "type": "Point", "coordinates": [ -0.435425381022353, 51.060573799021022 ] } },
{ "type": "Feature", "id": 285, "properties": { "LAYER": "Overhead Structure", "CLASS": 19, "INTENSITY": 2, "RETURN_CNT": 2, "RETURN_NUM": 2, "GPS_TIME": 1743504057.6413684, "EXTRA_S321": 14, "EXTRA_F641": 84.635513, "Row": 152 }, "geometry": { "type": "Point", "coordinates": [ -0.4353701819528, 51.062076454923847 ] } },
{ "type": "Feature", "id": 288, "properties": { "LAYER": "Overhead Structure", "CLASS": 19, "INTENSITY": 2, "RETURN_CNT": 2, "RETURN_NUM": 2, "GPS_TIME": 1743504057.6413684, "EXTRA_S321": 14, "EXTRA_F641": 84.635513, "Row": 153 }, "geometry": { "type": "Point", "coordinates": [ -0.435339862747352, 51.06207625923706 ] } },
{ "type": "Feature", "id": 290, "properties": { "LAYER": "Overhead Structure", "CLASS": 19, "INTENSITY": 2, "RETURN_CNT": 2, "RETURN_NUM": 2, "GPS_TIME": 1743504057.6413684, "EXTRA_S321": 14, "EXTRA_F641": 84.635513, "Row": 154 }, "geometry": { "type": "Point", "coordinates": [ -0.435394225342983, 51.060579059510609 ] } },
{ "type": "Feature", "id": 292, "properties": { "LAYER": "Overhead Structure", "CLASS": 19, "INTENSITY": 2, "RETURN_CNT": 2, "RETURN_NUM": 2, "GPS_TIME": 1743504057.6413684, "EXTRA_S321": 14, "EXTRA_F641": 84.635513, "Row": 155 }, "geometry": { "type": "Point", "coordinates": [ -0.43536154628074, 51.060585847184178 ] } },
{ "type": "Feature", "id": 293, "properties": { "LAYER": "Overhead Structure", "CLASS": 19, "INTENSITY": 2, "RETURN_CNT": 2, "RETURN_NUM": 2, "GPS_TIME": 1743504057.6413684, "EXTRA_S321": 14, "EXTRA_F641": 84.635513, "Row": 154 }, "geometry": { "type": "Point", "coordinates": [ -0.435308451913239, 51.062074680896743 ] } },
{ "type": "Feature", "id": 296, "properties": { "LAYER": "Overhead Structure", "CLASS": 19, "INTENSITY": 2, "RETURN_CNT": 2, "RETURN_NUM": 2, "GPS_TIME": 1743504057.6413684, "EXTRA_S321": 14, "EXTRA_F641": 84.635513, "Row": 156 }, "geometry": { "type": "Point", "coordinates": [ -0.435329892711533, 51.060591157791023 ] } },
{ "type": "Feature", "id": 297, "properties": { "LAYER": "Overhead Structure", "CLASS": 19, "INTENSITY": 2, "RETURN_CNT": 2, "RETURN_NUM": 2, "GPS_TIME": 1743504057.6413684, "EXTRA_S321": 14, "EXTRA_F641": 84.635513, "Row": 155 }, "geometry": { "type": "Point", "coordinates": [ -0.435276489240282, 51.062074999687034 ] } },
{ "type": "Feature", "id": 299, "properties": { "LAYER": "Overhead Structure", "CLASS": 19, "INTENSITY": 2, "RETURN_CNT": 2, "RETURN_NUM": 2, "GPS_TIME": 1743504057.6413684, "EXTRA_S321": 14, "EXTRA_F641": 84.635513, "Row": 157 }, "geometry": { "type": "Point", "coordinates": [ -0.435298970342992, 51.060597129058451 ] } },
{ "type": "Feature", "id": 300, "properties": { "LAYER": "Overhead Structure", "CLASS": 19, "INTENSITY": 2, "RETURN_CNT": 2, "RETURN_NUM": 2, "GPS_TIME": 1743504057.6413684, "EXTRA_S321": 14, "EXTRA_F641": 84.635513, "Row": 156 }, "geometry": { "type": "Point", "coordinates": [ -0.43524462843707, 51.062075330012512 ] } },
{ "type": "Feature", "id": 303, "properties": { "LAYER": "Overhead Structure", "CLASS": 19, "INTENSITY": 2, "RETURN_CNT": 2, "RETURN_NUM": 2, "GPS_TIME": 1743504057.6413684, "EXTRA_S321": 14, "EXTRA_F641": 84.635513, "Row": 157 }, "geometry": { "type": "Point", "coordinates": [ -0.435213983137259, 51.062074405350806 ] } },
{ "type": "Feature", "id": 305, "properties": { "LAYER": "Overhead Structure", "CLASS": 19, "INTENSITY": 2, "RETURN_CNT": 2, "RETURN_NUM": 2, "GPS_TIME": 1743504057.6413684, "EXTRA_S321": 14, "EXTRA_F641": 84.635513, "Row": 158 }, "geometry": { "type": "Point", "coordinates": [ -0.435265833504141, 51.060615030098013 ] } },
{ "type": "Feature", "id": 306, "properties": { "LAYER": "Overhead Structure", "CLASS": 19, "INTENSITY": 2, "RETURN_CNT": 2, "RETURN_NUM": 2, "GPS_TIME": 1743504057.6413684, "EXTRA_S321": 14, "EXTRA_F641": 84.635513, "Row": 158 }, "geometry": { "type": "Point", "coordinates": [ -0.43518177472941, 51.06207372449542 ] } },
{ "type": "Feature", "id": 307, "properties": { "LAYER": "Overhead Structure", "CLASS": 19, "INTENSITY": 2, "RETURN_CNT": 2, "RETURN_NUM": 2, "GPS_TIME": 1743504057.6413684, "EXTRA_S321": 14, "EXTRA_F641": 84.635513, "Row": 159 }, "geometry": { "type": "Point", "coordinates": [ -0.435233634713168, 51.060632876801407 ] } },
{ "type": "Feature", "id": 308, "properties": { "LAYER": "Overhead Structure", "CLASS": 19, "INTENSITY": 2, "RETURN_CNT": 2, "RETURN_NUM": 2, "GPS_TIME": 1743504057.6413684, "EXTRA_S321": 14, "EXTRA_F641": 84.635513, "Row": 159 }, "geometry": { "type": "Point", "coordinates": [ -0.43515110652025, 51.062073620004007 ] } },
{ "type": "Feature", "id": 310, "properties": { "LAYER": "Overhead Structure", "CLASS": 19, "INTENSITY": 2, "RETURN_CNT": 2, "RETURN_NUM": 2, "GPS_TIME": 1743504057.6413684, "EXTRA_S321": 14, "EXTRA_F641": 84.635513, "Row": 160 }, "geometry": { "type": "Point", "coordinates": [ -0.435201288427725, 51.060650690024758 ] } },
{ "type": "Feature", "id": 311, "properties": { "LAYER": "Overhead Structure", "CLASS": 19, "INTENSITY": 2, "RETURN_CNT": 2, "RETURN_NUM": 2, "GPS_TIME": 1743504057.6413684, "EXTRA_S321": 14, "EXTRA_F641": 84.635513, "Row": 160 }, "geometry": { "type": "Point", "coordinates": [ -0.435119139524289, 51.062083535370348 ] } },
{ "type": "Feature", "id": 313, "properties": { "LAYER": "Overhead Structure", "CLASS": 19, "INTENSITY": 2, "RETURN_CNT": 2, "RETURN_NUM": 2, "GPS_TIME": 1743504057.6413684, "EXTRA_S321": 14, "EXTRA_F641": 84.635513, "Row": 161 }, "geometry": { "type": "Point", "coordinates": [ -0.435168659303678, 51.06067008328953 ] } },
{ "type": "Feature", "id": 314, "properties": { "LAYER": "Overhead Structure", "CLASS": 19, "INTENSITY": 2, "RETURN_CNT": 2, "RETURN_NUM": 2, "GPS_TIME": 1743504057.6413684, "EXTRA_S321": 14, "EXTRA_F641": 84.635513, "Row": 161 }, "geometry": { "type": "Point", "coordinates": [ -0.435086908100298, 51.062092169574321 ] } },
{ "type": "Feature", "id": 317, "properties": { "LAYER": "Overhead Structure", "CLASS": 19, "INTENSITY": 2, "RETURN_CNT": 2, "RETURN_NUM": 2, "GPS_TIME": 1743504057.6413684, "EXTRA_S321": 14, "EXTRA_F641": 84.635513, "Row": 162 }, "geometry": { "type": "Point", "coordinates": [ -0.435135991504906, 51.06068954156531 ] } },
{ "type": "Feature", "id": 318, "properties": { "LAYER": "Overhead Structure", "CLASS": 19, "INTENSITY": 2, "RETURN_CNT": 2, "RETURN_NUM": 2, "GPS_TIME": 1743504057.6413684, "EXTRA_S321": 14, "EXTRA_F641": 84.635513, "Row": 163 }, "geometry": { "type": "Point", "coordinates": [ -0.435103492095156, 51.060708139291002 ] } },
{ "type": "Feature", "id": 319, "properties": { "LAYER": "Overhead Structure", "CLASS": 19, "INTENSITY": 2, "RETURN_CNT": 2, "RETURN_NUM": 2, "GPS_TIME": 1743504057.6413684, "EXTRA_S321": 14, "EXTRA_F641": 84.635513, "Row": 162 }, "geometry": { "type": "Point", "coordinates": [ -0.43505569363877, 51.062093054751628 ] } },
{ "type": "Feature", "id": 321, "properties": { "LAYER": "Overhead Structure", "CLASS": 19, "INTENSITY": 2, "RETURN_CNT": 2, "RETURN_NUM": 2, "GPS_TIME": 1743504057.6413684, "EXTRA_S321": 14, "EXTRA_F641": 84.635513, "Row": 164 }, "geometry": { "type": "Point", "coordinates": [ -0.435070616955286, 51.060726268329923 ] } },
{ "type": "Feature", "id": 322, "properties": { "LAYER": "Overhead Structure", "CLASS": 19, "INTENSITY": 2, "RETURN_CNT": 2, "RETURN_NUM": 2, "GPS_TIME": 1743504057.6413684, "EXTRA_S321": 14, "EXTRA_F641": 84.635513, "Row": 164 }, "geometry": { "type": "Point", "coordinates": [ -0.434992802125497, 51.06209165859152 ] } },
{ "type": "Feature", "id": 323, "properties": { "LAYER": "Overhead Structure", "CLASS": 19, "INTENSITY": 2, "RETURN_CNT": 2, "RETURN_NUM": 2, "GPS_TIME": 1743504057.6413684, "EXTRA_S321": 14, "EXTRA_F641": 84.635513, "Row": 163 }, "geometry": { "type": "Point", "coordinates": [ -0.435023527396176, 51.062092071136036 ] } },
{ "type": "Feature", "id": 326, "properties": { "LAYER": "Overhead Structure", "CLASS": 19, "INTENSITY": 2, "RETURN_CNT": 2, "RETURN_NUM": 2, "GPS_TIME": 1743504057.6413684, "EXTRA_S321": 14, "EXTRA_F641": 84.635513, "Row": 165 }, "geometry": { "type": "Point", "coordinates": [ -0.435038251128253, 51.060743282305843 ] } },
{ "type": "Feature", "id": 327, "properties": { "LAYER": "Overhead Structure", "CLASS": 19, "INTENSITY": 2, "RETURN_CNT": 2, "RETURN_NUM": 2, "GPS_TIME": 1743504057.6413684, "EXTRA_S321": 14, "EXTRA_F641": 84.635513, "Row": 166 }, "geometry": { "type": "Point", "coordinates": [ -0.435005454874844, 51.060762115108531 ] } },
{ "type": "Feature", "id": 328, "properties": { "LAYER": "Overhead Structure", "CLASS": 19, "INTENSITY": 2, "RETURN_CNT": 2, "RETURN_NUM": 2, "GPS_TIME": 1743504057.6413684, "EXTRA_S321": 14, "EXTRA_F641": 84.635513, "Row": 165 }, "geometry": { "type": "Point", "coordinates": [ -0.434960669935933, 51.062090698683186 ] } },
{ "type": "Feature", "id": 329, "properties": { "LAYER": "Overhead Structure", "CLASS": 19, "INTENSITY": 2, "RETURN_CNT": 2, "RETURN_NUM": 2, "GPS_TIME": 1743504057.6413684, "EXTRA_S321": 14, "EXTRA_F641": 84.635513, "Row": 166 }, "geometry": { "type": "Point", "coordinates": [ -0.434929006615394, 51.0620907893883 ] } },
{ "type": "Feature", "id": 331, "properties": { "LAYER": "Overhead Structure", "CLASS": 19, "INTENSITY": 2, "RETURN_CNT": 2, "RETURN_NUM": 2, "GPS_TIME": 1743504057.6413684, "EXTRA_S321": 14, "EXTRA_F641": 84.635513, "Row": 167 }, "geometry": { "type": "Point", "coordinates": [ -0.434973643747814, 51.060780938577842 ] } },
{ "type": "Feature", "id": 332, "properties": { "LAYER": "Overhead Structure", "CLASS": 19, "INTENSITY": 2, "RETURN_CNT": 2, "RETURN_NUM": 2, "GPS_TIME": 1743504057.6413684, "EXTRA_S321": 14, "EXTRA_F641": 84.635513, "Row": 168 }, "geometry": { "type": "Point", "coordinates": [ -0.434940749061427, 51.060799262058367 ] } },
{ "type": "Feature", "id": 333, "properties": { "LAYER": "Overhead Structure", "CLASS": 19, "INTENSITY": 2, "RETURN_CNT": 2, "RETURN_NUM": 2, "GPS_TIME": 1743504057.6413684, "EXTRA_S321": 14, "EXTRA_F641": 84.635513, "Row": 167 }, "geometry": { "type": "Point", "coordinates": [ -0.434898028575508, 51.062090911128287 ] } },
{ "type": "Feature", "id": 335, "properties": { "LAYER": "Overhead Structure", "CLASS": 19, "INTENSITY": 2, "RETURN_CNT": 2, "RETURN_NUM": 2, "GPS_TIME": 1743504057.6413684, "EXTRA_S321": 14, "EXTRA_F641": 84.635513, "Row": 169 }, "geometry": { "type": "Point", "coordinates": [ -0.434909259162554, 51.060815249236924 ] } },
{ "type": "Feature", "id": 336, "properties": { "LAYER": "Overhead Structure", "CLASS": 19, "INTENSITY": 2, "RETURN_CNT": 2, "RETURN_NUM": 2, "GPS_TIME": 1743504057.6413684, "EXTRA_S321": 14, "EXTRA_F641": 84.635513, "Row": 170 }, "geometry": { "type": "Point", "coordinates": [ -0.434875106001017, 51.060852613022973 ] } },
{ "type": "Feature", "id": 337, "properties": { "LAYER": "Overhead Structure", "CLASS": 19, "INTENSITY": 2, "RETURN_CNT": 2, "RETURN_NUM": 2, "GPS_TIME": 1743504057.6413684, "EXTRA_S321": 14, "EXTRA_F641": 84.635513, "Row": 169 }, "geometry": { "type": "Point", "coordinates": [ -0.434835728155339, 51.06208854256495 ] } },
{ "type": "Feature", "id": 338, "properties": { "LAYER": "Overhead Structure", "CLASS": 19, "INTENSITY": 2, "RETURN_CNT": 2, "RETURN_NUM": 2, "GPS_TIME": 1743504057.6413684, "EXTRA_S321": 14, "EXTRA_F641": 84.635513, "Row": 168 }, "geometry": { "type": "Point", "coordinates": [ -0.434866914024976, 51.06209010316838 ] } },
{ "type": "Feature", "id": 339, "properties": { "LAYER": "Overhead Structure", "CLASS": 19, "INTENSITY": 2, "RETURN_CNT": 2, "RETURN_NUM": 2, "GPS_TIME": 1743504057.6413684, "EXTRA_S321": 14, "EXTRA_F641": 84.635513, "Row": 171 }, "geometry": { "type": "Point", "coordinates": [ -0.434842838847457, 51.060888004682013 ] } },
{ "type": "Feature", "id": 340, "properties": { "LAYER": "Overhead Structure", "CLASS": 19, "INTENSITY": 2, "RETURN_CNT": 2, "RETURN_NUM": 2, "GPS_TIME": 1743504057.6413684, "EXTRA_S321": 14, "EXTRA_F641": 84.635513, "Row": 171 }, "geometry": { "type": "Point", "coordinates": [ -0.434773102614143, 51.062082776381793 ] } },
{ "type": "Feature", "id": 341, "properties": { "LAYER": "Overhead Structure", "CLASS": 19, "INTENSITY": 2, "RETURN_CNT": 2, "RETURN_NUM": 2, "GPS_TIME": 1743504057.6413684, "EXTRA_S321": 14, "EXTRA_F641": 84.635513, "Row": 170 }, "geometry": { "type": "Point", "coordinates": [ -0.434803606769599, 51.062089749991365 ] } },
{ "type": "Feature", "id": 342, "properties": { "LAYER": "Overhead Structure", "CLASS": 19, "INTENSITY": 2, "RETURN_CNT": 2, "RETURN_NUM": 2, "GPS_TIME": 1743504057.6413684, "EXTRA_S321": 14, "EXTRA_F641": 84.635513, "Row": 172 }, "geometry": { "type": "Point", "coordinates": [ -0.434809300358141, 51.060922293195958 ] } },
{ "type": "Feature", "id": 343, "properties": { "LAYER": "Overhead Structure", "CLASS": 19, "INTENSITY": 2, "RETURN_CNT": 2, "RETURN_NUM": 2, "GPS_TIME": 1743504057.6413684, "EXTRA_S321": 14, "EXTRA_F641": 84.635513, "Row": 173 }, "geometry": { "type": "Point", "coordinates": [ -0.434775202767758, 51.060959114489307 ] } },
{ "type": "Feature", "id": 344, "properties": { "LAYER": "Overhead Structure", "CLASS": 19, "INTENSITY": 2, "RETURN_CNT": 2, "RETURN_NUM": 2, "GPS_TIME": 1743504057.6413684, "EXTRA_S321": 14, "EXTRA_F641": 84.635513, "Row": 174 }, "geometry": { "type": "Point", "coordinates": [ -0.434742257641383, 51.060999104760057 ] } },
{ "type": "Feature", "id": 345, "properties": { "LAYER": "Overhead Structure", "CLASS": 19, "INTENSITY": 2, "RETURN_CNT": 2, "RETURN_NUM": 2, "GPS_TIME": 1743504057.6413684, "EXTRA_S321": 14, "EXTRA_F641": 84.635513, "Row": 173 }, "geometry": { "type": "Point", "coordinates": [ -0.434712117542612, 51.062069783069958 ] } },
{ "type": "Feature", "id": 346, "properties": { "LAYER": "Overhead Structure", "CLASS": 19, "INTENSITY": 2, "RETURN_CNT": 2, "RETURN_NUM": 2, "GPS_TIME": 1743504057.6413684, "EXTRA_S321": 14, "EXTRA_F641": 84.635513, "Row": 172 }, "geometry": { "type": "Point", "coordinates": [ -0.43474234562873, 51.062076612314996 ] } },
{ "type": "Feature", "id": 347, "properties": { "LAYER": "Overhead Structure", "CLASS": 19, "INTENSITY": 2, "RETURN_CNT": 2, "RETURN_NUM": 2, "GPS_TIME": 1743504057.6413684, "EXTRA_S321": 14, "EXTRA_F641": 84.635513, "Row": 175 }, "geometry": { "type": "Point", "coordinates": [ -0.434708356347906, 51.061038976819397 ] } },
{ "type": "Feature", "id": 348, "properties": { "LAYER": "Overhead Structure", "CLASS": 19, "INTENSITY": 2, "RETURN_CNT": 2, "RETURN_NUM": 2, "GPS_TIME": 1743504057.6413684, "EXTRA_S321": 14, "EXTRA_F641": 84.635513, "Row": 176 }, "geometry": { "type": "Point", "coordinates": [ -0.434673520165509, 51.061082777463128 ] } },
{ "type": "Feature", "id": 349, "properties": { "LAYER": "Overhead Structure", "CLASS": 19, "INTENSITY": 2, "RETURN_CNT": 2, "RETURN_NUM": 2, "GPS_TIME": 1743504057.6413684, "EXTRA_S321": 14, "EXTRA_F641": 84.635513, "Row": 176 }, "geometry": { "type": "Point", "coordinates": [ -0.434618042985871, 51.0620495920585 ] } },
{ "type": "Feature", "id": 350, "properties": { "LAYER": "Overhead Structure", "CLASS": 19, "INTENSITY": 2, "RETURN_CNT": 2, "RETURN_NUM": 2, "GPS_TIME": 1743504057.6413684, "EXTRA_S321": 14, "EXTRA_F641": 84.635513, "Row": 175 }, "geometry": { "type": "Point", "coordinates": [ -0.434648771379228, 51.062056080205572 ] } },
{ "type": "Feature", "id": 351, "properties": { "LAYER": "Overhead Structure", "CLASS": 19, "INTENSITY": 2, "RETURN_CNT": 2, "RETURN_NUM": 2, "GPS_TIME": 1743504057.6413684, "EXTRA_S321": 14, "EXTRA_F641": 84.635513, "Row": 174 }, "geometry": { "type": "Point", "coordinates": [ -0.434681126681795, 51.062062442569029 ] } },
{ "type": "Feature", "id": 352, "properties": { "LAYER": "Overhead Structure", "CLASS": 19, "INTENSITY": 2, "RETURN_CNT": 2, "RETURN_NUM": 2, "GPS_TIME": 1743504057.6413684, "EXTRA_S321": 14, "EXTRA_F641": 84.635513, "Row": 177 }, "geometry": { "type": "Point", "coordinates": [ -0.434639477337717, 51.061127235240811 ] } },
{ "type": "Feature", "id": 353, "properties": { "LAYER": "Overhead Structure", "CLASS": 19, "INTENSITY": 2, "RETURN_CNT": 2, "RETURN_NUM": 2, "GPS_TIME": 1743504057.6413684, "EXTRA_S321": 14, "EXTRA_F641": 84.635513, "Row": 178 }, "geometry": { "type": "Point", "coordinates": [ -0.434606087121048, 51.061170733896759 ] } },
{ "type": "Feature", "id": 354, "properties": { "LAYER": "Overhead Structure", "CLASS": 19, "INTENSITY": 2, "RETURN_CNT": 2, "RETURN_NUM": 2, "GPS_TIME": 1743504057.6413684, "EXTRA_S321": 14, "EXTRA_F641": 84.635513, "Row": 179 }, "geometry": { "type": "Point", "coordinates": [ -0.434571366318775, 51.061213331897797 ] } },
{ "type": "Feature", "id": 355, "properties": { "LAYER": "Overhead Structure", "CLASS": 19, "INTENSITY": 2, "RETURN_CNT": 2, "RETURN_NUM": 2, "GPS_TIME": 1743504057.6413684, "EXTRA_S321": 14, "EXTRA_F641": 84.635513, "Row": 179 }, "geometry": { "type": "Point", "coordinates": [ -0.434530352481691, 51.061962689131789 ] } },
{ "type": "Feature", "id": 356, "properties": { "LAYER": "Overhead Structure", "CLASS": 19, "INTENSITY": 2, "RETURN_CNT": 2, "RETURN_NUM": 2, "GPS_TIME": 1743504057.6413684, "EXTRA_S321": 14, "EXTRA_F641": 84.635513, "Row": 178 }, "geometry": { "type": "Point", "coordinates": [ -0.434558681641635, 51.061992499935215 ] } },
{ "type": "Feature", "id": 357, "properties": { "LAYER": "Overhead Structure", "CLASS": 19, "INTENSITY": 2, "RETURN_CNT": 2, "RETURN_NUM": 2, "GPS_TIME": 1743504057.6413684, "EXTRA_S321": 14, "EXTRA_F641": 84.635513, "Row": 177 }, "geometry": { "type": "Point", "coordinates": [ -0.434588061278556, 51.062020486664778 ] } },
{ "type": "Feature", "id": 358, "properties": { "LAYER": "Overhead Structure", "CLASS": 19, "INTENSITY": 2, "RETURN_CNT": 2, "RETURN_NUM": 2, "GPS_TIME": 1743504057.6413684, "EXTRA_S321": 14, "EXTRA_F641": 84.635513, "Row": 180 }, "geometry": { "type": "Point", "coordinates": [ -0.434538869677401, 51.061254790371791 ] } },
{ "type": "Feature", "id": 362, "properties": { "LAYER": "Overhead Structure", "CLASS": 19, "INTENSITY": 2, "RETURN_CNT": 2, "RETURN_NUM": 2, "GPS_TIME": 1743504057.6413684, "EXTRA_S321": 14, "EXTRA_F641": 84.635513, "Row": 181 }, "geometry": { "type": "Point", "coordinates": [ -0.434502514784905, 51.061323474251004 ] } },
{ "type": "Feature", "id": 363, "properties": { "LAYER": "Overhead Structure", "CLASS": 19, "INTENSITY": 2, "RETURN_CNT": 2, "RETURN_NUM": 2, "GPS_TIME": 1743504057.6413684, "EXTRA_S321": 14, "EXTRA_F641": 84.635513, "Row": 182 }, "geometry": { "type": "Point", "coordinates": [ -0.434466234740051, 51.061392251115095 ] } },
{ "type": "Feature", "id": 364, "properties": { "LAYER": "Overhead Structure", "CLASS": 19, "INTENSITY": 2, "RETURN_CNT": 2, "RETURN_NUM": 2, "GPS_TIME": 1743504057.6413684, "EXTRA_S321": 14, "EXTRA_F641": 84.635513, "Row": 183 }, "geometry": { "type": "Point", "coordinates": [ -0.434432204341164, 51.061456244895801 ] } },
{ "type": "Feature", "id": 365, "properties": { "LAYER": "Overhead Structure", "CLASS": 19, "INTENSITY": 2, "RETURN_CNT": 2, "RETURN_NUM": 2, "GPS_TIME": 1743504057.6413684, "EXTRA_S321": 14, "EXTRA_F641": 84.635513, "Row": 184 }, "geometry": { "type": "Point", "coordinates": [ -0.434412889251558, 51.061787421714527 ] } },
{ "type": "Feature", "id": 366, "properties": { "LAYER": "Overhead Structure", "CLASS": 19, "INTENSITY": 2, "RETURN_CNT": 2, "RETURN_NUM": 2, "GPS_TIME": 1743504057.6413684, "EXTRA_S321": 14, "EXTRA_F641": 84.635513, "Row": 182 }, "geometry": { "type": "Point", "coordinates": [ -0.434441771399468, 51.061835921270408 ] } },
{ "type": "Feature", "id": 367, "properties": { "LAYER": "Overhead Structure", "CLASS": 19, "INTENSITY": 2, "RETURN_CNT": 2, "RETURN_NUM": 2, "GPS_TIME": 1743504057.6413684, "EXTRA_S321": 14, "EXTRA_F641": 84.635513, "Row": 181 }, "geometry": { "type": "Point", "coordinates": [ -0.434471066496251, 51.061883519809953 ] } },
{ "type": "Feature", "id": 368, "properties": { "LAYER": "Overhead Structure", "CLASS": 19, "INTENSITY": 2, "RETURN_CNT": 2, "RETURN_NUM": 2, "GPS_TIME": 1743504057.6413684, "EXTRA_S321": 14, "EXTRA_F641": 84.635513, "Row": 180 }, "geometry": { "type": "Point", "coordinates": [ -0.434499956020038, 51.061933153169882 ] } }
]
}
