{
  "type": "FeatureCollection",
  "features": [
    {
      "type": "Feature",
      "geometry": {
        "type": "Point",
        "coordinates": [
          -0.5243131796840798,
          53.26812855182554
        ]
      },
      "properties": {
        "confidence": 0.9999133348464966,
        "row_id": 412,
        "image": "DJI_20240802143002_0043_W.JPG"
      }
    },
    {
      "type": "Feature",
      "geometry": {
        "type": "Point",
        "coordinates": [
          -0.5245192796573331,
          53.26810953194886
        ]
      },
      "properties": {
        "confidence": 0.9998993873596191,
        "row_id": 289,
        "image": "DJI_20240802143031_0057_W.JPG"
      }
    },
    {
      "type": "Feature",
      "geometry": {
        "type": "Point",
        "coordinates": [
          -0.5245059660235946,
          53.26806724588947
        ]
      },
      "properties": {
        "confidence": 0.9998770952224731,
        "row_id": 12,
        "image": "DJI_20240802143246_0120_W.JPG"
      }
    },
    {
      "type": "Feature",
      "geometry": {
        "type": "Point",
        "coordinates": [
          -0.5243949018872683,
          53.268077502617395
        ]
      },
      "properties": {
        "confidence": 0.9998599290847778,
        "row_id": 403,
        "image": "DJI_20240802143255_0124_W.JPG"
      }
    },
    {
      "type": "Feature",
      "geometry": {
        "type": "Point",
        "coordinates": [
          -0.5243508127240991,
          53.268129073299846
        ]
      },
      "properties": {
        "confidence": 0.9997344613075256,
        "row_id": 561,
        "image": "DJI_20240802143104_0072_W.JPG"
      }
    },
    {
      "type": "Feature",
      "geometry": {
        "type": "Point",
        "coordinates": [
          -0.5243289433506739,
          53.26807993692283
        ]
      },
      "properties": {
        "confidence": 0.9997115731239319,
        "row_id": 604,
        "image": "DJI_20240802143205_0101_W.JPG"
      }
    },
    {
      "type": "Feature",
      "geometry": {
        "type": "Point",
        "coordinates": [
          -0.5245668098885421,
          53.268164922941416
        ]
      },
      "properties": {
        "confidence": 0.9997065663337708,
        "row_id": 34,
        "image": "DJI_20240802142931_0029_W.JPG"
      }
    },
    {
      "type": "Feature",
      "geometry": {
        "type": "Point",
        "coordinates": [
          -0.5245411382448654,
          53.26816427318286
        ]
      },
      "properties": {
        "confidence": 0.9996706247329712,
        "row_id": 491,
        "image": "DJI_20240802143014_0049_W.JPG"
      }
    },
    {
      "type": "Feature",
      "geometry": {
        "type": "Point",
        "coordinates": [
          -0.5243474341368047,
          53.268186158975105
        ]
      },
      "properties": {
        "confidence": 0.9996460676193237,
        "row_id": 202,
        "image": "DJI_20240802142955_0040_W.JPG"
      }
    },
    {
      "type": "Feature",
      "geometry": {
        "type": "Point",
        "coordinates": [
          -0.5244917873581482,
          53.26811665825413
        ]
      },
      "properties": {
        "confidence": 0.9996230602264404,
        "row_id": 653,
        "image": "DJI_20240802143115_0077_W.JPG"
      }
    },
    {
      "type": "Feature",
      "geometry": {
        "type": "Point",
        "coordinates": [
          -0.5244214286509618,
          53.26817943914214
        ]
      },
      "properties": {
        "confidence": 0.9995943903923035,
        "row_id": 536,
        "image": "DJI_20240802142951_0038_W.JPG"
      }
    },
    {
      "type": "Feature",
      "geometry": {
        "type": "Point",
        "coordinates": [
          -0.5243908756784667,
          53.268177558970564
        ]
      },
      "properties": {
        "confidence": 0.9995837807655334,
        "row_id": 546,
        "image": "DJI_20240802143006_0045_W.JPG"
      }
    },
    {
      "type": "Feature",
      "geometry": {
        "type": "Point",
        "coordinates": [
          -0.5243809645733905,
          53.26812651072111
        ]
      },
      "properties": {
        "confidence": 0.9995651841163635,
        "row_id": 435,
        "image": "DJI_20240802143207_0102_W.JPG"
      }
    },
    {
      "type": "Feature",
      "geometry": {
        "type": "Point",
        "coordinates": [
          -0.524284118715548,
          53.26809325063628
        ]
      },
      "properties": {
        "confidence": 0.9995378255844116,
        "row_id": 299,
        "image": "DJI_20240802142946_0036_W.JPG"
      }
    },
    {
      "type": "Feature",
      "geometry": {
        "type": "Point",
        "coordinates": [
          -0.5244481474371468,
          53.26812453548161
        ]
      },
      "properties": {
        "confidence": 0.999494194984436,
        "row_id": 688,
        "image": "DJI_20240802143051_0066_W.JPG"
      }
    },
    {
      "type": "Feature",
      "geometry": {
        "type": "Point",
        "coordinates": [
          -0.5244416210192043,
          53.268069614377126
        ]
      },
      "properties": {
        "confidence": 0.9994848966598511,
        "row_id": 802,
        "image": "DJI_20240802143310_0131_W.JPG"
      }
    },
    {
      "type": "Feature",
      "geometry": {
        "type": "Point",
        "coordinates": [
          -0.5244339628190223,
          53.26801773026822
        ]
      },
      "properties": {
        "confidence": 0.999468982219696,
        "row_id": 268,
        "image": "DJI_20240802143126_0082_W.JPG"
      }
    },
    {
      "type": "Feature",
      "geometry": {
        "type": "Point",
        "coordinates": [
          -0.5244700863754466,
          53.268015045482045
        ]
      },
      "properties": {
        "confidence": 0.9994667172431946,
        "row_id": 11,
        "image": "DJI_20240802143128_0083_W.JPG"
      }
    },
    {
      "type": "Feature",
      "geometry": {
        "type": "Point",
        "coordinates": [
          -0.5243662419032975,
          53.26807436025102
        ]
      },
      "properties": {
        "confidence": 0.9992857575416565,
        "row_id": 608,
        "image": "DJI_20240802143119_0079_W.JPG"
      }
    },
    {
      "type": "Feature",
      "geometry": {
        "type": "Point",
        "coordinates": [
          -0.5243576790134596,
          53.268023933423
        ]
      },
      "properties": {
        "confidence": 0.9992471933364868,
        "row_id": 611,
        "image": "DJI_20240802143218_0107_W.JPG"
      }
    },
    {
      "type": "Feature",
      "geometry": {
        "type": "Point",
        "coordinates": [
          -0.5242593186942358,
          53.26808497282935
        ]
      },
      "properties": {
        "confidence": 0.999091386795044,
        "row_id": 410,
        "image": "DJI_20240802143306_0129_W.JPG"
      }
    },
    {
      "type": "Feature",
      "geometry": {
        "type": "Point",
        "coordinates": [
          -0.524263866211256,
          53.268133403651696
        ]
      },
      "properties": {
        "confidence": 0.9990231990814209,
        "row_id": 555,
        "image": "DJI_20240802143008_0046_W.JPG"
      }
    },
    {
      "type": "Feature",
      "geometry": {
        "type": "Point",
        "coordinates": [
          -0.5245096256746622,
          53.26801179441555
        ]
      },
      "properties": {
        "confidence": 0.998782217502594,
        "row_id": 572,
        "image": "DJI_20240802143130_0084_W.JPG"
      }
    },
    {
      "type": "Feature",
      "geometry": {
        "type": "Point",
        "coordinates": [
          -0.5244087829012524,
          53.268129077021065
        ]
      },
      "properties": {
        "confidence": 0.998749852180481,
        "row_id": 671,
        "image": "DJI_20240802143053_0067_W.JPG"
      }
    },
    {
      "type": "Feature",
      "geometry": {
        "type": "Point",
        "coordinates": [
          -0.5245998774114764,
          53.268106749488645
        ]
      },
      "properties": {
        "confidence": 0.9980971217155457,
        "row_id": 835,
        "image": "DJI_20240802143021_0052_W.JPG"
      }
    },
    {
      "type": "Feature",
      "geometry": {
        "type": "Point",
        "coordinates": [
          -0.5244772318902702,
          53.26806584611653
        ]
      },
      "properties": {
        "confidence": 0.9979975819587708,
        "row_id": 587,
        "image": "DJI_20240802143225_0110_W.JPG"
      }
    },
    {
      "type": "Feature",
      "geometry": {
        "type": "Point",
        "coordinates": [
          -0.5242752256296789,
          53.26815506781027
        ]
      },
      "properties": {
        "confidence": 0.997920572757721,
        "row_id": 398,
        "image": "DJI_20240802143108_0074_W.JPG"
      }
    },
    {
      "type": "Feature",
      "geometry": {
        "type": "Point",
        "coordinates": [
          -0.5245018697733651,
          53.26816593095533
        ]
      },
      "properties": {
        "confidence": 0.9976730942726135,
        "row_id": 309,
        "image": "DJI_20240802143012_0048_W.JPG"
      }
    },
    {
      "type": "Feature",
      "geometry": {
        "type": "Point",
        "coordinates": [
          -0.524277106260814,
          53.26818554915395
        ]
      },
      "properties": {
        "confidence": 0.9971283078193665,
        "row_id": 494,
        "image": "DJI_20240802143008_0046_W.JPG"
      }
    },
    {
      "type": "Feature",
      "geometry": {
        "type": "Point",
        "coordinates": [
          -0.5242816505355868,
          53.268030423547316
        ]
      },
      "properties": {
        "confidence": 0.9971057772636414,
        "row_id": 790,
        "image": "DJI_20240802143214_0105_W.JPG"
      }
    },
    {
      "type": "Feature",
      "geometry": {
        "type": "Point",
        "coordinates": [
          -0.524619678676121,
          53.26815942431664
        ]
      },
      "properties": {
        "confidence": 0.9967767596244812,
        "row_id": 832,
        "image": "DJI_20240802142921_0024_W.JPG"
      }
    },
    {
      "type": "Feature",
      "geometry": {
        "type": "Point",
        "coordinates": [
          -0.5245601440743352,
          53.26810861064634
        ]
      },
      "properties": {
        "confidence": 0.9967560172080994,
        "row_id": 734,
        "image": "DJI_20240802142929_0028_W.JPG"
      }
    },
    {
      "type": "Feature",
      "geometry": {
        "type": "Point",
        "coordinates": [
          -0.5243906042966289,
          53.26802112694989
        ]
      },
      "properties": {
        "confidence": 0.9962314963340759,
        "row_id": 261,
        "image": "DJI_20240802143220_0108_W.JPG"
      }
    },
    {
      "type": "Feature",
      "geometry": {
        "type": "Point",
        "coordinates": [
          -0.5243183074186318,
          53.268183224051725
        ]
      },
      "properties": {
        "confidence": 0.9930592775344849,
        "row_id": 250,
        "image": "DJI_20240802142910_0019_W.JPG"
      }
    },
    {
      "type": "Feature",
      "geometry": {
        "type": "Point",
        "coordinates": [
          -0.5244581494449786,
          53.268176123400096
        ]
      },
      "properties": {
        "confidence": 0.9920874238014221,
        "row_id": 769,
        "image": "DJI_20240802143042_0062_W.JPG"
      }
    },
    {
      "type": "Feature",
      "geometry": {
        "type": "Point",
        "coordinates": [
          -0.5245662585387516,
          53.26801278677931
        ]
      },
      "properties": {
        "confidence": 0.990260660648346,
        "row_id": 8,
        "image": "DJI_20240802143240_0117_W.JPG"
      }
    },
    {
      "type": "Feature",
      "geometry": {
        "type": "Point",
        "coordinates": [
          -0.5247222154679312,
          53.268113431903004
        ]
      },
      "properties": {
        "confidence": 0.9901564121246338,
        "row_id": null,
        "image": "DJI_20240802142931_0029_W.JPG"
      }
    },
    {
      "type": "Feature",
      "geometry": {
        "type": "Point",
        "coordinates": [
          -0.5242412115200765,
          53.26803365168302
        ]
      },
      "properties": {
        "confidence": 0.9862130880355835,
        "row_id": 232,
        "image": "DJI_20240802143212_0104_W.JPG"
      }
    },
    {
      "type": "Feature",
      "geometry": {
        "type": "Point",
        "coordinates": [
          -0.5245353008204834,
          53.268010649156096
        ]
      },
      "properties": {
        "confidence": 0.9833604097366333,
        "row_id": 577,
        "image": "DJI_20240802143031_0057_W.JPG"
      }
    },
    {
      "type": "Feature",
      "geometry": {
        "type": "Point",
        "coordinates": [
          -0.5243088201423042,
          53.268035563792544
        ]
      },
      "properties": {
        "confidence": 0.9752521514892578,
        "row_id": 593,
        "image": "DJI_20240802143249_0121_W.JPG"
      }
    },
    {
      "type": "Feature",
      "geometry": {
        "type": "Point",
        "coordinates": [
          -0.5244067354529824,
          53.26809102623349
        ]
      },
      "properties": {
        "confidence": 0.9745686054229736,
        "row_id": 755,
        "image": "DJI_20240802143220_0108_W.JPG"
      }
    },
    {
      "type": "Feature",
      "geometry": {
        "type": "Point",
        "coordinates": [
          -0.5242965750547115,
          53.26811238370883
        ]
      },
      "properties": {
        "confidence": 0.9565045237541199,
        "row_id": 460,
        "image": "DJI_20240802143012_0048_W.JPG"
      }
    },
    {
      "type": "Feature",
      "geometry": {
        "type": "Point",
        "coordinates": [
          -0.5245490801464535,
          53.26804734889131
        ]
      },
      "properties": {
        "confidence": 0.9438485503196716,
        "row_id": 574,
        "image": "DJI_20240802143028_0055_W.JPG"
      }
    },
    {
      "type": "Feature",
      "geometry": {
        "type": "Point",
        "coordinates": [
          -0.524427898985192,
          53.26810631348696
        ]
      },
      "properties": {
        "confidence": 0.9438163042068481,
        "row_id": 291,
        "image": "DJI_20240802142937_0032_W.JPG"
      }
    },
    {
      "type": "Feature",
      "geometry": {
        "type": "Point",
        "coordinates": [
          -0.5244291782140705,
          53.268140501343645
        ]
      },
      "properties": {
        "confidence": 0.9407911896705627,
        "row_id": 393,
        "image": "DJI_20240802143010_0047_W.JPG"
      }
    },
    {
      "type": "Feature",
      "geometry": {
        "type": "Point",
        "coordinates": [
          -0.5245572274979253,
          53.268129209723085
        ]
      },
      "properties": {
        "confidence": 0.9364568591117859,
        "row_id": 455,
        "image": "DJI_20240802143035_0059_W.JPG"
      }
    },
    {
      "type": "Feature",
      "geometry": {
        "type": "Point",
        "coordinates": [
          -0.5242943569810715,
          53.26813929245908
        ]
      },
      "properties": {
        "confidence": 0.926580011844635,
        "row_id": 302,
        "image": "DJI_20240802143057_0069_W.JPG"
      }
    },
    {
      "type": "Feature",
      "geometry": {
        "type": "Point",
        "coordinates": [
          -0.5245773883675903,
          53.26806061103846
        ]
      },
      "properties": {
        "confidence": 0.9240074157714844,
        "row_id": 836,
        "image": "DJI_20240802143242_0118_W.JPG"
      }
    },
    {
      "type": "Feature",
      "geometry": {
        "type": "Point",
        "coordinates": [
          -0.5241837432326161,
          53.2682215670244
        ]
      },
      "properties": {
        "confidence": 0.9093344211578369,
        "row_id": null,
        "image": "DJI_20240802142957_0041_W.JPG"
      }
    },
    {
      "type": "Feature",
      "geometry": {
        "type": "Point",
        "coordinates": [
          -0.5244717887155901,
          53.268045369606234
        ]
      },
      "properties": {
        "confidence": 0.8984418511390686,
        "row_id": 676,
        "image": "DJI_20240802143249_0121_W.JPG"
      }
    },
    {
      "type": "Feature",
      "geometry": {
        "type": "Point",
        "coordinates": [
          -0.5243418799649645,
          53.26804040708022
        ]
      },
      "properties": {
        "confidence": 0.8966084122657776,
        "row_id": 721,
        "image": "DJI_20240802143053_0067_W.JPG"
      }
    },
    {
      "type": "Feature",
      "geometry": {
        "type": "Point",
        "coordinates": [
          -0.5244937803195621,
          53.26814993332418
        ]
      },
      "properties": {
        "confidence": 0.8951420783996582,
        "row_id": 311,
        "image": "DJI_20240802143023_0053_W.JPG"
      }
    },
    {
      "type": "Feature",
      "geometry": {
        "type": "Point",
        "coordinates": [
          -0.5245885786422168,
          53.26807493204432
        ]
      },
      "properties": {
        "confidence": 0.886583149433136,
        "row_id": 215,
        "image": "DJI_20240802142937_0032_W.JPG"
      }
    },
    {
      "type": "Feature",
      "geometry": {
        "type": "Point",
        "coordinates": [
          -0.5243073649611347,
          53.26819860626315
        ]
      },
      "properties": {
        "confidence": 0.8856633305549622,
        "row_id": 784,
        "image": "DJI_20240802143053_0067_W.JPG"
      }
    },
    {
      "type": "Feature",
      "geometry": {
        "type": "Point",
        "coordinates": [
          -0.5244465451789889,
          53.268152901445234
        ]
      },
      "properties": {
        "confidence": 0.8668810725212097,
        "row_id": 821,
        "image": "DJI_20240802142937_0032_W.JPG"
      }
    },
    {
      "type": "Feature",
      "geometry": {
        "type": "Point",
        "coordinates": [
          -0.5244237274918474,
          53.268047862011166
        ]
      },
      "properties": {
        "confidence": 0.8282243013381958,
        "row_id": 332,
        "image": "DJI_20240802143040_0061_W.JPG"
      }
    },
    {
      "type": "Feature",
      "geometry": {
        "type": "Point",
        "coordinates": [
          -0.5243372001752065,
          53.268107594936865
        ]
      },
      "properties": {
        "confidence": 0.8177307844161987,
        "row_id": 464,
        "image": "DJI_20240802143200_0098_W.JPG"
      }
    },
    {
      "type": "Feature",
      "geometry": {
        "type": "Point",
        "coordinates": [
          -0.5247235710555305,
          53.26808689537324
        ]
      },
      "properties": {
        "confidence": 0.7255593538284302,
        "row_id": null,
        "image": "DJI_20240802143030_0056_W.JPG"
      }
    }
  ]
}