{
    "type": "FeatureCollection",
    "features": [
        {
            "type": "Feature",
            "properties": {
                "Row": 1
            },
            "geometry": {
                "type": "Point",
                "coordinates": [
                    -0.978448,
                    51.597274
                ]
            }
        },
        {
            "type": "Feature",
            "properties": {
                "Row": 1
            },
            "geometry": {
                "type": "Point",
                "coordinates": [
                    -0.978615,
                    51.597196
                ]
            }
        },
        {
            "type": "Feature",
            "properties": {
                "Row": 2
            },
            "geometry": {
                "type": "Point",
                "coordinates": [
                    -0.978397,
                    51.597271
                ]
            }
        },
        {
            "type": "Feature",
            "properties": {
                "Row": 2
            },
            "geometry": {
                "type": "Point",
                "coordinates": [
                    -0.978612,
                    51.597171
                ]
            }
        },
        {
            "type": "Feature",
            "properties": {
                "Row": 3
            },
            "geometry": {
                "type": "Point",
                "coordinates": [
                    -0.978348,
                    51.597267
                ]
            }
        },
        {
            "type": "Feature",
            "properties": {
                "Row": 3
            },
            "geometry": {
                "type": "Point",
                "coordinates": [
                    -0.97861,
                    51.597145
                ]
            }
        },
        {
            "type": "Feature",
            "properties": {
                "Row": 4
            },
            "geometry": {
                "type": "Point",
                "coordinates": [
                    -0.9783,
                    51.597264
                ]
            }
        },
        {
            "type": "Feature",
            "properties": {
                "Row": 4
            },
            "geometry": {
                "type": "Point",
                "coordinates": [
                    -0.978607,
                    51.59712
                ]
            }
        },
        {
            "type": "Feature",
            "properties": {
                "Row": 5
            },
            "geometry": {
                "type": "Point",
                "coordinates": [
                    -0.97825,
                    51.59726
                ]
            }
        },
        {
            "type": "Feature",
            "properties": {
                "Row": 5
            },
            "geometry": {
                "type": "Point",
                "coordinates": [
                    -0.978606,
                    51.597093
                ]
            }
        },
        {
            "type": "Feature",
            "properties": {
                "Row": 6
            },
            "geometry": {
                "type": "Point",
                "coordinates": [
                    -0.9782,
                    51.597257
                ]
            }
        },
        {
            "type": "Feature",
            "properties": {
                "Row": 6
            },
            "geometry": {
                "type": "Point",
                "coordinates": [
                    -0.978605,
                    51.597067
                ]
            }
        },
        {
            "type": "Feature",
            "properties": {
                "Row": 7
            },
            "geometry": {
                "type": "Point",
                "coordinates": [
                    -0.97815,
                    51.597253
                ]
            }
        },
        {
            "type": "Feature",
            "properties": {
                "Row": 7
            },
            "geometry": {
                "type": "Point",
                "coordinates": [
                    -0.9786,
                    51.597042
                ]
            }
        },
        {
            "type": "Feature",
            "properties": {
                "Row": 8
            },
            "geometry": {
                "type": "Point",
                "coordinates": [
                    -0.9781,
                    51.59725
                ]
            }
        },
        {
            "type": "Feature",
            "properties": {
                "Row": 8
            },
            "geometry": {
                "type": "Point",
                "coordinates": [
                    -0.978599,
                    51.597015
                ]
            }
        },
        {
            "type": "Feature",
            "properties": {
                "Row": 9
            },
            "geometry": {
                "type": "Point",
                "coordinates": [
                    -0.978049,
                    51.597247
                ]
            }
        },
        {
            "type": "Feature",
            "properties": {
                "Row": 9
            },
            "geometry": {
                "type": "Point",
                "coordinates": [
                    -0.978598,
                    51.596988
                ]
            }
        },
        {
            "type": "Feature",
            "properties": {
                "Row": 10
            },
            "geometry": {
                "type": "Point",
                "coordinates": [
                    -0.978001,
                    51.597243
                ]
            }
        },
        {
            "type": "Feature",
            "properties": {
                "Row": 10
            },
            "geometry": {
                "type": "Point",
                "coordinates": [
                    -0.978596,
                    51.596962
                ]
            }
        },
        {
            "type": "Feature",
            "properties": {
                "Row": 11
            },
            "geometry": {
                "type": "Point",
                "coordinates": [
                    -0.977948,
                    51.59724
                ]
            }
        },
        {
            "type": "Feature",
            "properties": {
                "Row": 11
            },
            "geometry": {
                "type": "Point",
                "coordinates": [
                    -0.978594,
                    51.596936
                ]
            }
        },
        {
            "type": "Feature",
            "properties": {
                "Row": 12
            },
            "geometry": {
                "type": "Point",
                "coordinates": [
                    -0.977896,
                    51.597237
                ]
            }
        },
        {
            "type": "Feature",
            "properties": {
                "Row": 12
            },
            "geometry": {
                "type": "Point",
                "coordinates": [
                    -0.978592,
                    51.59691
                ]
            }
        },
        {
            "type": "Feature",
            "properties": {
                "Row": 13
            },
            "geometry": {
                "type": "Point",
                "coordinates": [
                    -0.977849,
                    51.597233
                ]
            }
        },
        {
            "type": "Feature",
            "properties": {
                "Row": 13
            },
            "geometry": {
                "type": "Point",
                "coordinates": [
                    -0.97859,
                    51.596884
                ]
            }
        },
        {
            "type": "Feature",
            "properties": {
                "Row": 14
            },
            "geometry": {
                "type": "Point",
                "coordinates": [
                    -0.977798,
                    51.597229
                ]
            }
        },
        {
            "type": "Feature",
            "properties": {
                "Row": 14
            },
            "geometry": {
                "type": "Point",
                "coordinates": [
                    -0.978588,
                    51.596859
                ]
            }
        },
        {
            "type": "Feature",
            "properties": {
                "Row": 15
            },
            "geometry": {
                "type": "Point",
                "coordinates": [
                    -0.977747,
                    51.597226
                ]
            }
        },
        {
            "type": "Feature",
            "properties": {
                "Row": 15
            },
            "geometry": {
                "type": "Point",
                "coordinates": [
                    -0.978584,
                    51.596833
                ]
            }
        },
        {
            "type": "Feature",
            "properties": {
                "Row": 16
            },
            "geometry": {
                "type": "Point",
                "coordinates": [
                    -0.977695,
                    51.597223
                ]
            }
        },
        {
            "type": "Feature",
            "properties": {
                "Row": 16
            },
            "geometry": {
                "type": "Point",
                "coordinates": [
                    -0.978577,
                    51.596814
                ]
            }
        },
        {
            "type": "Feature",
            "properties": {
                "Row": 17
            },
            "geometry": {
                "type": "Point",
                "coordinates": [
                    -0.977647,
                    51.597219
                ]
            }
        },
        {
            "type": "Feature",
            "properties": {
                "Row": 17
            },
            "geometry": {
                "type": "Point",
                "coordinates": [
                    -0.97858,
                    51.596782
                ]
            }
        },
        {
            "type": "Feature",
            "properties": {
                "Row": 18
            },
            "geometry": {
                "type": "Point",
                "coordinates": [
                    -0.977598,
                    51.597215
                ]
            }
        },
        {
            "type": "Feature",
            "properties": {
                "Row": 18
            },
            "geometry": {
                "type": "Point",
                "coordinates": [
                    -0.978575,
                    51.596757
                ]
            }
        },
        {
            "type": "Feature",
            "properties": {
                "Row": 19
            },
            "geometry": {
                "type": "Point",
                "coordinates": [
                    -0.977547,
                    51.597212
                ]
            }
        },
        {
            "type": "Feature",
            "properties": {
                "Row": 19
            },
            "geometry": {
                "type": "Point",
                "coordinates": [
                    -0.978571,
                    51.596732
                ]
            }
        },
        {
            "type": "Feature",
            "properties": {
                "Row": 20
            },
            "geometry": {
                "type": "Point",
                "coordinates": [
                    -0.977498,
                    51.597208
                ]
            }
        },
        {
            "type": "Feature",
            "properties": {
                "Row": 20
            },
            "geometry": {
                "type": "Point",
                "coordinates": [
                    -0.978567,
                    51.596707
                ]
            }
        },
        {
            "type": "Feature",
            "properties": {
                "Row": 21
            },
            "geometry": {
                "type": "Point",
                "coordinates": [
                    -0.977444,
                    51.597205
                ]
            }
        },
        {
            "type": "Feature",
            "properties": {
                "Row": 21
            },
            "geometry": {
                "type": "Point",
                "coordinates": [
                    -0.978565,
                    51.596681
                ]
            }
        },
        {
            "type": "Feature",
            "properties": {
                "Row": 22
            },
            "geometry": {
                "type": "Point",
                "coordinates": [
                    -0.977409,
                    51.597196
                ]
            }
        },
        {
            "type": "Feature",
            "properties": {
                "Row": 22
            },
            "geometry": {
                "type": "Point",
                "coordinates": [
                    -0.978561,
                    51.596656
                ]
            }
        },
        {
            "type": "Feature",
            "properties": {
                "Row": 23
            },
            "geometry": {
                "type": "Point",
                "coordinates": [
                    -0.977393,
                    51.597176
                ]
            }
        },
        {
            "type": "Feature",
            "properties": {
                "Row": 23
            },
            "geometry": {
                "type": "Point",
                "coordinates": [
                    -0.978558,
                    51.59663
                ]
            }
        },
        {
            "type": "Feature",
            "properties": {
                "Row": 24
            },
            "geometry": {
                "type": "Point",
                "coordinates": [
                    -0.977377,
                    51.597155
                ]
            }
        },
        {
            "type": "Feature",
            "properties": {
                "Row": 24
            },
            "geometry": {
                "type": "Point",
                "coordinates": [
                    -0.978553,
                    51.596605
                ]
            }
        },
        {
            "type": "Feature",
            "properties": {
                "Row": 25
            },
            "geometry": {
                "type": "Point",
                "coordinates": [
                    -0.977361,
                    51.597135
                ]
            }
        },
        {
            "type": "Feature",
            "properties": {
                "Row": 25
            },
            "geometry": {
                "type": "Point",
                "coordinates": [
                    -0.978549,
                    51.59658
                ]
            }
        },
        {
            "type": "Feature",
            "properties": {
                "Row": 26
            },
            "geometry": {
                "type": "Point",
                "coordinates": [
                    -0.977346,
                    51.597116
                ]
            }
        },
        {
            "type": "Feature",
            "properties": {
                "Row": 26
            },
            "geometry": {
                "type": "Point",
                "coordinates": [
                    -0.978546,
                    51.596555
                ]
            }
        },
        {
            "type": "Feature",
            "properties": {
                "Row": 27
            },
            "geometry": {
                "type": "Point",
                "coordinates": [
                    -0.977329,
                    51.597097
                ]
            }
        },
        {
            "type": "Feature",
            "properties": {
                "Row": 27
            },
            "geometry": {
                "type": "Point",
                "coordinates": [
                    -0.978542,
                    51.596529
                ]
            }
        },
        {
            "type": "Feature",
            "properties": {
                "Row": 28
            },
            "geometry": {
                "type": "Point",
                "coordinates": [
                    -0.977314,
                    51.597078
                ]
            }
        },
        {
            "type": "Feature",
            "properties": {
                "Row": 28
            },
            "geometry": {
                "type": "Point",
                "coordinates": [
                    -0.978539,
                    51.596504
                ]
            }
        },
        {
            "type": "Feature",
            "properties": {
                "Row": 29
            },
            "geometry": {
                "type": "Point",
                "coordinates": [
                    -0.977299,
                    51.597058
                ]
            }
        },
        {
            "type": "Feature",
            "properties": {
                "Row": 29
            },
            "geometry": {
                "type": "Point",
                "coordinates": [
                    -0.978536,
                    51.596478
                ]
            }
        },
        {
            "type": "Feature",
            "properties": {
                "Row": 30
            },
            "geometry": {
                "type": "Point",
                "coordinates": [
                    -0.977282,
                    51.597039
                ]
            }
        },
        {
            "type": "Feature",
            "properties": {
                "Row": 30
            },
            "geometry": {
                "type": "Point",
                "coordinates": [
                    -0.978532,
                    51.596454
                ]
            }
        },
        {
            "type": "Feature",
            "properties": {
                "Row": 31
            },
            "geometry": {
                "type": "Point",
                "coordinates": [
                    -0.977265,
                    51.597019
                ]
            }
        },
        {
            "type": "Feature",
            "properties": {
                "Row": 31
            },
            "geometry": {
                "type": "Point",
                "coordinates": [
                    -0.978527,
                    51.596428
                ]
            }
        },
        {
            "type": "Feature",
            "properties": {
                "Row": 32
            },
            "geometry": {
                "type": "Point",
                "coordinates": [
                    -0.97725,
                    51.596999
                ]
            }
        },
        {
            "type": "Feature",
            "properties": {
                "Row": 32
            },
            "geometry": {
                "type": "Point",
                "coordinates": [
                    -0.978524,
                    51.596403
                ]
            }
        },
        {
            "type": "Feature",
            "properties": {
                "Row": 33
            },
            "geometry": {
                "type": "Point",
                "coordinates": [
                    -0.977234,
                    51.59698
                ]
            }
        },
        {
            "type": "Feature",
            "properties": {
                "Row": 33
            },
            "geometry": {
                "type": "Point",
                "coordinates": [
                    -0.97852,
                    51.596378
                ]
            }
        },
        {
            "type": "Feature",
            "properties": {
                "Row": 34
            },
            "geometry": {
                "type": "Point",
                "coordinates": [
                    -0.977219,
                    51.59696
                ]
            }
        },
        {
            "type": "Feature",
            "properties": {
                "Row": 34
            },
            "geometry": {
                "type": "Point",
                "coordinates": [
                    -0.978516,
                    51.596352
                ]
            }
        },
        {
            "type": "Feature",
            "properties": {
                "Row": 35
            },
            "geometry": {
                "type": "Point",
                "coordinates": [
                    -0.977203,
                    51.59694
                ]
            }
        },
        {
            "type": "Feature",
            "properties": {
                "Row": 35
            },
            "geometry": {
                "type": "Point",
                "coordinates": [
                    -0.978509,
                    51.596328
                ]
            }
        },
        {
            "type": "Feature",
            "properties": {
                "Row": 36
            },
            "geometry": {
                "type": "Point",
                "coordinates": [
                    -0.977187,
                    51.59692
                ]
            }
        },
        {
            "type": "Feature",
            "properties": {
                "Row": 36
            },
            "geometry": {
                "type": "Point",
                "coordinates": [
                    -0.978508,
                    51.596302
                ]
            }
        },
        {
            "type": "Feature",
            "properties": {
                "Row": 37
            },
            "geometry": {
                "type": "Point",
                "coordinates": [
                    -0.977171,
                    51.596901
                ]
            }
        },
        {
            "type": "Feature",
            "properties": {
                "Row": 37
            },
            "geometry": {
                "type": "Point",
                "coordinates": [
                    -0.978504,
                    51.596277
                ]
            }
        },
        {
            "type": "Feature",
            "properties": {
                "Row": 38
            },
            "geometry": {
                "type": "Point",
                "coordinates": [
                    -0.977158,
                    51.596881
                ]
            }
        },
        {
            "type": "Feature",
            "properties": {
                "Row": 38
            },
            "geometry": {
                "type": "Point",
                "coordinates": [
                    -0.9785,
                    51.596252
                ]
            }
        },
        {
            "type": "Feature",
            "properties": {
                "Row": 39
            },
            "geometry": {
                "type": "Point",
                "coordinates": [
                    -0.977141,
                    51.596861
                ]
            }
        },
        {
            "type": "Feature",
            "properties": {
                "Row": 39
            },
            "geometry": {
                "type": "Point",
                "coordinates": [
                    -0.978496,
                    51.596226
                ]
            }
        },
        {
            "type": "Feature",
            "properties": {
                "Row": 40
            },
            "geometry": {
                "type": "Point",
                "coordinates": [
                    -0.977126,
                    51.596841
                ]
            }
        },
        {
            "type": "Feature",
            "properties": {
                "Row": 40
            },
            "geometry": {
                "type": "Point",
                "coordinates": [
                    -0.978491,
                    51.596201
                ]
            }
        },
        {
            "type": "Feature",
            "properties": {
                "Row": 41
            },
            "geometry": {
                "type": "Point",
                "coordinates": [
                    -0.977112,
                    51.596821
                ]
            }
        },
        {
            "type": "Feature",
            "properties": {
                "Row": 41
            },
            "geometry": {
                "type": "Point",
                "coordinates": [
                    -0.978489,
                    51.596175
                ]
            }
        },
        {
            "type": "Feature",
            "properties": {
                "Row": 42
            },
            "geometry": {
                "type": "Point",
                "coordinates": [
                    -0.977096,
                    51.596802
                ]
            }
        },
        {
            "type": "Feature",
            "properties": {
                "Row": 42
            },
            "geometry": {
                "type": "Point",
                "coordinates": [
                    -0.978485,
                    51.596151
                ]
            }
        },
        {
            "type": "Feature",
            "properties": {
                "Row": 43
            },
            "geometry": {
                "type": "Point",
                "coordinates": [
                    -0.977079,
                    51.596783
                ]
            }
        },
        {
            "type": "Feature",
            "properties": {
                "Row": 43
            },
            "geometry": {
                "type": "Point",
                "coordinates": [
                    -0.978458,
                    51.596136
                ]
            }
        },
        {
            "type": "Feature",
            "properties": {
                "Row": 44
            },
            "geometry": {
                "type": "Point",
                "coordinates": [
                    -0.977062,
                    51.596764
                ]
            }
        },
        {
            "type": "Feature",
            "properties": {
                "Row": 44
            },
            "geometry": {
                "type": "Point",
                "coordinates": [
                    -0.978436,
                    51.596119
                ]
            }
        },
        {
            "type": "Feature",
            "properties": {
                "Row": 45
            },
            "geometry": {
                "type": "Point",
                "coordinates": [
                    -0.977047,
                    51.596743
                ]
            }
        },
        {
            "type": "Feature",
            "properties": {
                "Row": 45
            },
            "geometry": {
                "type": "Point",
                "coordinates": [
                    -0.978416,
                    51.596102
                ]
            }
        },
        {
            "type": "Feature",
            "properties": {
                "Row": 46
            },
            "geometry": {
                "type": "Point",
                "coordinates": [
                    -0.977031,
                    51.596724
                ]
            }
        },
        {
            "type": "Feature",
            "properties": {
                "Row": 46
            },
            "geometry": {
                "type": "Point",
                "coordinates": [
                    -0.978395,
                    51.596085
                ]
            }
        },
        {
            "type": "Feature",
            "properties": {
                "Row": 47
            },
            "geometry": {
                "type": "Point",
                "coordinates": [
                    -0.977016,
                    51.596704
                ]
            }
        },
        {
            "type": "Feature",
            "properties": {
                "Row": 47
            },
            "geometry": {
                "type": "Point",
                "coordinates": [
                    -0.978374,
                    51.596068
                ]
            }
        },
        {
            "type": "Feature",
            "properties": {
                "Row": 48
            },
            "geometry": {
                "type": "Point",
                "coordinates": [
                    -0.977,
                    51.596685
                ]
            }
        },
        {
            "type": "Feature",
            "properties": {
                "Row": 48
            },
            "geometry": {
                "type": "Point",
                "coordinates": [
                    -0.978353,
                    51.59605
                ]
            }
        },
        {
            "type": "Feature",
            "properties": {
                "Row": 49
            },
            "geometry": {
                "type": "Point",
                "coordinates": [
                    -0.976986,
                    51.596664
                ]
            }
        },
        {
            "type": "Feature",
            "properties": {
                "Row": 49
            },
            "geometry": {
                "type": "Point",
                "coordinates": [
                    -0.978333,
                    51.596032
                ]
            }
        },
        {
            "type": "Feature",
            "properties": {
                "Row": 50
            },
            "geometry": {
                "type": "Point",
                "coordinates": [
                    -0.976968,
                    51.596645
                ]
            }
        },
        {
            "type": "Feature",
            "properties": {
                "Row": 50
            },
            "geometry": {
                "type": "Point",
                "coordinates": [
                    -0.978312,
                    51.596016
                ]
            }
        },
        {
            "type": "Feature",
            "properties": {
                "Row": 51
            },
            "geometry": {
                "type": "Point",
                "coordinates": [
                    -0.976953,
                    51.596625
                ]
            }
        },
        {
            "type": "Feature",
            "properties": {
                "Row": 51
            },
            "geometry": {
                "type": "Point",
                "coordinates": [
                    -0.97829,
                    51.595999
                ]
            }
        },
        {
            "type": "Feature",
            "properties": {
                "Row": 52
            },
            "geometry": {
                "type": "Point",
                "coordinates": [
                    -0.976938,
                    51.596605
                ]
            }
        },
        {
            "type": "Feature",
            "properties": {
                "Row": 52
            },
            "geometry": {
                "type": "Point",
                "coordinates": [
                    -0.978268,
                    51.595982
                ]
            }
        },
        {
            "type": "Feature",
            "properties": {
                "Row": 53
            },
            "geometry": {
                "type": "Point",
                "coordinates": [
                    -0.976923,
                    51.596586
                ]
            }
        },
        {
            "type": "Feature",
            "properties": {
                "Row": 53
            },
            "geometry": {
                "type": "Point",
                "coordinates": [
                    -0.978247,
                    51.595964
                ]
            }
        },
        {
            "type": "Feature",
            "properties": {
                "Row": 54
            },
            "geometry": {
                "type": "Point",
                "coordinates": [
                    -0.976921,
                    51.59656
                ]
            }
        },
        {
            "type": "Feature",
            "properties": {
                "Row": 54
            },
            "geometry": {
                "type": "Point",
                "coordinates": [
                    -0.978227,
                    51.595947
                ]
            }
        },
        {
            "type": "Feature",
            "properties": {
                "Row": 55
            },
            "geometry": {
                "type": "Point",
                "coordinates": [
                    -0.976918,
                    51.596533
                ]
            }
        },
        {
            "type": "Feature",
            "properties": {
                "Row": 55
            },
            "geometry": {
                "type": "Point",
                "coordinates": [
                    -0.978208,
                    51.595929
                ]
            }
        },
        {
            "type": "Feature",
            "properties": {
                "Row": 56
            },
            "geometry": {
                "type": "Point",
                "coordinates": [
                    -0.976919,
                    51.596506
                ]
            }
        },
        {
            "type": "Feature",
            "properties": {
                "Row": 56
            },
            "geometry": {
                "type": "Point",
                "coordinates": [
                    -0.978185,
                    51.595912
                ]
            }
        },
        {
            "type": "Feature",
            "properties": {
                "Row": 57
            },
            "geometry": {
                "type": "Point",
                "coordinates": [
                    -0.976917,
                    51.596481
                ]
            }
        },
        {
            "type": "Feature",
            "properties": {
                "Row": 57
            },
            "geometry": {
                "type": "Point",
                "coordinates": [
                    -0.978167,
                    51.595895
                ]
            }
        },
        {
            "type": "Feature",
            "properties": {
                "Row": 58
            },
            "geometry": {
                "type": "Point",
                "coordinates": [
                    -0.976919,
                    51.596452
                ]
            }
        },
        {
            "type": "Feature",
            "properties": {
                "Row": 58
            },
            "geometry": {
                "type": "Point",
                "coordinates": [
                    -0.978143,
                    51.595878
                ]
            }
        },
        {
            "type": "Feature",
            "properties": {
                "Row": 59
            },
            "geometry": {
                "type": "Point",
                "coordinates": [
                    -0.976917,
                    51.596427
                ]
            }
        },
        {
            "type": "Feature",
            "properties": {
                "Row": 59
            },
            "geometry": {
                "type": "Point",
                "coordinates": [
                    -0.978125,
                    51.595859
                ]
            }
        },
        {
            "type": "Feature",
            "properties": {
                "Row": 60
            },
            "geometry": {
                "type": "Point",
                "coordinates": [
                    -0.976915,
                    51.5964
                ]
            }
        },
        {
            "type": "Feature",
            "properties": {
                "Row": 60
            },
            "geometry": {
                "type": "Point",
                "coordinates": [
                    -0.978102,
                    51.595843
                ]
            }
        },
        {
            "type": "Feature",
            "properties": {
                "Row": 61
            },
            "geometry": {
                "type": "Point",
                "coordinates": [
                    -0.976913,
                    51.596374
                ]
            }
        },
        {
            "type": "Feature",
            "properties": {
                "Row": 61
            },
            "geometry": {
                "type": "Point",
                "coordinates": [
                    -0.978079,
                    51.595827
                ]
            }
        },
        {
            "type": "Feature",
            "properties": {
                "Row": 62
            },
            "geometry": {
                "type": "Point",
                "coordinates": [
                    -0.976913,
                    51.596347
                ]
            }
        },
        {
            "type": "Feature",
            "properties": {
                "Row": 62
            },
            "geometry": {
                "type": "Point",
                "coordinates": [
                    -0.978059,
                    51.59581
                ]
            }
        },
        {
            "type": "Feature",
            "properties": {
                "Row": 63
            },
            "geometry": {
                "type": "Point",
                "coordinates": [
                    -0.97687,
                    51.596314
                ]
            }
        },
        {
            "type": "Feature",
            "properties": {
                "Row": 63
            },
            "geometry": {
                "type": "Point",
                "coordinates": [
                    -0.978007,
                    51.595781
                ]
            }
        },
        {
            "type": "Feature",
            "properties": {
                "Row": 64
            },
            "geometry": {
                "type": "Point",
                "coordinates": [
                    -0.976838,
                    51.596301
                ]
            }
        },
        {
            "type": "Feature",
            "properties": {
                "Row": 64
            },
            "geometry": {
                "type": "Point",
                "coordinates": [
                    -0.977986,
                    51.595764
                ]
            }
        },
        {
            "type": "Feature",
            "properties": {
                "Row": 65
            },
            "geometry": {
                "type": "Point",
                "coordinates": [
                    -0.976806,
                    51.596289
                ]
            }
        },
        {
            "type": "Feature",
            "properties": {
                "Row": 65
            },
            "geometry": {
                "type": "Point",
                "coordinates": [
                    -0.977962,
                    51.595747
                ]
            }
        },
        {
            "type": "Feature",
            "properties": {
                "Row": 66
            },
            "geometry": {
                "type": "Point",
                "coordinates": [
                    -0.976774,
                    51.596278
                ]
            }
        },
        {
            "type": "Feature",
            "properties": {
                "Row": 66
            },
            "geometry": {
                "type": "Point",
                "coordinates": [
                    -0.977939,
                    51.595731
                ]
            }
        },
        {
            "type": "Feature",
            "properties": {
                "Row": 67
            },
            "geometry": {
                "type": "Point",
                "coordinates": [
                    -0.97674,
                    51.596266
                ]
            }
        },
        {
            "type": "Feature",
            "properties": {
                "Row": 67
            },
            "geometry": {
                "type": "Point",
                "coordinates": [
                    -0.977917,
                    51.595715
                ]
            }
        },
        {
            "type": "Feature",
            "properties": {
                "Row": 68
            },
            "geometry": {
                "type": "Point",
                "coordinates": [
                    -0.976708,
                    51.596254
                ]
            }
        },
        {
            "type": "Feature",
            "properties": {
                "Row": 68
            },
            "geometry": {
                "type": "Point",
                "coordinates": [
                    -0.977893,
                    51.595698
                ]
            }
        },
        {
            "type": "Feature",
            "properties": {
                "Row": 69
            },
            "geometry": {
                "type": "Point",
                "coordinates": [
                    -0.976675,
                    51.596242
                ]
            }
        },
        {
            "type": "Feature",
            "properties": {
                "Row": 69
            },
            "geometry": {
                "type": "Point",
                "coordinates": [
                    -0.977871,
                    51.595682
                ]
            }
        },
        {
            "type": "Feature",
            "properties": {
                "Row": 70
            },
            "geometry": {
                "type": "Point",
                "coordinates": [
                    -0.976643,
                    51.596231
                ]
            }
        },
        {
            "type": "Feature",
            "properties": {
                "Row": 70
            },
            "geometry": {
                "type": "Point",
                "coordinates": [
                    -0.977847,
                    51.595666
                ]
            }
        },
        {
            "type": "Feature",
            "properties": {
                "Row": 71
            },
            "geometry": {
                "type": "Point",
                "coordinates": [
                    -0.976612,
                    51.596218
                ]
            }
        },
        {
            "type": "Feature",
            "properties": {
                "Row": 71
            },
            "geometry": {
                "type": "Point",
                "coordinates": [
                    -0.977819,
                    51.595649
                ]
            }
        },
        {
            "type": "Feature",
            "properties": {
                "Row": 72
            },
            "geometry": {
                "type": "Point",
                "coordinates": [
                    -0.976579,
                    51.596206
                ]
            }
        },
        {
            "type": "Feature",
            "properties": {
                "Row": 72
            },
            "geometry": {
                "type": "Point",
                "coordinates": [
                    -0.977795,
                    51.595633
                ]
            }
        },
        {
            "type": "Feature",
            "properties": {
                "Row": 73
            },
            "geometry": {
                "type": "Point",
                "coordinates": [
                    -0.976549,
                    51.596194
                ]
            }
        },
        {
            "type": "Feature",
            "properties": {
                "Row": 73
            },
            "geometry": {
                "type": "Point",
                "coordinates": [
                    -0.977777,
                    51.595618
                ]
            }
        },
        {
            "type": "Feature",
            "properties": {
                "Row": 74
            },
            "geometry": {
                "type": "Point",
                "coordinates": [
                    -0.976517,
                    51.596182
                ]
            }
        },
        {
            "type": "Feature",
            "properties": {
                "Row": 74
            },
            "geometry": {
                "type": "Point",
                "coordinates": [
                    -0.977752,
                    51.595602
                ]
            }
        },
        {
            "type": "Feature",
            "properties": {
                "Row": 75
            },
            "geometry": {
                "type": "Point",
                "coordinates": [
                    -0.976487,
                    51.59617
                ]
            }
        },
        {
            "type": "Feature",
            "properties": {
                "Row": 75
            },
            "geometry": {
                "type": "Point",
                "coordinates": [
                    -0.977731,
                    51.595585
                ]
            }
        },
        {
            "type": "Feature",
            "properties": {
                "Row": 76
            },
            "geometry": {
                "type": "Point",
                "coordinates": [
                    -0.976462,
                    51.596153
                ]
            }
        },
        {
            "type": "Feature",
            "properties": {
                "Row": 76
            },
            "geometry": {
                "type": "Point",
                "coordinates": [
                    -0.977708,
                    51.595568
                ]
            }
        },
        {
            "type": "Feature",
            "properties": {
                "Row": 77
            },
            "geometry": {
                "type": "Point",
                "coordinates": [
                    -0.976443,
                    51.596135
                ]
            }
        },
        {
            "type": "Feature",
            "properties": {
                "Row": 77
            },
            "geometry": {
                "type": "Point",
                "coordinates": [
                    -0.977687,
                    51.595552
                ]
            }
        },
        {
            "type": "Feature",
            "properties": {
                "Row": 78
            },
            "geometry": {
                "type": "Point",
                "coordinates": [
                    -0.976421,
                    51.596118
                ]
            }
        },
        {
            "type": "Feature",
            "properties": {
                "Row": 78
            },
            "geometry": {
                "type": "Point",
                "coordinates": [
                    -0.977661,
                    51.595537
                ]
            }
        },
        {
            "type": "Feature",
            "properties": {
                "Row": 79
            },
            "geometry": {
                "type": "Point",
                "coordinates": [
                    -0.976401,
                    51.596101
                ]
            }
        },
        {
            "type": "Feature",
            "properties": {
                "Row": 79
            },
            "geometry": {
                "type": "Point",
                "coordinates": [
                    -0.977639,
                    51.59552
                ]
            }
        },
        {
            "type": "Feature",
            "properties": {
                "Row": 80
            },
            "geometry": {
                "type": "Point",
                "coordinates": [
                    -0.976381,
                    51.596084
                ]
            }
        },
        {
            "type": "Feature",
            "properties": {
                "Row": 80
            },
            "geometry": {
                "type": "Point",
                "coordinates": [
                    -0.977617,
                    51.595504
                ]
            }
        },
        {
            "type": "Feature",
            "properties": {
                "Row": 81
            },
            "geometry": {
                "type": "Point",
                "coordinates": [
                    -0.976362,
                    51.596066
                ]
            }
        },
        {
            "type": "Feature",
            "properties": {
                "Row": 81
            },
            "geometry": {
                "type": "Point",
                "coordinates": [
                    -0.977594,
                    51.595487
                ]
            }
        },
        {
            "type": "Feature",
            "properties": {
                "Row": 82
            },
            "geometry": {
                "type": "Point",
                "coordinates": [
                    -0.976339,
                    51.596049
                ]
            }
        },
        {
            "type": "Feature",
            "properties": {
                "Row": 82
            },
            "geometry": {
                "type": "Point",
                "coordinates": [
                    -0.977571,
                    51.595471
                ]
            }
        },
        {
            "type": "Feature",
            "properties": {
                "Row": 83
            },
            "geometry": {
                "type": "Point",
                "coordinates": [
                    -0.976317,
                    51.596031
                ]
            }
        },
        {
            "type": "Feature",
            "properties": {
                "Row": 83
            },
            "geometry": {
                "type": "Point",
                "coordinates": [
                    -0.977548,
                    51.595454
                ]
            }
        },
        {
            "type": "Feature",
            "properties": {
                "Row": 84
            },
            "geometry": {
                "type": "Point",
                "coordinates": [
                    -0.976297,
                    51.596014
                ]
            }
        },
        {
            "type": "Feature",
            "properties": {
                "Row": 84
            },
            "geometry": {
                "type": "Point",
                "coordinates": [
                    -0.977524,
                    51.595439
                ]
            }
        },
        {
            "type": "Feature",
            "properties": {
                "Row": 85
            },
            "geometry": {
                "type": "Point",
                "coordinates": [
                    -0.976276,
                    51.595998
                ]
            }
        },
        {
            "type": "Feature",
            "properties": {
                "Row": 85
            },
            "geometry": {
                "type": "Point",
                "coordinates": [
                    -0.977493,
                    51.595427
                ]
            }
        },
        {
            "type": "Feature",
            "properties": {
                "Row": 86
            },
            "geometry": {
                "type": "Point",
                "coordinates": [
                    -0.976254,
                    51.59598
                ]
            }
        },
        {
            "type": "Feature",
            "properties": {
                "Row": 86
            },
            "geometry": {
                "type": "Point",
                "coordinates": [
                    -0.977471,
                    51.595409
                ]
            }
        },
        {
            "type": "Feature",
            "properties": {
                "Row": 87
            },
            "geometry": {
                "type": "Point",
                "coordinates": [
                    -0.976234,
                    51.595963
                ]
            }
        },
        {
            "type": "Feature",
            "properties": {
                "Row": 87
            },
            "geometry": {
                "type": "Point",
                "coordinates": [
                    -0.977451,
                    51.595391
                ]
            }
        },
        {
            "type": "Feature",
            "properties": {
                "Row": 88
            },
            "geometry": {
                "type": "Point",
                "coordinates": [
                    -0.976371,
                    51.595871
                ]
            }
        },
        {
            "type": "Feature",
            "properties": {
                "Row": 88
            },
            "geometry": {
                "type": "Point",
                "coordinates": [
                    -0.977429,
                    51.595375
                ]
            }
        },
        {
            "type": "Feature",
            "properties": {
                "Row": 89
            },
            "geometry": {
                "type": "Point",
                "coordinates": [
                    -0.976352,
                    51.595854
                ]
            }
        },
        {
            "type": "Feature",
            "properties": {
                "Row": 89
            },
            "geometry": {
                "type": "Point",
                "coordinates": [
                    -0.977409,
                    51.595358
                ]
            }
        },
        {
            "type": "Feature",
            "properties": {
                "Row": 90
            },
            "geometry": {
                "type": "Point",
                "coordinates": [
                    -0.976331,
                    51.595836
                ]
            }
        },
        {
            "type": "Feature",
            "properties": {
                "Row": 90
            },
            "geometry": {
                "type": "Point",
                "coordinates": [
                    -0.977387,
                    51.595341
                ]
            }
        },
        {
            "type": "Feature",
            "properties": {
                "Row": 91
            },
            "geometry": {
                "type": "Point",
                "coordinates": [
                    -0.97631,
                    51.595819
                ]
            }
        },
        {
            "type": "Feature",
            "properties": {
                "Row": 91
            },
            "geometry": {
                "type": "Point",
                "coordinates": [
                    -0.977365,
                    51.595324
                ]
            }
        },
        {
            "type": "Feature",
            "properties": {
                "Row": 92
            },
            "geometry": {
                "type": "Point",
                "coordinates": [
                    -0.976904,
                    51.595513
                ]
            }
        },
        {
            "type": "Feature",
            "properties": {
                "Row": 92
            },
            "geometry": {
                "type": "Point",
                "coordinates": [
                    -0.977345,
                    51.595307
                ]
            }
        }
    ]
}