{
    "type": "FeatureCollection",
    "features": [
        {
            "type": "Feature",
            "geometry": {
                "type": "Point",
                "coordinates": [
                    -0.5241324259060012,
                    53.26790394850415
                ]
            },
            "properties": {
                "type": "pole",
                "pole_id": 0
            }
        },
        {
            "type": "Feature",
            "geometry": {
                "type": "Point",
                "coordinates": [
                    -0.5239492626593176,
                    53.267923971892074
                ]
            },
            "properties": {
                "type": "pole",
                "pole_id": 1
            }
        },
        {
            "type": "Feature",
            "geometry": {
                "type": "Point",
                "coordinates": [
                    -0.5243894562941407,
                    53.26848394652163
                ]
            },
            "properties": {
                "type": "pole",
                "pole_id": 2
            }
        },
        {
            "type": "Feature",
            "geometry": {
                "type": "Point",
                "coordinates": [
                    -0.5240124765118213,
                    53.267900835094196
                ]
            },
            "properties": {
                "type": "pole",
                "pole_id": 3
            }
        },
        {
            "type": "Feature",
            "geometry": {
                "type": "Point",
                "coordinates": [
                    -0.5244063601309016,
                    53.26784718940761
                ]
            },
            "properties": {
                "type": "pole",
                "pole_id": 4
            }
        },
        {
            "type": "Feature",
            "geometry": {
                "type": "Point",
                "coordinates": [
                    -0.5239946991035859,
                    53.26797533178811
                ]
            },
            "properties": {
                "type": "pole",
                "pole_id": 5
            }
        },
        {
            "type": "Feature",
            "geometry": {
                "type": "Point",
                "coordinates": [
                    -0.5241006049926279,
                    53.26827176970986
                ]
            },
            "properties": {
                "type": "pole",
                "pole_id": 6
            }
        },
        {
            "type": "Feature",
            "geometry": {
                "type": "Point",
                "coordinates": [
                    -0.5241288216355011,
                    53.268247190384585
                ]
            },
            "properties": {
                "type": "pole",
                "pole_id": 7
            }
        },
        {
            "type": "Feature",
            "geometry": {
                "type": "Point",
                "coordinates": [
                    -0.5246632454158996,
                    53.267896679341206
                ]
            },
            "properties": {
                "type": "pole",
                "pole_id": 8
            }
        },
        {
            "type": "Feature",
            "geometry": {
                "type": "Point",
                "coordinates": [
                    -0.524466438455819,
                    53.26791349374854
                ]
            },
            "properties": {
                "type": "pole",
                "pole_id": 9
            }
        },
        {
            "type": "Feature",
            "geometry": {
                "type": "Point",
                "coordinates": [
                    -0.5243568990465093,
                    53.26833838435883
                ]
            },
            "properties": {
                "type": "pole",
                "pole_id": 10
            }
        },
        {
            "type": "Feature",
            "geometry": {
                "type": "Point",
                "coordinates": [
                    -0.5248639364310571,
                    53.2679879976711
                ]
            },
            "properties": {
                "type": "pole",
                "pole_id": 11
            }
        },
        {
            "type": "Feature",
            "geometry": {
                "type": "Point",
                "coordinates": [
                    -0.5246711098292263,
                    53.26799433898411
                ]
            },
            "properties": {
                "type": "pole",
                "pole_id": 12
            }
        },
        {
            "type": "Feature",
            "geometry": {
                "type": "Point",
                "coordinates": [
                    -0.5249432864065353,
                    53.26827465847253
                ]
            },
            "properties": {
                "type": "pole",
                "pole_id": 13
            }
        },
        {
            "type": "Feature",
            "geometry": {
                "type": "Point",
                "coordinates": [
                    -0.5244588415911657,
                    53.268396343827625
                ]
            },
            "properties": {
                "type": "pole",
                "pole_id": 14
            }
        },
        {
            "type": "Feature",
            "geometry": {
                "type": "Point",
                "coordinates": [
                    -0.524148840822628,
                    53.268094776773225
                ]
            },
            "properties": {
                "type": "pole",
                "pole_id": 15
            }
        },
        {
            "type": "Feature",
            "geometry": {
                "type": "Point",
                "coordinates": [
                    -0.5248787397704876,
                    53.268339651944686
                ]
            },
            "properties": {
                "type": "pole",
                "pole_id": 16
            }
        },
        {
            "type": "Feature",
            "geometry": {
                "type": "Point",
                "coordinates": [
                    -0.5250654695991895,
                    53.26835788940798
                ]
            },
            "properties": {
                "type": "pole",
                "pole_id": 17
            }
        },
        {
            "type": "Feature",
            "geometry": {
                "type": "Point",
                "coordinates": [
                    -0.5246067997630546,
                    53.26808521648661
                ]
            },
            "properties": {
                "type": "pole",
                "pole_id": 18
            }
        },
        {
            "type": "Feature",
            "geometry": {
                "type": "Point",
                "coordinates": [
                    -0.524171919348656,
                    53.2683185179208
                ]
            },
            "properties": {
                "type": "pole",
                "pole_id": 19
            }
        },
        {
            "type": "Feature",
            "geometry": {
                "type": "Point",
                "coordinates": [
                    -0.5240526224872808,
                    53.26798710092807
                ]
            },
            "properties": {
                "type": "pole",
                "pole_id": 20
            }
        },
        {
            "type": "Feature",
            "geometry": {
                "type": "Point",
                "coordinates": [
                    -0.5248229851426666,
                    53.26815401522184
                ]
            },
            "properties": {
                "type": "pole",
                "pole_id": 21
            }
        },
        {
            "type": "Feature",
            "geometry": {
                "type": "Point",
                "coordinates": [
                    -0.5239614580915051,
                    53.2683028220869
                ]
            },
            "properties": {
                "type": "pole",
                "pole_id": 22
            }
        },
        {
            "type": "Feature",
            "geometry": {
                "type": "Point",
                "coordinates": [
                    -0.5240650219431355,
                    53.26799815136667
                ]
            },
            "properties": {
                "type": "pole",
                "pole_id": 23
            }
        },
        {
            "type": "Feature",
            "geometry": {
                "type": "Point",
                "coordinates": [
                    -0.5246589944826663,
                    53.267954235921735
                ]
            },
            "properties": {
                "type": "pole",
                "pole_id": 24
            }
        },
        {
            "type": "Feature",
            "geometry": {
                "type": "Point",
                "coordinates": [
                    -0.5244706649215469,
                    53.267967044808465
                ]
            },
            "properties": {
                "type": "pole",
                "pole_id": 25
            }
        },
        {
            "type": "Feature",
            "geometry": {
                "type": "Point",
                "coordinates": [
                    -0.523941953916421,
                    53.267828656812185
                ]
            },
            "properties": {
                "type": "pole",
                "pole_id": 26
            }
        },
        {
            "type": "Feature",
            "geometry": {
                "type": "Point",
                "coordinates": [
                    -0.5239656523854337,
                    53.26783447271238
                ]
            },
            "properties": {
                "type": "pole",
                "pole_id": 27
            }
        },
        {
            "type": "Feature",
            "geometry": {
                "type": "Point",
                "coordinates": [
                    -0.5237769601402196,
                    53.26785381053982
                ]
            },
            "properties": {
                "type": "pole",
                "pole_id": 28
            }
        },
        {
            "type": "Feature",
            "geometry": {
                "type": "Point",
                "coordinates": [
                    -0.5247463467529812,
                    53.26814316921572
                ]
            },
            "properties": {
                "type": "pole",
                "pole_id": 29
            }
        },
        {
            "type": "Feature",
            "geometry": {
                "type": "Point",
                "coordinates": [
                    -0.5247265583254603,
                    53.26832438594272
                ]
            },
            "properties": {
                "type": "pole",
                "pole_id": 30
            }
        },
        {
            "type": "Feature",
            "geometry": {
                "type": "Point",
                "coordinates": [
                    -0.5249346299208232,
                    53.26825559253092
                ]
            },
            "properties": {
                "type": "pole",
                "pole_id": 31
            }
        },
        {
            "type": "Feature",
            "geometry": {
                "type": "Point",
                "coordinates": [
                    -0.5248263193299008,
                    53.26801486029939
                ]
            },
            "properties": {
                "type": "pole",
                "pole_id": 32
            }
        },
        {
            "type": "Feature",
            "geometry": {
                "type": "Point",
                "coordinates": [
                    -0.5244806164514078,
                    53.26763478978175
                ]
            },
            "properties": {
                "type": "pole",
                "pole_id": 33
            }
        },
        {
            "type": "Feature",
            "geometry": {
                "type": "Point",
                "coordinates": [
                    -0.5239317794038467,
                    53.268023254228424
                ]
            },
            "properties": {
                "type": "pole",
                "pole_id": 34
            }
        },
        {
            "type": "Feature",
            "geometry": {
                "type": "Point",
                "coordinates": [
                    -0.5246366593039762,
                    53.268273370579436
                ]
            },
            "properties": {
                "type": "pole",
                "pole_id": 35
            }
        },
        {
            "type": "Feature",
            "geometry": {
                "type": "Point",
                "coordinates": [
                    -0.5238792070074337,
                    53.26787819547239
                ]
            },
            "properties": {
                "type": "pole",
                "pole_id": 36
            }
        },
        {
            "type": "Feature",
            "geometry": {
                "type": "Point",
                "coordinates": [
                    -0.5241641830385381,
                    53.268159728401265
                ]
            },
            "properties": {
                "type": "pole",
                "pole_id": 37
            }
        },
        {
            "type": "Feature",
            "geometry": {
                "type": "Point",
                "coordinates": [
                    -0.5242055124129601,
                    53.26834412034299
                ]
            },
            "properties": {
                "type": "pole",
                "pole_id": 38
            }
        },
        {
            "type": "Feature",
            "geometry": {
                "type": "Point",
                "coordinates": [
                    -0.5238985005336091,
                    53.26804723548025
                ]
            },
            "properties": {
                "type": "pole",
                "pole_id": 39
            }
        },
        {
            "type": "Feature",
            "geometry": {
                "type": "Point",
                "coordinates": [
                    -0.5246485502549809,
                    53.26830521313194
                ]
            },
            "properties": {
                "type": "pole",
                "pole_id": 40
            }
        },
        {
            "type": "Feature",
            "geometry": {
                "type": "Point",
                "coordinates": [
                    -0.5241046061513073,
                    53.268026831339064
                ]
            },
            "properties": {
                "type": "pole",
                "pole_id": 41
            }
        },
        {
            "type": "Feature",
            "geometry": {
                "type": "Point",
                "coordinates": [
                    -0.5245327410188168,
                    53.26770709635821
                ]
            },
            "properties": {
                "type": "pole",
                "pole_id": 42
            }
        },
        {
            "type": "Feature",
            "geometry": {
                "type": "Point",
                "coordinates": [
                    -0.5243895351221285,
                    53.26794768418907
                ]
            },
            "properties": {
                "type": "pole",
                "pole_id": 43
            }
        },
        {
            "type": "Feature",
            "geometry": {
                "type": "Point",
                "coordinates": [
                    -0.5249344723088185,
                    53.26834979481523
                ]
            },
            "properties": {
                "type": "pole",
                "pole_id": 44
            }
        },
        {
            "type": "Feature",
            "geometry": {
                "type": "Point",
                "coordinates": [
                    -0.5242900077168156,
                    53.26841138139683
                ]
            },
            "properties": {
                "type": "pole",
                "pole_id": 45
            }
        },
        {
            "type": "Feature",
            "geometry": {
                "type": "Point",
                "coordinates": [
                    -0.5248537016713989,
                    53.26838897599138
                ]
            },
            "properties": {
                "type": "pole",
                "pole_id": 46
            }
        },
        {
            "type": "Feature",
            "geometry": {
                "type": "Point",
                "coordinates": [
                    -0.5240656418795107,
                    53.267906668304775
                ]
            },
            "properties": {
                "type": "pole",
                "pole_id": 47
            }
        },
        {
            "type": "Feature",
            "geometry": {
                "type": "Point",
                "coordinates": [
                    -0.5241555583758899,
                    53.26820962572902
                ]
            },
            "properties": {
                "type": "pole",
                "pole_id": 48
            }
        },
        {
            "type": "Feature",
            "geometry": {
                "type": "Point",
                "coordinates": [
                    -0.5242651299131493,
                    53.2678838406852
                ]
            },
            "properties": {
                "type": "pole",
                "pole_id": 49
            }
        },
        {
            "type": "Feature",
            "geometry": {
                "type": "Point",
                "coordinates": [
                    -0.5241085662183759,
                    53.26814224001535
                ]
            },
            "properties": {
                "type": "pole",
                "pole_id": 50
            }
        },
        {
            "type": "Feature",
            "geometry": {
                "type": "Point",
                "coordinates": [
                    -0.5238326880453841,
                    53.2678749817142
                ]
            },
            "properties": {
                "type": "pole",
                "pole_id": 51
            }
        },
        {
            "type": "Feature",
            "geometry": {
                "type": "Point",
                "coordinates": [
                    -0.5243167651880027,
                    53.268135645477926
                ]
            },
            "properties": {
                "type": "pole",
                "pole_id": 52
            }
        },
        {
            "type": "Feature",
            "geometry": {
                "type": "Point",
                "coordinates": [
                    -0.5245395165323313,
                    53.268034282717565
                ]
            },
            "properties": {
                "type": "pole",
                "pole_id": 53
            }
        },
        {
            "type": "Feature",
            "geometry": {
                "type": "Point",
                "coordinates": [
                    -0.5245001070484847,
                    53.268047837481475
                ]
            },
            "properties": {
                "type": "pole",
                "pole_id": 54
            }
        },
        {
            "type": "Feature",
            "geometry": {
                "type": "Point",
                "coordinates": [
                    -0.5247757857148789,
                    53.26833533683589
                ]
            },
            "properties": {
                "type": "pole",
                "pole_id": 55
            }
        },
        {
            "type": "Feature",
            "geometry": {
                "type": "Point",
                "coordinates": [
                    -0.5240964692724477,
                    53.268083854982386
                ]
            },
            "properties": {
                "type": "pole",
                "pole_id": 56
            }
        },
        {
            "type": "Feature",
            "geometry": {
                "type": "Point",
                "coordinates": [
                    -0.5238215172399041,
                    53.26793197087515
                ]
            },
            "properties": {
                "type": "pole",
                "pole_id": 57
            }
        },
        {
            "type": "Feature",
            "geometry": {
                "type": "Point",
                "coordinates": [
                    -0.5240355651517978,
                    53.267921297936326
                ]
            },
            "properties": {
                "type": "pole",
                "pole_id": 58
            }
        },
        {
            "type": "Feature",
            "geometry": {
                "type": "Point",
                "coordinates": [
                    -0.5247643359980796,
                    53.26818286650984
                ]
            },
            "properties": {
                "type": "pole",
                "pole_id": 59
            }
        },
        {
            "type": "Feature",
            "geometry": {
                "type": "Point",
                "coordinates": [
                    -0.5242295174652646,
                    53.26810331531188
                ]
            },
            "properties": {
                "type": "pole",
                "pole_id": 60
            }
        },
        {
            "type": "Feature",
            "geometry": {
                "type": "Point",
                "coordinates": [
                    -0.5240232264693281,
                    53.26812306216553
                ]
            },
            "properties": {
                "type": "pole",
                "pole_id": 61
            }
        },
        {
            "type": "Feature",
            "geometry": {
                "type": "Point",
                "coordinates": [
                    -0.5241108807035374,
                    53.26830019316294
                ]
            },
            "properties": {
                "type": "pole",
                "pole_id": 62
            }
        },
        {
            "type": "Feature",
            "geometry": {
                "type": "Point",
                "coordinates": [
                    -0.5245954412189144,
                    53.26805111886091
                ]
            },
            "properties": {
                "type": "pole",
                "pole_id": 63
            }
        },
        {
            "type": "Feature",
            "geometry": {
                "type": "Point",
                "coordinates": [
                    -0.5248339005016007,
                    53.268033349935024
                ]
            },
            "properties": {
                "type": "pole",
                "pole_id": 64
            }
        },
        {
            "type": "Feature",
            "geometry": {
                "type": "Point",
                "coordinates": [
                    -0.5239501089195229,
                    53.267884299062544
                ]
            },
            "properties": {
                "type": "pole",
                "pole_id": 65
            }
        },
        {
            "type": "Feature",
            "geometry": {
                "type": "Point",
                "coordinates": [
                    -0.524558263293083,
                    53.267823771975884
                ]
            },
            "properties": {
                "type": "pole",
                "pole_id": 66
            }
        },
        {
            "type": "Feature",
            "geometry": {
                "type": "Point",
                "coordinates": [
                    -0.5242408892205002,
                    53.26816494028381
                ]
            },
            "properties": {
                "type": "pole",
                "pole_id": 67
            }
        },
        {
            "type": "Feature",
            "geometry": {
                "type": "Point",
                "coordinates": [
                    -0.5240212097907799,
                    53.26808321261769
                ]
            },
            "properties": {
                "type": "pole",
                "pole_id": 68
            }
        },
        {
            "type": "Feature",
            "geometry": {
                "type": "Point",
                "coordinates": [
                    -0.5246150917662314,
                    53.26792820689761
                ]
            },
            "properties": {
                "type": "pole",
                "pole_id": 69
            }
        },
        {
            "type": "Feature",
            "geometry": {
                "type": "Point",
                "coordinates": [
                    -0.5246544503150502,
                    53.267782324916276
                ]
            },
            "properties": {
                "type": "pole",
                "pole_id": 70
            }
        },
        {
            "type": "Feature",
            "geometry": {
                "type": "Point",
                "coordinates": [
                    -0.5246545265585212,
                    53.268416522423706
                ]
            },
            "properties": {
                "type": "pole",
                "pole_id": 71
            }
        },
        {
            "type": "Feature",
            "geometry": {
                "type": "Point",
                "coordinates": [
                    -0.5245732506408345,
                    53.26832170160238
                ]
            },
            "properties": {
                "type": "pole",
                "pole_id": 72
            }
        },
        {
            "type": "Feature",
            "geometry": {
                "type": "Point",
                "coordinates": [
                    -0.5240337624129741,
                    53.26794269040016
                ]
            },
            "properties": {
                "type": "pole",
                "pole_id": 73
            }
        },
        {
            "type": "Feature",
            "geometry": {
                "type": "Point",
                "coordinates": [
                    -0.5246238658639591,
                    53.26821182281408
                ]
            },
            "properties": {
                "type": "pole",
                "pole_id": 74
            }
        },
        {
            "type": "Feature",
            "geometry": {
                "type": "Point",
                "coordinates": [
                    -0.5241128811677651,
                    53.26795256174969
                ]
            },
            "properties": {
                "type": "pole",
                "pole_id": 75
            }
        },
        {
            "type": "Feature",
            "geometry": {
                "type": "Point",
                "coordinates": [
                    -0.5241965154452798,
                    53.26825466291825
                ]
            },
            "properties": {
                "type": "pole",
                "pole_id": 76
            }
        },
        {
            "type": "Feature",
            "geometry": {
                "type": "Point",
                "coordinates": [
                    -0.5239396418080253,
                    53.26795061070162
                ]
            },
            "properties": {
                "type": "pole",
                "pole_id": 77
            }
        },
        {
            "type": "Feature",
            "geometry": {
                "type": "Point",
                "coordinates": [
                    -0.5245766177678168,
                    53.26794958293564
                ]
            },
            "properties": {
                "type": "pole",
                "pole_id": 78
            }
        },
        {
            "type": "Feature",
            "geometry": {
                "type": "Point",
                "coordinates": [
                    -0.5243082201335791,
                    53.268471238793964
                ]
            },
            "properties": {
                "type": "pole",
                "pole_id": 79
            }
        },
        {
            "type": "Feature",
            "geometry": {
                "type": "Point",
                "coordinates": [
                    -0.5246276556921841,
                    53.268117913915326
                ]
            },
            "properties": {
                "type": "pole",
                "pole_id": 80
            }
        },
        {
            "type": "Feature",
            "geometry": {
                "type": "Point",
                "coordinates": [
                    -0.523900663900722,
                    53.26787260351738
                ]
            },
            "properties": {
                "type": "pole",
                "pole_id": 81
            }
        },
        {
            "type": "Feature",
            "geometry": {
                "type": "Point",
                "coordinates": [
                    -0.5239480045687057,
                    53.26805790519643
                ]
            },
            "properties": {
                "type": "pole",
                "pole_id": 82
            }
        },
        {
            "type": "Feature",
            "geometry": {
                "type": "Point",
                "coordinates": [
                    -0.5245418233786732,
                    53.267918217291424
                ]
            },
            "properties": {
                "type": "pole",
                "pole_id": 83
            }
        },
        {
            "type": "Feature",
            "geometry": {
                "type": "Point",
                "coordinates": [
                    -0.524784842233159,
                    53.268056882967
                ]
            },
            "properties": {
                "type": "pole",
                "pole_id": 84
            }
        },
        {
            "type": "Feature",
            "geometry": {
                "type": "Point",
                "coordinates": [
                    -0.5246705471054421,
                    53.26806038071897
                ]
            },
            "properties": {
                "type": "pole",
                "pole_id": 85
            }
        },
        {
            "type": "Feature",
            "geometry": {
                "type": "Point",
                "coordinates": [
                    -0.5240615913654184,
                    53.26809430247865
                ]
            },
            "properties": {
                "type": "pole",
                "pole_id": 86
            }
        },
        {
            "type": "Feature",
            "geometry": {
                "type": "Point",
                "coordinates": [
                    -0.5238990897158894,
                    53.26782671067264
                ]
            },
            "properties": {
                "type": "pole",
                "pole_id": 87
            }
        },
        {
            "type": "Feature",
            "geometry": {
                "type": "Point",
                "coordinates": [
                    -0.5247038140630018,
                    53.268318541306584
                ]
            },
            "properties": {
                "type": "pole",
                "pole_id": 88
            }
        },
        {
            "type": "Feature",
            "geometry": {
                "type": "Point",
                "coordinates": [
                    -0.5247964276307496,
                    53.268373175813004
                ]
            },
            "properties": {
                "type": "pole",
                "pole_id": 89
            }
        }
    ]
}