{
  "type": "FeatureCollection",
  "features": [
    {
      "type": "Feature",
      "geometry": {
        "type": "LineString",
        "coordinates": [
          [
            -0.5247419360734276,
            53.26806112687722
          ],
          [
            -0.5245728958446317,
            53.268114027121825
          ]
        ]
      },
      "properties": {
        "row_id": 11,
        "num_poles": 2
      }
    },
    {
      "type": "Feature",
      "geometry": {
        "type": "LineString",
        "coordinates": [
          [
            -0.5245424253614156,
            53.26799384371886
          ],
          [
            -0.5244560273209282,
            53.26800725647016
          ],
          [
            -0.5244995600437263,
            53.268104249828625
          ]
        ]
      },
      "properties": {
        "row_id": 21,
        "num_poles": 3
      }
    },
    {
      "type": "Feature",
      "geometry": {
        "type": "LineString",
        "coordinates": [
          [
            -0.5243658414651544,
            53.26812013073129
          ],
          [
            -0.5244787876676649,
            53.26822808614764
          ]
        ]
      },
      "properties": {
        "row_id": 34,
        "num_poles": 2
      }
    },
    {
      "type": "Feature",
      "geometry": {
        "type": "LineString",
        "coordinates": [
          [
            -0.5242765400493806,
            53.26812042617017
          ],
          [
            -0.5242646244677097,
            53.26815448822178
          ]
        ]
      },
      "properties": {
        "row_id": 45,
        "num_poles": 2
      }
    },
    {
      "type": "Feature",
      "geometry": {
        "type": "LineString",
        "coordinates": [
          [
            -0.5243430816100244,
            53.26802371398039
          ],
          [
            -0.524462182737963,
            53.268059234374775
          ],
          [
            -0.5243159909570099,
            53.26807101760627
          ],
          [
            -0.5244727477580382,
            53.268074388501
          ],
          [
            -0.5243994469414234,
            53.26811736071763
          ],
          [
            -0.5245006711323281,
            53.268121117098744
          ]
        ]
      },
      "properties": {
        "row_id": 54,
        "num_poles": 6
      }
    },
    {
      "type": "Feature",
      "geometry": {
        "type": "LineString",
        "coordinates": [
          [
            -0.5242247800374866,
            53.268082124269824
          ],
          [
            -0.5243328140946123,
            53.26812980003015
          ],
          [
            -0.5242831637603886,
            53.26817218639696
          ],
          [
            -0.5243005510931547,
            53.26818358394821
          ],
          [
            -0.5243461523789242,
            53.26819016038549
          ]
        ]
      },
      "properties": {
        "row_id": 56,
        "num_poles": 5
      }
    },
    {
      "type": "Feature",
      "geometry": {
        "type": "LineString",
        "coordinates": [
          [
            -0.5245059338622318,
            53.268059804177554
          ],
          [
            -0.5245136348335696,
            53.268074510065524
          ],
          [
            -0.5244409790099992,
            53.26811445776848
          ]
        ]
      },
      "properties": {
        "row_id": 66,
        "num_poles": 3
      }
    },
    {
      "type": "Feature",
      "geometry": {
        "type": "LineString",
        "coordinates": [
          [
            -0.5244170314612066,
            53.26812995845271
          ],
          [
            -0.5243779745089988,
            53.268188432422164
          ]
        ]
      },
      "properties": {
        "row_id": 72,
        "num_poles": 2
      }
    },
    {
      "type": "Feature",
      "geometry": {
        "type": "LineString",
        "coordinates": [
          [
            -0.5243956297208565,
            53.26801427910365
          ],
          [
            -0.5244306154118613,
            53.26806380416485
          ],
          [
            -0.5244447722795957,
            53.26808171814205
          ],
          [
            -0.5243292248656712,
            53.26808849428874
          ]
        ]
      },
      "properties": {
        "row_id": 74,
        "num_poles": 4
      }
    },
    {
      "type": "Feature",
      "geometry": {
        "type": "LineString",
        "coordinates": [
          [
            -0.5244006596847083,
            53.26805435672105
          ],
          [
            -0.5243536381618816,
            53.26806901886445
          ]
        ]
      },
      "properties": {
        "row_id": 77,
        "num_poles": 2
      }
    },
    {
      "type": "Feature",
      "geometry": {
        "type": "LineString",
        "coordinates": [
          [
            -0.5245366048735068,
            53.26808735092513
          ],
          [
            -0.5245475669749902,
            53.26813610593528
          ]
        ]
      },
      "properties": {
        "row_id": 86,
        "num_poles": 2
      }
    },
    {
      "type": "Feature",
      "geometry": {
        "type": "LineString",
        "coordinates": [
          [
            -0.524449770428002,
            53.26802327749219
          ],
          [
            -0.5246040270088455,
            53.26811660068494
          ]
        ]
      },
      "properties": {
        "row_id": 93,
        "num_poles": 2
      }
    },
    {
      "type": "Feature",
      "geometry": {
        "type": "LineString",
        "coordinates": [
          [
            -0.524307688323204,
            53.268025773479124
          ],
          [
            -0.5242146982720461,
            53.26803193224753
          ],
          [
            -0.5242745789419561,
            53.26810196373046
          ]
        ]
      },
      "properties": {
        "row_id": 104,
        "num_poles": 3
      }
    },
    {
      "type": "Feature",
      "geometry": {
        "type": "LineString",
        "coordinates": [
          [
            -0.5244212740503863,
            53.268011275180704
          ],
          [
            -0.5243891495081145,
            53.268071429503095
          ],
          [
            -0.5244783015497,
            53.26811328653835
          ]
        ]
      },
      "properties": {
        "row_id": 108,
        "num_poles": 3
      }
    },
    {
      "type": "Feature",
      "geometry": {
        "type": "LineString",
        "coordinates": [
          [
            -0.5243205567455271,
            53.26805117746298
          ],
          [
            -0.524433454130844,
            53.268141644070326
          ]
        ]
      },
      "properties": {
        "row_id": 125,
        "num_poles": 2
      }
    },
    {
      "type": "Feature",
      "geometry": {
        "type": "LineString",
        "coordinates": [
          [
            -0.5245515057230293,
            53.2681750156431
          ],
          [
            -0.5244473776719019,
            53.26818515284948
          ]
        ]
      },
      "properties": {
        "row_id": 130,
        "num_poles": 2
      }
    },
    {
      "type": "Feature",
      "geometry": {
        "type": "LineString",
        "coordinates": [
          [
            -0.5245712411232635,
            53.26800838358472
          ],
          [
            -0.524585089366438,
            53.26807766134572
          ]
        ]
      },
      "properties": {
        "row_id": 131,
        "num_poles": 2
      }
    }
  ]
}