{
  "type": "FeatureCollection",
  "features": [
    {
      "type": "Feature",
      "geometry": {
        "type": "Polygon",
        "coordinates": [
          [
            [
              -0.5242784539834333,
              53.2680556746757
            ],
            [
              -0.5242740608441997,
              53.26804189447492
            ],
            [
              -0.5242744690624561,
              53.268047362078605
            ],
            [
              -0.5242769773628493,
              53.26805117041929
            ],
            [
              -0.524276314550745,
              53.26805242638511
            ],
            [
              -0.5242784539834333,
              53.2680556746757
            ]
          ]
        ]
      },
      "properties": {
        "row_id": 0,
        "num_points": 6
      }
    },
    {
      "type": "Feature",
      "geometry": {
        "type": "Polygon",
        "coordinates": [
          [
            [
              -0.52428589446966,
              53.26808232292239
            ],
            [
              -0.5242855792074641,
              53.268078450795805
            ],
            [
              -0.5242826820355861,
              53.26807098175507
            ],
            [
              -0.5242824620289798,
              53.268073233217585
            ],
            [
              -0.52428589446966,
              53.26808232292239
            ]
          ]
        ]
      },
      "properties": {
        "row_id": 1,
        "num_points": 5
      }
    },
    {
      "type": "Feature",
      "geometry": {
        "type": "Polygon",
        "coordinates": [
          [
            [
              -0.5245158653322582,
              53.2681163866217
            ],
            [
              -0.5245163141679466,
              53.268114500562284
            ],
            [
              -0.5245135539173937,
              53.26810753486097
            ],
            [
              -0.524513785210922,
              53.26810474885236
            ],
            [
              -0.5245129285221463,
              53.268104018784726
            ],
            [
              -0.5245131050817053,
              53.26810942092038
            ],
            [
              -0.5245158653322582,
              53.2681163866217
            ]
          ]
        ]
      },
      "properties": {
        "row_id": 2,
        "num_points": 7
      }
    }
  ]
}